<?xml version="1.0" encoding="UTF-8"?>
<gpx xmlns="http://www.topografix.com/GPX/1/1" xmlns:gpxtpx="http://www.garmin.com/xmlschemas/TrackPointExtension/v1" xmlns:xsi="http://www.w3.org/2001/XMLSchema-instance" xsi:schemaLocation="http://www.topografix.com/GPX/1/1 http://www.topografix.com/GPX/1/1/gpx.xsd" version="1.1" creator="gpx.py -- https://github.com/tkrajina/gpxpy">
  <trk>
    <name>gpx from keep</name>
    <type>Run</type>
    <trkseg>
      <trkpt lat="30.665814047812955" lon="114.34045539052994">
        <ele>28.6208438873291</ele>
        <time>2026-04-30T12:05:21Z</time>
      </trkpt>
      <trkpt lat="30.665753330790444" lon="114.34055856107985">
        <ele>28.39556312561035</ele>
        <time>2026-04-30T12:05:29Z</time>
      </trkpt>
      <trkpt lat="30.665743125830986" lon="114.3406293500854">
        <ele>27.676325088366866</ele>
        <time>2026-04-30T12:05:33Z</time>
      </trkpt>
      <trkpt lat="30.665806588676602" lon="114.34078669416016">
        <ele>27.87139327544719</ele>
        <time>2026-04-30T12:05:41Z</time>
      </trkpt>
      <trkpt lat="30.665852540059866" lon="114.3409270195966">
        <ele>30.225458246655762</ele>
        <time>2026-04-30T12:05:49Z</time>
      </trkpt>
      <trkpt lat="30.665924883701187" lon="114.34098393761421">
        <ele>27.281642743386328</ele>
        <time>2026-04-30T12:05:53Z</time>
      </trkpt>
      <trkpt lat="30.66599800882091" lon="114.34099996045816">
        <ele>25.98298520874232</ele>
        <time>2026-04-30T12:05:57Z</time>
      </trkpt>
      <trkpt lat="30.66605661398148" lon="114.34090014142365">
        <ele>25.775425473228097</ele>
        <time>2026-04-30T12:06:05Z</time>
      </trkpt>
      <trkpt lat="30.666179792398456" lon="114.34052372843375">
        <ele>27.461577051319182</ele>
        <time>2026-04-30T12:06:21Z</time>
      </trkpt>
      <trkpt lat="30.66622864088027" lon="114.34042102727537">
        <ele>28.14369022566825</ele>
        <time>2026-04-30T12:06:25Z</time>
      </trkpt>
      <trkpt lat="30.66635721514731" lon="114.34024811164136">
        <ele>26.956093314103782</ele>
        <time>2026-04-30T12:06:37Z</time>
      </trkpt>
      <trkpt lat="30.666471419998704" lon="114.33989234319793">
        <ele>28.184635982848704</ele>
        <time>2026-04-30T12:06:53Z</time>
      </trkpt>
      <trkpt lat="30.66657211593414" lon="114.339689506093">
        <ele>28.861086152493954</ele>
        <time>2026-04-30T12:07:05Z</time>
      </trkpt>
      <trkpt lat="30.666567313106967" lon="114.33928761797158">
        <ele>28.735236501321197</ele>
        <time>2026-04-30T12:07:21Z</time>
      </trkpt>
      <trkpt lat="30.66665400973871" lon="114.3390351816638">
        <ele>27.573424832895398</ele>
        <time>2026-04-30T12:07:32Z</time>
      </trkpt>
      <trkpt lat="30.666702133859363" lon="114.33894559934916">
        <ele>26.78515333123505</ele>
        <time>2026-04-30T12:07:36Z</time>
      </trkpt>
      <trkpt lat="30.666808290118478" lon="114.33870101895776">
        <ele>27.316423961892724</ele>
        <time>2026-04-30T12:07:47Z</time>
      </trkpt>
      <trkpt lat="30.66691502145201" lon="114.33853176182498">
        <ele>28.2579850172624</ele>
        <time>2026-04-30T12:07:56Z</time>
      </trkpt>
      <trkpt lat="30.66699824844275" lon="114.33843939011086">
        <ele>26.767043541185558</ele>
        <time>2026-04-30T12:08:02Z</time>
      </trkpt>
      <trkpt lat="30.66715904194734" lon="114.33830762544085">
        <ele>26.458201539702713</ele>
        <time>2026-04-30T12:08:10Z</time>
      </trkpt>
      <trkpt lat="30.66719206431238" lon="114.33821722888226">
        <ele>28.262849821709096</ele>
        <time>2026-04-30T12:08:14Z</time>
      </trkpt>
      <trkpt lat="30.66720261111279" lon="114.3381218447166">
        <ele>28.88442731462419</ele>
        <time>2026-04-30T12:08:18Z</time>
      </trkpt>
      <trkpt lat="30.66725665538181" lon="114.33799830394847">
        <ele>29.34528072271496</ele>
        <time>2026-04-30T12:08:25Z</time>
      </trkpt>
      <trkpt lat="30.66730618775843" lon="114.33771570191641">
        <ele>27.274879046715796</ele>
        <time>2026-04-30T12:08:36Z</time>
      </trkpt>
      <trkpt lat="30.667339256779773" lon="114.33761431575137">
        <ele>29.58853858243674</ele>
        <time>2026-04-30T12:08:40Z</time>
      </trkpt>
      <trkpt lat="30.667339568663536" lon="114.33744286486443">
        <ele>26.840690313838422</ele>
        <time>2026-04-30T12:08:48Z</time>
      </trkpt>
      <trkpt lat="30.667311751725848" lon="114.33738393144702">
        <ele>27.705867898650467</ele>
        <time>2026-04-30T12:08:51Z</time>
      </trkpt>
      <trkpt lat="30.667257721059432" lon="114.3373262384225">
        <ele>24.02427653130144</ele>
        <time>2026-04-30T12:08:55Z</time>
      </trkpt>
      <trkpt lat="30.66715850201655" lon="114.33731330960033">
        <ele>25.24920202139765</ele>
        <time>2026-04-30T12:08:59Z</time>
      </trkpt>
      <trkpt lat="30.66707417631779" lon="114.33732629468071">
        <ele>25.558097573928535</ele>
        <time>2026-04-30T12:09:03Z</time>
      </trkpt>
      <trkpt lat="30.666903403259163" lon="114.33729681569693">
        <ele>27.727992044761777</ele>
        <time>2026-04-30T12:09:11Z</time>
      </trkpt>
      <trkpt lat="30.66657005641372" lon="114.33745492229748">
        <ele>26.84427635371685</ele>
        <time>2026-04-30T12:09:30Z</time>
      </trkpt>
      <trkpt lat="30.66626012909698" lon="114.33757240543163">
        <ele>25.376321693882346</ele>
        <time>2026-04-30T12:09:48Z</time>
      </trkpt>
      <trkpt lat="30.666044231343122" lon="114.33763612041305">
        <ele>25.420650492422283</ele>
        <time>2026-04-30T12:10:04Z</time>
      </trkpt>
      <trkpt lat="30.665932002415232" lon="114.33773520569338">
        <ele>26.503365319222212</ele>
        <time>2026-04-30T12:10:16Z</time>
      </trkpt>
      <trkpt lat="30.66578442382248" lon="114.33778699053529">
        <ele>24.033702502958477</ele>
        <time>2026-04-30T12:10:24Z</time>
      </trkpt>
      <trkpt lat="30.665727492179656" lon="114.33782755249527">
        <ele>19.748920454643667</ele>
        <time>2026-04-30T12:10:28Z</time>
      </trkpt>
      <trkpt lat="30.66549100284054" lon="114.33790438780233">
        <ele>26.585863293148577</ele>
        <time>2026-04-30T12:10:40Z</time>
      </trkpt>
      <trkpt lat="30.66537729856936" lon="114.33796244313773">
        <ele>25.829867081716657</ele>
        <time>2026-04-30T12:10:44Z</time>
      </trkpt>
      <trkpt lat="30.66519639351528" lon="114.33798882917075">
        <ele>26.32417738623917</ele>
        <time>2026-04-30T12:10:55Z</time>
      </trkpt>
      <trkpt lat="30.66514013048345" lon="114.338031609478">
        <ele>26.017106750048697</ele>
        <time>2026-04-30T12:10:59Z</time>
      </trkpt>
      <trkpt lat="30.66509046344207" lon="114.33818796880108">
        <ele>25.186874333769083</ele>
        <time>2026-04-30T12:11:07Z</time>
      </trkpt>
      <trkpt lat="30.665129309729902" lon="114.3382639857814">
        <ele>24.503475544042885</ele>
        <time>2026-04-30T12:11:10Z</time>
      </trkpt>
      <trkpt lat="30.665146377958926" lon="114.33838440875401">
        <ele>25.544827020727098</ele>
        <time>2026-04-30T12:11:14Z</time>
      </trkpt>
      <trkpt lat="30.66523906997335" lon="114.33868471177863">
        <ele>26.590010294690728</ele>
        <time>2026-04-30T12:11:28Z</time>
      </trkpt>
      <trkpt lat="30.665278997009572" lon="114.33871427056998">
        <ele>25.571660241112113</ele>
        <time>2026-04-30T12:11:31Z</time>
      </trkpt>
      <trkpt lat="30.665325662153958" lon="114.33888440842517">
        <ele>24.373376552946866</ele>
        <time>2026-04-30T12:11:38Z</time>
      </trkpt>
      <trkpt lat="30.665332478179263" lon="114.33913275262684">
        <ele>25.20393710024655</ele>
        <time>2026-04-30T12:11:47Z</time>
      </trkpt>
      <trkpt lat="30.665356751433794" lon="114.33925271949232">
        <ele>25.362921965308487</ele>
        <time>2026-04-30T12:11:53Z</time>
      </trkpt>
      <trkpt lat="30.66538960494336" lon="114.33931542718815">
        <ele>26.009518991224468</ele>
        <time>2026-04-30T12:11:56Z</time>
      </trkpt>
      <trkpt lat="30.665434223625606" lon="114.33946683852406">
        <ele>27.13559435866773</ele>
        <time>2026-04-30T12:12:02Z</time>
      </trkpt>
      <trkpt lat="30.665461797619034" lon="114.33964407180822">
        <ele>26.893966641277075</ele>
        <time>2026-04-30T12:12:08Z</time>
      </trkpt>
      <trkpt lat="30.665502509368103" lon="114.3397719921823">
        <ele>26.45680410321802</ele>
        <time>2026-04-30T12:12:14Z</time>
      </trkpt>
      <trkpt lat="30.66550992728883" lon="114.3398637370399">
        <ele>25.571938334032893</ele>
        <time>2026-04-30T12:12:20Z</time>
      </trkpt>
      <trkpt lat="30.665626708156985" lon="114.34021095392464">
        <ele>25.82026209216565</ele>
        <time>2026-04-30T12:12:36Z</time>
      </trkpt>
      <trkpt lat="30.665648383594853" lon="114.34027039604334">
        <ele>25.344821016304195</ele>
        <time>2026-04-30T12:12:40Z</time>
      </trkpt>
      <trkpt lat="30.665646889240048" lon="114.34034040539417">
        <ele>26.051491954363883</ele>
        <time>2026-04-30T12:12:42Z</time>
      </trkpt>
      <trkpt lat="30.665691664037404" lon="114.34041421453946">
        <ele>26.471050900407135</ele>
        <time>2026-04-30T12:12:48Z</time>
      </trkpt>
      <trkpt lat="30.665716043050942" lon="114.34062146786079">
        <ele>23.944083870388567</ele>
        <time>2026-04-30T12:13:00Z</time>
      </trkpt>
      <trkpt lat="30.665786811549363" lon="114.34076924756644">
        <ele>25.52543169632554</ele>
        <time>2026-04-30T12:13:10Z</time>
      </trkpt>
      <trkpt lat="30.665835945993155" lon="114.34094170588287">
        <ele>23.69271645694971</ele>
        <time>2026-04-30T12:13:17Z</time>
      </trkpt>
      <trkpt lat="30.665899172108386" lon="114.34100287925993">
        <ele>25.023768676444888</ele>
        <time>2026-04-30T12:13:21Z</time>
      </trkpt>
      <trkpt lat="30.666065303680917" lon="114.3410243747243">
        <ele>26.120360620319843</ele>
        <time>2026-04-30T12:13:29Z</time>
      </trkpt>
      <trkpt lat="30.66610469820355" lon="114.34099467947573">
        <ele>25.7622994389385</ele>
        <time>2026-04-30T12:13:32Z</time>
      </trkpt>
      <trkpt lat="30.666123919879517" lon="114.34089368814266">
        <ele>26.945130394771695</ele>
        <time>2026-04-30T12:13:39Z</time>
      </trkpt>
      <trkpt lat="30.666130021735185" lon="114.34069083095761">
        <ele>28.06633104197681</ele>
        <time>2026-04-30T12:13:47Z</time>
      </trkpt>
      <trkpt lat="30.666174899288485" lon="114.34059021927597">
        <ele>28.042122887447476</ele>
        <time>2026-04-30T12:13:50Z</time>
      </trkpt>
      <trkpt lat="30.666207637392628" lon="114.3404654492469">
        <ele>27.368300299160182</ele>
        <time>2026-04-30T12:13:54Z</time>
      </trkpt>
      <trkpt lat="30.666256298960164" lon="114.34036808223303">
        <ele>27.253688860684633</ele>
        <time>2026-04-30T12:13:58Z</time>
      </trkpt>
      <trkpt lat="30.666298307248788" lon="114.3403334815012">
        <ele>25.497987899929285</ele>
        <time>2026-04-30T12:14:01Z</time>
      </trkpt>
      <trkpt lat="30.66638789369712" lon="114.34014069115538">
        <ele>27.964002372696996</ele>
        <time>2026-04-30T12:14:13Z</time>
      </trkpt>
      <trkpt lat="30.66647290950635" lon="114.34002868153733">
        <ele>27.20210701879114</ele>
        <time>2026-04-30T12:14:19Z</time>
      </trkpt>
      <trkpt lat="30.66655161070467" lon="114.33978209574644">
        <ele>26.208206929266453</ele>
        <time>2026-04-30T12:14:31Z</time>
      </trkpt>
      <trkpt lat="30.666582631678736" lon="114.33973596994115">
        <ele>29.087969727814198</ele>
        <time>2026-04-30T12:14:34Z</time>
      </trkpt>
      <trkpt lat="30.666561332303036" lon="114.33962316451637">
        <ele>27.67840553075075</ele>
        <time>2026-04-30T12:14:40Z</time>
      </trkpt>
      <trkpt lat="30.66659035316277" lon="114.33939364602499">
        <ele>27.512307200580835</ele>
        <time>2026-04-30T12:14:49Z</time>
      </trkpt>
      <trkpt lat="30.66657690385146" lon="114.33932361073494">
        <ele>29.132544222287834</ele>
        <time>2026-04-30T12:14:52Z</time>
      </trkpt>
      <trkpt lat="30.666716866577197" lon="114.338975942464">
        <ele>24.23930573090911</ele>
        <time>2026-04-30T12:15:08Z</time>
      </trkpt>
      <trkpt lat="30.666895940487425" lon="114.33862293785585">
        <ele>27.25434612110257</ele>
        <time>2026-04-30T12:15:26Z</time>
      </trkpt>
      <trkpt lat="30.66693814140256" lon="114.33854864324883">
        <ele>26.857050663791597</ele>
        <time>2026-04-30T12:15:30Z</time>
      </trkpt>
      <trkpt lat="30.667086951598563" lon="114.33837494723535">
        <ele>27.275566577911377</ele>
        <time>2026-04-30T12:15:41Z</time>
      </trkpt>
      <trkpt lat="30.6671335782507" lon="114.33829865456849">
        <ele>27.92258798982948</ele>
        <time>2026-04-30T12:15:45Z</time>
      </trkpt>
      <trkpt lat="30.667226730861856" lon="114.33801305313703">
        <ele>26.94388530962169</ele>
        <time>2026-04-30T12:15:59Z</time>
      </trkpt>
      <trkpt lat="30.66727162018282" lon="114.33793971689268">
        <ele>27.511222010478377</ele>
        <time>2026-04-30T12:16:03Z</time>
      </trkpt>
      <trkpt lat="30.667349072919826" lon="114.33762592936262">
        <ele>27.955789391882718</ele>
        <time>2026-04-30T12:16:15Z</time>
      </trkpt>
      <trkpt lat="30.667328599038775" lon="114.33737720048575">
        <ele>26.572013071738183</ele>
        <time>2026-04-30T12:16:27Z</time>
      </trkpt>
      <trkpt lat="30.66726493585947" lon="114.33731130835096">
        <ele>25.994098484516144</ele>
        <time>2026-04-30T12:16:35Z</time>
      </trkpt>
      <trkpt lat="30.667188454526094" lon="114.33729937771702">
        <ele>27.07649091258645</ele>
        <time>2026-04-30T12:16:39Z</time>
      </trkpt>
      <trkpt lat="30.667044489770454" lon="114.33732654345117">
        <ele>26.03684850037098</ele>
        <time>2026-04-30T12:16:47Z</time>
      </trkpt>
      <trkpt lat="30.66695330972962" lon="114.33729456751142">
        <ele>25.001007135026157</ele>
        <time>2026-04-30T12:16:51Z</time>
      </trkpt>
      <trkpt lat="30.66688113436517" lon="114.33729214997636">
        <ele>26.36110478732735</ele>
        <time>2026-04-30T12:16:54Z</time>
      </trkpt>
      <trkpt lat="30.666747480064547" lon="114.33733861140689">
        <ele>23.864096156321466</ele>
        <time>2026-04-30T12:17:02Z</time>
      </trkpt>
      <trkpt lat="30.666676690923964" lon="114.33739453530598">
        <ele>23.275330601260066</ele>
        <time>2026-04-30T12:17:06Z</time>
      </trkpt>
      <trkpt lat="30.666590197609096" lon="114.33740321524533">
        <ele>24.409910664893687</ele>
        <time>2026-04-30T12:17:10Z</time>
      </trkpt>
      <trkpt lat="30.666510326521045" lon="114.33743377220283">
        <ele>24.357199888676405</ele>
        <time>2026-04-30T12:17:14Z</time>
      </trkpt>
      <trkpt lat="30.66630252485183" lon="114.33756208998068">
        <ele>23.18580119870603</ele>
        <time>2026-04-30T12:17:29Z</time>
      </trkpt>
      <trkpt lat="30.66603518748002" lon="114.33761265384278">
        <ele>22.33106137625873</ele>
        <time>2026-04-30T12:17:45Z</time>
      </trkpt>
      <trkpt lat="30.6657909999093" lon="114.3376300453227">
        <ele>20.940463714301586</ele>
        <time>2026-04-30T12:18:02Z</time>
      </trkpt>
      <trkpt lat="30.665688504030097" lon="114.33771942200731">
        <ele>22.858345954678953</ele>
        <time>2026-04-30T12:18:08Z</time>
      </trkpt>
      <trkpt lat="30.66560880536826" lon="114.33775678252431">
        <ele>24.23989649116993</ele>
        <time>2026-04-30T12:18:12Z</time>
      </trkpt>
      <trkpt lat="30.66536336377536" lon="114.33791504958472">
        <ele>24.031125127337873</ele>
        <time>2026-04-30T12:18:24Z</time>
      </trkpt>
      <trkpt lat="30.665201730942645" lon="114.33797711737242">
        <ele>26.03129312954843</ele>
        <time>2026-04-30T12:18:33Z</time>
      </trkpt>
      <trkpt lat="30.665146960098976" lon="114.33797068616855">
        <ele>25.184072948992252</ele>
        <time>2026-04-30T12:18:36Z</time>
      </trkpt>
      <trkpt lat="30.66508700391945" lon="114.33799181920462">
        <ele>24.33984110876918</ele>
        <time>2026-04-30T12:18:39Z</time>
      </trkpt>
      <trkpt lat="30.665018060509105" lon="114.33807180924714">
        <ele>25.944837586022913</ele>
        <time>2026-04-30T12:18:42Z</time>
      </trkpt>
      <trkpt lat="30.665003590366847" lon="114.3381580694506">
        <ele>23.919043518602848</ele>
        <time>2026-04-30T12:18:45Z</time>
      </trkpt>
      <trkpt lat="30.665142849202617" lon="114.33843886772453">
        <ele>26.751025951467454</ele>
        <time>2026-04-30T12:18:58Z</time>
      </trkpt>
      <trkpt lat="30.66520223018495" lon="114.3385810572081">
        <ele>26.633349074050784</ele>
        <time>2026-04-30T12:19:06Z</time>
      </trkpt>
      <trkpt lat="30.665203535598273" lon="114.33863656062073">
        <ele>26.236259415745735</ele>
        <time>2026-04-30T12:19:09Z</time>
      </trkpt>
      <trkpt lat="30.66524517277432" lon="114.33881598547156">
        <ele>28.553662413731217</ele>
        <time>2026-04-30T12:19:20Z</time>
      </trkpt>
      <trkpt lat="30.66530374419221" lon="114.33889919928323">
        <ele>28.325670254416764</ele>
        <time>2026-04-30T12:19:27Z</time>
      </trkpt>
      <trkpt lat="30.66536012442004" lon="114.3390881995067">
        <ele>27.636705407872796</ele>
        <time>2026-04-30T12:19:43Z</time>
      </trkpt>
      <trkpt lat="30.66535639580329" lon="114.33924551003601">
        <ele>28.324537980370224</ele>
        <time>2026-04-30T12:19:55Z</time>
      </trkpt>
      <trkpt lat="30.665437387397503" lon="114.33947515083125">
        <ele>27.92359068058431</ele>
        <time>2026-04-30T12:20:13Z</time>
      </trkpt>
      <trkpt lat="30.665502202248145" lon="114.33980451941677">
        <ele>28.255533666349947</ele>
        <time>2026-04-30T12:20:29Z</time>
      </trkpt>
      <trkpt lat="30.665544602017846" lon="114.33993901197694">
        <ele>26.685949662700295</ele>
        <time>2026-04-30T12:20:35Z</time>
      </trkpt>
      <trkpt lat="30.665549145772317" lon="114.34009518312482">
        <ele>26.35419902112335</ele>
        <time>2026-04-30T12:20:42Z</time>
      </trkpt>
      <trkpt lat="30.665564821490165" lon="114.34016861168878">
        <ele>26.581659802235663</ele>
        <time>2026-04-30T12:20:45Z</time>
      </trkpt>
      <trkpt lat="30.665646409910327" lon="114.34025788536601">
        <ele>25.684569055214524</ele>
        <time>2026-04-30T12:20:49Z</time>
      </trkpt>
      <trkpt lat="30.6657080954437" lon="114.34057747254563">
        <ele>22.99432911351323</ele>
        <time>2026-04-30T12:21:04Z</time>
      </trkpt>
      <trkpt lat="30.665742381991755" lon="114.34074924839298">
        <ele>26.446676035411656</ele>
        <time>2026-04-30T12:21:12Z</time>
      </trkpt>
      <trkpt lat="30.665790801587526" lon="114.34079204721495">
        <ele>24.464851149357855</ele>
        <time>2026-04-30T12:21:19Z</time>
      </trkpt>
      <trkpt lat="30.665800586061973" lon="114.34084614044198">
        <ele>23.646895512007177</ele>
        <time>2026-04-30T12:21:23Z</time>
      </trkpt>
      <trkpt lat="30.66584300458972" lon="114.3409176293574">
        <ele>23.05835341103375</ele>
        <time>2026-04-30T12:21:26Z</time>
      </trkpt>
      <trkpt lat="30.666026312846387" lon="114.34101273334947">
        <ele>28.109169472008944</ele>
        <time>2026-04-30T12:21:34Z</time>
      </trkpt>
      <trkpt lat="30.66609215445131" lon="114.3409955419721">
        <ele>27.964363641105592</ele>
        <time>2026-04-30T12:21:38Z</time>
      </trkpt>
      <trkpt lat="30.666098327032984" lon="114.34087804102091">
        <ele>27.96781267784536</ele>
        <time>2026-04-30T12:21:49Z</time>
      </trkpt>
      <trkpt lat="30.666137235134528" lon="114.34080295740358">
        <ele>27.86315566301346</ele>
        <time>2026-04-30T12:21:53Z</time>
      </trkpt>
      <trkpt lat="30.666139418399798" lon="114.34073588668362">
        <ele>26.5524894669652</ele>
        <time>2026-04-30T12:21:57Z</time>
      </trkpt>
      <trkpt lat="30.666240600446134" lon="114.34060875716887">
        <ele>27.36913927551359</ele>
        <time>2026-04-30T12:22:05Z</time>
      </trkpt>
      <trkpt lat="30.666312876009524" lon="114.34043149212665">
        <ele>27.380914736539125</ele>
        <time>2026-04-30T12:22:16Z</time>
      </trkpt>
      <trkpt lat="30.666373671710044" lon="114.34033415671131">
        <ele>27.843781237490475</ele>
        <time>2026-04-30T12:22:24Z</time>
      </trkpt>
      <trkpt lat="30.66644220679614" lon="114.34008254606266">
        <ele>28.323581440374255</ele>
        <time>2026-04-30T12:22:43Z</time>
      </trkpt>
      <trkpt lat="30.66653014927385" lon="114.3398903761807">
        <ele>25.673196987248957</ele>
        <time>2026-04-30T12:22:58Z</time>
      </trkpt>
      <trkpt lat="30.6665390161723" lon="114.33971281929192">
        <ele>26.543549713678658</ele>
        <time>2026-04-30T12:23:10Z</time>
      </trkpt>
      <trkpt lat="30.66656807397163" lon="114.33966152581145">
        <ele>25.828168842941523</ele>
        <time>2026-04-30T12:23:14Z</time>
      </trkpt>
      <trkpt lat="30.666660515179405" lon="114.3393308543765">
        <ele>28.363222711719573</ele>
        <time>2026-04-30T12:23:36Z</time>
      </trkpt>
      <trkpt lat="30.66674348572052" lon="114.33911588349848">
        <ele>28.764823178760707</ele>
        <time>2026-04-30T12:23:47Z</time>
      </trkpt>
      <trkpt lat="30.666795139589052" lon="114.33888407807046">
        <ele>30.07591138780117</ele>
        <time>2026-04-30T12:24:03Z</time>
      </trkpt>
      <trkpt lat="30.66696735732512" lon="114.33859650643733">
        <ele>28.109976151026785</ele>
        <time>2026-04-30T12:24:28Z</time>
      </trkpt>
      <trkpt lat="30.66710738361667" lon="114.33846543864446">
        <ele>29.90234042517841</ele>
        <time>2026-04-30T12:24:40Z</time>
      </trkpt>
      <trkpt lat="30.667145241670053" lon="114.33840613444643">
        <ele>26.978685663081706</ele>
        <time>2026-04-30T12:24:44Z</time>
      </trkpt>
      <trkpt lat="30.66723276947542" lon="114.33805172576169">
        <ele>27.96697664167732</ele>
        <time>2026-04-30T12:25:00Z</time>
      </trkpt>
      <trkpt lat="30.66724610391898" lon="114.33796484756247">
        <ele>26.644780829548836</ele>
        <time>2026-04-30T12:25:04Z</time>
      </trkpt>
      <trkpt lat="30.66730093582974" lon="114.33786946375001">
        <ele>27.46106998156756</ele>
        <time>2026-04-30T12:25:08Z</time>
      </trkpt>
      <trkpt lat="30.667344969258195" lon="114.33767385626724">
        <ele>27.539373259060085</ele>
        <time>2026-04-30T12:25:16Z</time>
      </trkpt>
      <trkpt lat="30.667389365325402" lon="114.33765463168304">
        <ele>27.45923123601824</ele>
        <time>2026-04-30T12:25:19Z</time>
      </trkpt>
      <trkpt lat="30.667481498287792" lon="114.33753566543605">
        <ele>28.65976740140468</ele>
        <time>2026-04-30T12:25:27Z</time>
      </trkpt>
      <trkpt lat="30.66743829223419" lon="114.33741594061699">
        <ele>27.84371365979314</ele>
        <time>2026-04-30T12:25:34Z</time>
      </trkpt>
      <trkpt lat="30.667391324958043" lon="114.33736357683594">
        <ele>29.369907933287323</ele>
        <time>2026-04-30T12:25:38Z</time>
      </trkpt>
      <trkpt lat="30.667107394227266" lon="114.33729409977596">
        <ele>27.353918216191232</ele>
        <time>2026-04-30T12:25:54Z</time>
      </trkpt>
      <trkpt lat="30.667042515767644" lon="114.33731743243273">
        <ele>27.139329055324197</ele>
        <time>2026-04-30T12:25:58Z</time>
      </trkpt>
      <trkpt lat="30.66700226811681" lon="114.33729041183031">
        <ele>25.268674162216485</ele>
        <time>2026-04-30T12:26:01Z</time>
      </trkpt>
      <trkpt lat="30.666831449713044" lon="114.33731174890882">
        <ele>24.863101860508323</ele>
        <time>2026-04-30T12:26:09Z</time>
      </trkpt>
      <trkpt lat="30.666618428608547" lon="114.33745495950927">
        <ele>25.268639232032</ele>
        <time>2026-04-30T12:26:21Z</time>
      </trkpt>
      <trkpt lat="30.66648369225686" lon="114.3374864831983">
        <ele>24.831178793683648</ele>
        <time>2026-04-30T12:26:27Z</time>
      </trkpt>
      <trkpt lat="30.666431966356097" lon="114.33753765549548">
        <ele>23.090885557234287</ele>
        <time>2026-04-30T12:26:33Z</time>
      </trkpt>
      <trkpt lat="30.666248828966353" lon="114.33758593809311">
        <ele>26.43985549826175</ele>
        <time>2026-04-30T12:26:42Z</time>
      </trkpt>
      <trkpt lat="30.66615124052906" lon="114.33757963151557">
        <ele>23.721185499802232</ele>
        <time>2026-04-30T12:26:48Z</time>
      </trkpt>
      <trkpt lat="30.666077329097924" lon="114.3375994683271">
        <ele>24.781610457226634</ele>
        <time>2026-04-30T12:26:51Z</time>
      </trkpt>
      <trkpt lat="30.666042797378186" lon="114.33755605009961">
        <ele>24.139959005638957</ele>
        <time>2026-04-30T12:26:54Z</time>
      </trkpt>
      <trkpt lat="30.66595790489867" lon="114.33758057825958">
        <ele>23.27855254150927</ele>
        <time>2026-04-30T12:27:00Z</time>
      </trkpt>
      <trkpt lat="30.66591712204179" lon="114.33762496176661">
        <ele>24.170996288768947</ele>
        <time>2026-04-30T12:27:03Z</time>
      </trkpt>
      <trkpt lat="30.665608281195755" lon="114.33770383761009">
        <ele>23.14010263234377</ele>
        <time>2026-04-30T12:27:20Z</time>
      </trkpt>
      <trkpt lat="30.665465859108714" lon="114.3377709820885">
        <ele>21.80318981874734</ele>
        <time>2026-04-30T12:27:27Z</time>
      </trkpt>
      <trkpt lat="30.66541741802076" lon="114.33784293697123">
        <ele>21.351711289957166</ele>
        <time>2026-04-30T12:27:31Z</time>
      </trkpt>
      <trkpt lat="30.665367746030523" lon="114.3378781788117">
        <ele>22.82848967704922</ele>
        <time>2026-04-30T12:27:34Z</time>
      </trkpt>
      <trkpt lat="30.665331861512858" lon="114.33793111745328">
        <ele>25.4033622732386</ele>
        <time>2026-04-30T12:27:38Z</time>
      </trkpt>
      <trkpt lat="30.665147519407515" lon="114.33802011490307">
        <ele>26.78576632682234</ele>
        <time>2026-04-30T12:27:52Z</time>
      </trkpt>
      <trkpt lat="30.665033976596316" lon="114.33805044236331">
        <ele>26.452021108940244</ele>
        <time>2026-04-30T12:28:00Z</time>
      </trkpt>
      <trkpt lat="30.66499403292865" lon="114.33811510727755">
        <ele>26.20524386316538</ele>
        <time>2026-04-30T12:28:04Z</time>
      </trkpt>
      <trkpt lat="30.664974245210413" lon="114.33822418275429">
        <ele>26.97320512868464</ele>
        <time>2026-04-30T12:28:11Z</time>
      </trkpt>
      <trkpt lat="30.665043463549583" lon="114.33847546927038">
        <ele>27.89953829534352</ele>
        <time>2026-04-30T12:28:27Z</time>
      </trkpt>
      <trkpt lat="30.66517930486062" lon="114.33875790667983">
        <ele>26.94721139036119</ele>
        <time>2026-04-30T12:28:46Z</time>
      </trkpt>
      <trkpt lat="30.665236103234047" lon="114.338797550793">
        <ele>28.179282013326883</ele>
        <time>2026-04-30T12:28:50Z</time>
      </trkpt>
      <trkpt lat="30.66527499405752" lon="114.33886299463362">
        <ele>25.627008664421737</ele>
        <time>2026-04-30T12:28:54Z</time>
      </trkpt>
      <trkpt lat="30.665297165743997" lon="114.33909989375235">
        <ele>26.327553566545248</ele>
        <time>2026-04-30T12:29:06Z</time>
      </trkpt>
      <trkpt lat="30.665368849556792" lon="114.33931875614223">
        <ele>27.954259141348302</ele>
        <time>2026-04-30T12:29:14Z</time>
      </trkpt>
      <trkpt lat="30.665385351638392" lon="114.33942920479434">
        <ele>25.355274620465934</ele>
        <time>2026-04-30T12:29:18Z</time>
      </trkpt>
      <trkpt lat="30.66549282068957" lon="114.33974576333853">
        <ele>24.722269037738442</ele>
        <time>2026-04-30T12:29:33Z</time>
      </trkpt>
      <trkpt lat="30.665517297753127" lon="114.33992164245444">
        <ele>26.03065408580005</ele>
        <time>2026-04-30T12:29:41Z</time>
      </trkpt>
      <trkpt lat="30.665589810951154" lon="114.34021798784106">
        <ele>26.592776617966592</ele>
        <time>2026-04-30T12:29:53Z</time>
      </trkpt>
      <trkpt lat="30.665662191544982" lon="114.34036088708338">
        <ele>23.390296480618417</ele>
        <time>2026-04-30T12:30:00Z</time>
      </trkpt>
      <trkpt lat="30.665749550565224" lon="114.34072853061032">
        <ele>25.952754638157785</ele>
        <time>2026-04-30T12:30:19Z</time>
      </trkpt>
      <trkpt lat="30.665764461743745" lon="114.34085568270295">
        <ele>26.64950344339013</ele>
        <time>2026-04-30T12:30:26Z</time>
      </trkpt>
      <trkpt lat="30.665804918534263" lon="114.34092746505331">
        <ele>27.996341209858656</ele>
        <time>2026-04-30T12:30:30Z</time>
      </trkpt>
      <trkpt lat="30.66592411366318" lon="114.34102333714362">
        <ele>27.66703055705875</ele>
        <time>2026-04-30T12:30:37Z</time>
      </trkpt>
      <trkpt lat="30.666040209110655" lon="114.34103533724583">
        <ele>26.538245217874646</ele>
        <time>2026-04-30T12:30:43Z</time>
      </trkpt>
      <trkpt lat="30.66610089217785" lon="114.34101258892044">
        <ele>25.979769897647202</ele>
        <time>2026-04-30T12:30:47Z</time>
      </trkpt>
      <trkpt lat="30.666116104018364" lon="114.34092471413817">
        <ele>26.39504216518253</ele>
        <time>2026-04-30T12:30:51Z</time>
      </trkpt>
      <trkpt lat="30.66610680806611" lon="114.34078220600928">
        <ele>28.1723729390651</ele>
        <time>2026-04-30T12:31:00Z</time>
      </trkpt>
      <trkpt lat="30.66613898226523" lon="114.34068498550063">
        <ele>27.44389334693551</ele>
        <time>2026-04-30T12:31:03Z</time>
      </trkpt>
      <trkpt lat="30.666234284789446" lon="114.34050235354792">
        <ele>27.131449316628277</ele>
        <time>2026-04-30T12:31:09Z</time>
      </trkpt>
      <trkpt lat="30.66623868242802" lon="114.34040522831727">
        <ele>27.849403055384755</ele>
        <time>2026-04-30T12:31:12Z</time>
      </trkpt>
      <trkpt lat="30.666298789653915" lon="114.34033880250014">
        <ele>27.033162958920002</ele>
        <time>2026-04-30T12:31:15Z</time>
      </trkpt>
      <trkpt lat="30.66632537387445" lon="114.3402830788409">
        <ele>27.288449796848</ele>
        <time>2026-04-30T12:31:18Z</time>
      </trkpt>
      <trkpt lat="30.6663926940502" lon="114.340204360438">
        <ele>25.07131362799555</ele>
        <time>2026-04-30T12:31:24Z</time>
      </trkpt>
      <trkpt lat="30.666427716067826" lon="114.33996956629794">
        <ele>29.034645286388695</ele>
        <time>2026-04-30T12:31:38Z</time>
      </trkpt>
      <trkpt lat="30.666469871365862" lon="114.33992534568416">
        <ele>27.801090789027512</ele>
        <time>2026-04-30T12:31:41Z</time>
      </trkpt>
      <trkpt lat="30.666480081699206" lon="114.3398686714626">
        <ele>27.80613813456148</ele>
        <time>2026-04-30T12:31:44Z</time>
      </trkpt>
      <trkpt lat="30.666518351833602" lon="114.33982623835435">
        <ele>27.67572007421404</ele>
        <time>2026-04-30T12:31:48Z</time>
      </trkpt>
      <trkpt lat="30.66654467161593" lon="114.33967363935513">
        <ele>24.454790756106377</ele>
        <time>2026-04-30T12:32:03Z</time>
      </trkpt>
      <trkpt lat="30.66652443889724" lon="114.33958372805284">
        <ele>26.10969703271985</ele>
        <time>2026-04-30T12:32:10Z</time>
      </trkpt>
      <trkpt lat="30.666595560505748" lon="114.33925351610355">
        <ele>27.97216144669801</ele>
        <time>2026-04-30T12:32:32Z</time>
      </trkpt>
      <trkpt lat="30.66671678670989" lon="114.33895066343221">
        <ele>27.659320240840316</ele>
        <time>2026-04-30T12:32:54Z</time>
      </trkpt>
      <trkpt lat="30.666843067031696" lon="114.33867192268231">
        <ele>28.91085868421942</ele>
        <time>2026-04-30T12:33:18Z</time>
      </trkpt>
      <trkpt lat="30.667022964983893" lon="114.33840578214111">
        <ele>27.759590044617653</ele>
        <time>2026-04-30T12:33:43Z</time>
      </trkpt>
      <trkpt lat="30.667149451699288" lon="114.33821436867403">
        <ele>28.144119065254927</ele>
        <time>2026-04-30T12:33:59Z</time>
      </trkpt>
      <trkpt lat="30.667184794336368" lon="114.33804598988985">
        <ele>28.308843057602644</ele>
        <time>2026-04-30T12:34:14Z</time>
      </trkpt>
      <trkpt lat="30.667213385689124" lon="114.33799965730556">
        <ele>28.943171058781445</ele>
        <time>2026-04-30T12:34:18Z</time>
      </trkpt>
      <trkpt lat="30.667319395194806" lon="114.33765244707116">
        <ele>28.391496194526553</ele>
        <time>2026-04-30T12:34:40Z</time>
      </trkpt>
      <trkpt lat="30.667322497257565" lon="114.337420573081">
        <ele>28.46892398223281</ele>
        <time>2026-04-30T12:34:55Z</time>
      </trkpt>
      <trkpt lat="30.667282929977233" lon="114.3373380605931">
        <ele>27.206730796024203</ele>
        <time>2026-04-30T12:35:03Z</time>
      </trkpt>
      <trkpt lat="30.667209329858416" lon="114.33729871866811">
        <ele>26.91254139970988</ele>
        <time>2026-04-30T12:35:11Z</time>
      </trkpt>
      <trkpt lat="30.667052612160262" lon="114.33734544040018">
        <ele>27.175956016406417</ele>
        <time>2026-04-30T12:35:23Z</time>
      </trkpt>
      <trkpt lat="30.666947662486205" lon="114.33733575325081">
        <ele>27.948017586953938</ele>
        <time>2026-04-30T12:35:31Z</time>
      </trkpt>
      <trkpt lat="30.66684593297691" lon="114.33734803560142">
        <ele>27.833099097013474</ele>
        <time>2026-04-30T12:35:39Z</time>
      </trkpt>
      <trkpt lat="30.666585237787956" lon="114.33748288477967">
        <ele>26.821339326910675</ele>
        <time>2026-04-30T12:36:03Z</time>
      </trkpt>
      <trkpt lat="30.66638330929536" lon="114.33750982099357">
        <ele>24.48116548731923</ele>
        <time>2026-04-30T12:36:15Z</time>
      </trkpt>
      <trkpt lat="30.666062315908075" lon="114.33760327665013">
        <ele>24.356659985147417</ele>
        <time>2026-04-30T12:36:31Z</time>
      </trkpt>
      <trkpt lat="30.66599410732074" lon="114.33765789821936">
        <ele>25.277568803168833</ele>
        <time>2026-04-30T12:36:35Z</time>
      </trkpt>
      <trkpt lat="30.66570386643758" lon="114.33771194433592">
        <ele>24.843911598436534</ele>
        <time>2026-04-30T12:36:54Z</time>
      </trkpt>
      <trkpt lat="30.665599727909697" lon="114.3378169370753">
        <ele>25.324298795312643</ele>
        <time>2026-04-30T12:37:01Z</time>
      </trkpt>
      <trkpt lat="30.665353528783548" lon="114.33799180230696">
        <ele>26.029036157764494</ele>
        <time>2026-04-30T12:37:13Z</time>
      </trkpt>
      <trkpt lat="30.665126453647197" lon="114.33813444904085">
        <ele>27.117686511948705</ele>
        <time>2026-04-30T12:37:25Z</time>
      </trkpt>
      <trkpt lat="30.66507359295734" lon="114.3381441329757">
        <ele>25.92073930799961</ele>
        <time>2026-04-30T12:37:29Z</time>
      </trkpt>
      <trkpt lat="30.665189949368465" lon="114.33850454151037">
        <ele>26.231610706076026</ele>
        <time>2026-04-30T12:37:48Z</time>
      </trkpt>
      <trkpt lat="30.66520847870993" lon="114.3385919733033">
        <ele>25.297358851879835</ele>
        <time>2026-04-30T12:37:52Z</time>
      </trkpt>
      <trkpt lat="30.66529817786884" lon="114.33884614367366">
        <ele>28.23191854543984</ele>
        <time>2026-04-30T12:38:04Z</time>
      </trkpt>
      <trkpt lat="30.66532956051497" lon="114.33919756775738">
        <ele>26.6438643662259</ele>
        <time>2026-04-30T12:38:20Z</time>
      </trkpt>
      <trkpt lat="30.665331862525676" lon="114.33926069571719">
        <ele>24.514091380871832</ele>
        <time>2026-04-30T12:38:24Z</time>
      </trkpt>
      <trkpt lat="30.665368759417472" lon="114.33941327953252">
        <ele>25.087905692867935</ele>
        <time>2026-04-30T12:38:32Z</time>
      </trkpt>
      <trkpt lat="30.665462006458792" lon="114.33966382224716">
        <ele>25.640963196754456</ele>
        <time>2026-04-30T12:38:44Z</time>
      </trkpt>
      <trkpt lat="30.66552416426536" lon="114.3399242255141">
        <ele>25.86907710880041</ele>
        <time>2026-04-30T12:38:59Z</time>
      </trkpt>
      <trkpt lat="30.665525779735766" lon="114.34000383154635">
        <ele>26.832488663494587</ele>
        <time>2026-04-30T12:39:03Z</time>
      </trkpt>
      <trkpt lat="30.66557981813443" lon="114.34017889421347">
        <ele>27.332097487524152</ele>
        <time>2026-04-30T12:39:11Z</time>
      </trkpt>
      <trkpt lat="30.66566007966397" lon="114.34032246523411">
        <ele>29.842830143868923</ele>
        <time>2026-04-30T12:39:18Z</time>
      </trkpt>
      <trkpt lat="30.665703766313573" lon="114.3404462210928">
        <ele>24.952818495221436</ele>
        <time>2026-04-30T12:39:25Z</time>
      </trkpt>
      <trkpt lat="30.66570680254985" lon="114.34051420250611">
        <ele>24.769626023247838</ele>
        <time>2026-04-30T12:39:29Z</time>
      </trkpt>
      <trkpt lat="30.66575382770532" lon="114.34065697612557">
        <ele>23.65055732615292</ele>
        <time>2026-04-30T12:39:37Z</time>
      </trkpt>
      <trkpt lat="30.665753801237397" lon="114.34073519225623">
        <ele>26.264109881594777</ele>
        <time>2026-04-30T12:39:41Z</time>
      </trkpt>
      <trkpt lat="30.665784329407565" lon="114.34086380498228">
        <ele>27.214542356319726</ele>
        <time>2026-04-30T12:39:49Z</time>
      </trkpt>
      <trkpt lat="30.66577780487386" lon="114.3409213555121">
        <ele>27.292425875552</ele>
        <time>2026-04-30T12:39:57Z</time>
      </trkpt>
      <trkpt lat="30.665838888214164" lon="114.3409983175621">
        <ele>28.304205056279898</ele>
        <time>2026-04-30T12:40:05Z</time>
      </trkpt>
      <trkpt lat="30.66596859503565" lon="114.34103847947388">
        <ele>27.914543410763144</ele>
        <time>2026-04-30T12:40:13Z</time>
      </trkpt>
      <trkpt lat="30.66611219899316" lon="114.34099781202485">
        <ele>27.899111666716635</ele>
        <time>2026-04-30T12:40:25Z</time>
      </trkpt>
      <trkpt lat="30.66614467556938" lon="114.34094477853152">
        <ele>27.94997840654105</ele>
        <time>2026-04-30T12:40:29Z</time>
      </trkpt>
      <trkpt lat="30.666156102992193" lon="114.34087999861606">
        <ele>27.443253601901233</ele>
        <time>2026-04-30T12:40:33Z</time>
      </trkpt>
      <trkpt lat="30.666195217509994" lon="114.34082286632012">
        <ele>28.019422472454607</ele>
        <time>2026-04-30T12:40:37Z</time>
      </trkpt>
      <trkpt lat="30.666237708445106" lon="114.3405950996386">
        <ele>27.56503106188029</ele>
        <time>2026-04-30T12:40:49Z</time>
      </trkpt>
      <trkpt lat="30.666231626048695" lon="114.34043290400372">
        <ele>27.448949897661805</ele>
        <time>2026-04-30T12:40:57Z</time>
      </trkpt>
      <trkpt lat="30.66626560689622" lon="114.34033171161693">
        <ele>28.0251552015543</ele>
        <time>2026-04-30T12:41:05Z</time>
      </trkpt>
      <trkpt lat="30.66637319825385" lon="114.34026910701164">
        <ele>27.701262603513896</ele>
        <time>2026-04-30T12:41:13Z</time>
      </trkpt>
      <trkpt lat="30.666425087610442" lon="114.34005296237467">
        <ele>27.02789586596191</ele>
        <time>2026-04-30T12:41:28Z</time>
      </trkpt>
      <trkpt lat="30.66647213727445" lon="114.3399906242923">
        <ele>26.325889324769378</ele>
        <time>2026-04-30T12:41:34Z</time>
      </trkpt>
      <trkpt lat="30.666537506272526" lon="114.33996748921335">
        <ele>27.578826066106558</ele>
        <time>2026-04-30T12:41:37Z</time>
      </trkpt>
      <trkpt lat="30.666564326806782" lon="114.33989329218313">
        <ele>27.269082779064775</ele>
        <time>2026-04-30T12:41:43Z</time>
      </trkpt>
      <trkpt lat="30.666577265054475" lon="114.33970750184952">
        <ele>25.326283924281597</ele>
        <time>2026-04-30T12:41:49Z</time>
      </trkpt>
      <trkpt lat="30.666563105714495" lon="114.33963157640034">
        <ele>25.338143761269748</ele>
        <time>2026-04-30T12:41:52Z</time>
      </trkpt>
      <trkpt lat="30.666533062639164" lon="114.33956823012676">
        <ele>25.217599435709417</ele>
        <time>2026-04-30T12:41:55Z</time>
      </trkpt>
      <trkpt lat="30.666575919619923" lon="114.33936344204967">
        <ele>26.818674301728606</ele>
        <time>2026-04-30T12:42:03Z</time>
      </trkpt>
      <trkpt lat="30.66667871687601" lon="114.33914121203871">
        <ele>23.962061346508563</ele>
        <time>2026-04-30T12:42:14Z</time>
      </trkpt>
      <trkpt lat="30.66669677017607" lon="114.33904303067553">
        <ele>25.235530839301646</ele>
        <time>2026-04-30T12:42:18Z</time>
      </trkpt>
      <trkpt lat="30.66685205418325" lon="114.33869578818681">
        <ele>24.581018420867622</ele>
        <time>2026-04-30T12:42:38Z</time>
      </trkpt>
      <trkpt lat="30.667087269198063" lon="114.33844116834287">
        <ele>26.977888410910964</ele>
        <time>2026-04-30T12:42:54Z</time>
      </trkpt>
      <trkpt lat="30.66723724077958" lon="114.3382405309885">
        <ele>27.67221022117883</ele>
        <time>2026-04-30T12:43:06Z</time>
      </trkpt>
      <trkpt lat="30.667203368777926" lon="114.33806872413962">
        <ele>27.042230743914843</ele>
        <time>2026-04-30T12:43:13Z</time>
      </trkpt>
      <trkpt lat="30.667205140654527" lon="114.3379726795671">
        <ele>27.310052955523133</ele>
        <time>2026-04-30T12:43:17Z</time>
      </trkpt>
      <trkpt lat="30.667245501643155" lon="114.33790129987017">
        <ele>26.979343945160508</ele>
        <time>2026-04-30T12:43:21Z</time>
      </trkpt>
      <trkpt lat="30.66730596246652" lon="114.33770898798562">
        <ele>27.204821292310953</ele>
        <time>2026-04-30T12:43:30Z</time>
      </trkpt>
      <trkpt lat="30.667341665537073" lon="114.33745593349568">
        <ele>27.913222297094762</ele>
        <time>2026-04-30T12:43:42Z</time>
      </trkpt>
      <trkpt lat="30.66732906779227" lon="114.33739891047243">
        <ele>25.469168766401708</ele>
        <time>2026-04-30T12:43:45Z</time>
      </trkpt>
      <trkpt lat="30.667293396995518" lon="114.33734352851022">
        <ele>25.10777024831623</ele>
        <time>2026-04-30T12:43:51Z</time>
      </trkpt>
      <trkpt lat="30.667212826344517" lon="114.33728966747326">
        <ele>26.652472433634102</ele>
        <time>2026-04-30T12:43:57Z</time>
      </trkpt>
      <trkpt lat="30.66691978165037" lon="114.33733427373504">
        <ele>28.89946104772389</ele>
        <time>2026-04-30T12:44:12Z</time>
      </trkpt>
      <trkpt lat="30.666798207601918" lon="114.33734765640824">
        <ele>25.01828356925398</ele>
        <time>2026-04-30T12:44:20Z</time>
      </trkpt>
      <trkpt lat="30.66667637538019" lon="114.33742780406796">
        <ele>26.68948078341782</ele>
        <time>2026-04-30T12:44:28Z</time>
      </trkpt>
      <trkpt lat="30.666533603380454" lon="114.33748367742822">
        <ele>27.063046817667782</ele>
        <time>2026-04-30T12:44:36Z</time>
      </trkpt>
      <trkpt lat="30.666462031387752" lon="114.33749433838305">
        <ele>25.83505562040955</ele>
        <time>2026-04-30T12:44:40Z</time>
      </trkpt>
      <trkpt lat="30.666360992994093" lon="114.337577135345">
        <ele>22.45702523738146</ele>
        <time>2026-04-30T12:44:48Z</time>
      </trkpt>
      <trkpt lat="30.6661541835383" lon="114.33764873252215">
        <ele>25.358657150529325</ele>
        <time>2026-04-30T12:44:59Z</time>
      </trkpt>
      <trkpt lat="30.666091403716546" lon="114.33762736981146">
        <ele>26.300758353434503</ele>
        <time>2026-04-30T12:45:03Z</time>
      </trkpt>
      <trkpt lat="30.666017720352848" lon="114.33763871964571">
        <ele>27.307567487470806</ele>
        <time>2026-04-30T12:45:07Z</time>
      </trkpt>
      <trkpt lat="30.66592956353202" lon="114.33768145388926">
        <ele>25.954874533228576</ele>
        <time>2026-04-30T12:45:11Z</time>
      </trkpt>
      <trkpt lat="30.6658659514469" lon="114.33768945529113">
        <ele>25.450146321207285</ele>
        <time>2026-04-30T12:45:15Z</time>
      </trkpt>
      <trkpt lat="30.66572671081616" lon="114.33780331086659">
        <ele>22.772328949533403</ele>
        <time>2026-04-30T12:45:23Z</time>
      </trkpt>
      <trkpt lat="30.665547089860887" lon="114.33786252614546">
        <ele>20.853894500993192</ele>
        <time>2026-04-30T12:45:35Z</time>
      </trkpt>
      <trkpt lat="30.66531399892241" lon="114.33800078592365">
        <ele>28.597696581855416</ele>
        <time>2026-04-30T12:45:50Z</time>
      </trkpt>
      <trkpt lat="30.66516036636382" lon="114.33804254505785">
        <ele>25.49999047908932</ele>
        <time>2026-04-30T12:45:59Z</time>
      </trkpt>
      <trkpt lat="30.6650943226808" lon="114.33803714076181">
        <ele>25.165956674143672</ele>
        <time>2026-04-30T12:46:02Z</time>
      </trkpt>
      <trkpt lat="30.664973029330874" lon="114.33817308960329">
        <ele>24.37893204856664</ele>
        <time>2026-04-30T12:46:08Z</time>
      </trkpt>
      <trkpt lat="30.66497243278238" lon="114.33822582090217">
        <ele>27.268135017715394</ele>
        <time>2026-04-30T12:46:14Z</time>
      </trkpt>
      <trkpt lat="30.664932615637515" lon="114.3382814155837">
        <ele>26.078805580735207</ele>
        <time>2026-04-30T12:46:21Z</time>
      </trkpt>
      <trkpt lat="30.664774975409614" lon="114.3383689081921">
        <ele>25.643639883957803</ele>
        <time>2026-04-30T12:46:31Z</time>
      </trkpt>
      <trkpt lat="30.66466604543359" lon="114.33845650563057">
        <ele>29.003236915916204</ele>
        <time>2026-04-30T12:46:38Z</time>
      </trkpt>
      <trkpt lat="30.664357636000908" lon="114.33853894667162">
        <ele>29.235742025077343</ele>
        <time>2026-04-30T12:46:57Z</time>
      </trkpt>
      <trkpt lat="30.66430070594096" lon="114.33857451472615">
        <ele>28.77568860631436</ele>
        <time>2026-04-30T12:47:00Z</time>
      </trkpt>
      <trkpt lat="30.66424407298411" lon="114.3385803338383">
        <ele>26.00803705304861</ele>
        <time>2026-04-30T12:47:04Z</time>
      </trkpt>
      <trkpt lat="30.664202405671332" lon="114.33860817510582">
        <ele>27.47605581395328</ele>
        <time>2026-04-30T12:47:07Z</time>
      </trkpt>
      <trkpt lat="30.664092667096266" lon="114.33861507569625">
        <ele>26.21165798418224</ele>
        <time>2026-04-30T12:47:19Z</time>
      </trkpt>
      <trkpt lat="30.663804077550402" lon="114.33871154303216">
        <ele>26.605097223073244</ele>
        <time>2026-04-30T12:47:35Z</time>
      </trkpt>
      <trkpt lat="30.66372360791833" lon="114.33884293285365">
        <ele>26.28739861957729</ele>
        <time>2026-04-30T12:47:44Z</time>
      </trkpt>
      <trkpt lat="30.663731390668108" lon="114.33890684485209">
        <ele>27.268443861976266</ele>
        <time>2026-04-30T12:47:47Z</time>
      </trkpt>
      <trkpt lat="30.66353946825681" lon="114.33898048775237">
        <ele>27.04213308915496</ele>
        <time>2026-04-30T12:47:59Z</time>
      </trkpt>
      <trkpt lat="30.66335938955037" lon="114.33902885770985">
        <ele>29.76584959588945</ele>
        <time>2026-04-30T12:48:08Z</time>
      </trkpt>
      <trkpt lat="30.663135451626996" lon="114.3391191023128">
        <ele>24.852841874584556</ele>
        <time>2026-04-30T12:48:20Z</time>
      </trkpt>
      <trkpt lat="30.663028584425447" lon="114.33920477944541">
        <ele>26.465427820570767</ele>
        <time>2026-04-30T12:48:26Z</time>
      </trkpt>
      <trkpt lat="30.6627594069286" lon="114.33930552019343">
        <ele>25.205643167719245</ele>
        <time>2026-04-30T12:48:41Z</time>
      </trkpt>
      <trkpt lat="30.66253380908915" lon="114.33940619793583">
        <ele>27.228762404993176</ele>
        <time>2026-04-30T12:48:53Z</time>
      </trkpt>
      <trkpt lat="30.662398560292225" lon="114.33942067501054">
        <ele>23.372545246966183</ele>
        <time>2026-04-30T12:49:00Z</time>
      </trkpt>
      <trkpt lat="30.662281580023432" lon="114.3395033973514">
        <ele>25.68064890988171</ele>
        <time>2026-04-30T12:49:07Z</time>
      </trkpt>
      <trkpt lat="30.66212679512223" lon="114.3395653392088">
        <ele>26.60425061918795</ele>
        <time>2026-04-30T12:49:16Z</time>
      </trkpt>
      <trkpt lat="30.662055216936615" lon="114.33951421555138">
        <ele>23.943022680468857</ele>
        <time>2026-04-30T12:49:22Z</time>
      </trkpt>
      <trkpt lat="30.66198537645508" lon="114.33930412992505">
        <ele>26.913807233795524</ele>
        <time>2026-04-30T12:49:32Z</time>
      </trkpt>
      <trkpt lat="30.661941853190363" lon="114.33894924965267">
        <ele>26.032798886299133</ele>
        <time>2026-04-30T12:49:48Z</time>
      </trkpt>
      <trkpt lat="30.661900279017406" lon="114.33866666551982">
        <ele>26.219125270843506</ele>
        <time>2026-04-30T12:50:03Z</time>
      </trkpt>
      <trkpt lat="30.661907932017975" lon="114.33861518891416">
        <ele>26.35121500492096</ele>
        <time>2026-04-30T12:50:06Z</time>
      </trkpt>
      <trkpt lat="30.661872491043333" lon="114.33840092538709">
        <ele>25.681788366287947</ele>
        <time>2026-04-30T12:50:18Z</time>
      </trkpt>
      <trkpt lat="30.661870635670663" lon="114.33829618803135">
        <ele>25.04081810452044</ele>
        <time>2026-04-30T12:50:24Z</time>
      </trkpt>
      <trkpt lat="30.661839557914867" lon="114.33808084473549">
        <ele>26.191263427957892</ele>
        <time>2026-04-30T12:50:36Z</time>
      </trkpt>
      <trkpt lat="30.661785600851506" lon="114.33808969697903">
        <ele>25.783419114537537</ele>
        <time>2026-04-30T12:50:42Z</time>
      </trkpt>
      <trkpt lat="30.661833273816278" lon="114.33810422758734">
        <ele>26.975890770554543</ele>
        <time>2026-04-30T12:50:54Z</time>
      </trkpt>
      <trkpt lat="30.66183717626304" lon="114.33804105181783">
        <ele>26.7705935863778</ele>
        <time>2026-04-30T12:50:58Z</time>
      </trkpt>
      <trkpt lat="30.661784792797114" lon="114.33768465470291">
        <ele>26.401277896016836</ele>
        <time>2026-04-30T12:51:22Z</time>
      </trkpt>
      <trkpt lat="30.661772458411466" lon="114.3374246414136">
        <ele>26.375826818868518</ele>
        <time>2026-04-30T12:51:38Z</time>
      </trkpt>
      <trkpt lat="30.661716216238197" lon="114.33723862910253">
        <ele>20.513691569678485</ele>
        <time>2026-04-30T12:51:51Z</time>
      </trkpt>
      <trkpt lat="30.66174855065123" lon="114.33713178188162">
        <ele>23.87743043806404</ele>
        <time>2026-04-30T12:51:57Z</time>
      </trkpt>
      <trkpt lat="30.661737339592268" lon="114.33692568289062">
        <ele>24.11862437799573</ele>
        <time>2026-04-30T12:52:09Z</time>
      </trkpt>
      <trkpt lat="30.66170040358671" lon="114.33683215943321">
        <ele>21.76661896891892</ele>
        <time>2026-04-30T12:52:15Z</time>
      </trkpt>
      <trkpt lat="30.66167033771917" lon="114.3366507203773">
        <ele>23.761867286637425</ele>
        <time>2026-04-30T12:52:24Z</time>
      </trkpt>
      <trkpt lat="30.66163848379254" lon="114.33655496268236">
        <ele>24.690563209354877</ele>
        <time>2026-04-30T12:52:27Z</time>
      </trkpt>
      <trkpt lat="30.661642719134345" lon="114.33645748462398">
        <ele>25.526979534886777</ele>
        <time>2026-04-30T12:52:33Z</time>
      </trkpt>
      <trkpt lat="30.66162866254399" lon="114.33639831388084">
        <ele>24.537293380126357</ele>
        <time>2026-04-30T12:52:36Z</time>
      </trkpt>
      <trkpt lat="30.661645588602674" lon="114.33633905235743">
        <ele>23.951980005018413</ele>
        <time>2026-04-30T12:52:39Z</time>
      </trkpt>
      <trkpt lat="30.661625277141614" lon="114.33627222399862">
        <ele>24.03957472834736</ele>
        <time>2026-04-30T12:52:42Z</time>
      </trkpt>
      <trkpt lat="30.661608821271866" lon="114.3361063555013">
        <ele>24.596204284578562</ele>
        <time>2026-04-30T12:52:51Z</time>
      </trkpt>
      <trkpt lat="30.661549245546244" lon="114.33589675585576">
        <ele>22.41549477353692</ele>
        <time>2026-04-30T12:53:01Z</time>
      </trkpt>
      <trkpt lat="30.661543525673224" lon="114.33571066079558">
        <ele>24.682209302671254</ele>
        <time>2026-04-30T12:53:13Z</time>
      </trkpt>
      <trkpt lat="30.66145903322503" lon="114.33556882771218">
        <ele>21.56677354220301</ele>
        <time>2026-04-30T12:53:22Z</time>
      </trkpt>
      <trkpt lat="30.66139748998129" lon="114.33537792913461">
        <ele>25.566272267140448</ele>
        <time>2026-04-30T12:53:31Z</time>
      </trkpt>
      <trkpt lat="30.661399292904054" lon="114.33531991778867">
        <ele>25.391971887089312</ele>
        <time>2026-04-30T12:53:34Z</time>
      </trkpt>
      <trkpt lat="30.661306541035277" lon="114.3349553748479">
        <ele>23.299919459968805</ele>
        <time>2026-04-30T12:53:52Z</time>
      </trkpt>
      <trkpt lat="30.66128194881701" lon="114.33481631982002">
        <ele>24.765475298278034</ele>
        <time>2026-04-30T12:54:00Z</time>
      </trkpt>
      <trkpt lat="30.661275831479294" lon="114.33491356802743">
        <ele>21.940906131640077</ele>
        <time>2026-04-30T12:54:08Z</time>
      </trkpt>
      <trkpt lat="30.66133550631193" lon="114.33510449788356">
        <ele>22.04712585825473</ele>
        <time>2026-04-30T12:54:16Z</time>
      </trkpt>
      <trkpt lat="30.66132643058979" lon="114.33517714228402">
        <ele>21.554820952937007</ele>
        <time>2026-04-30T12:54:20Z</time>
      </trkpt>
      <trkpt lat="30.661368799797444" lon="114.33525715345966">
        <ele>21.305670539848506</ele>
        <time>2026-04-30T12:54:24Z</time>
      </trkpt>
      <trkpt lat="30.66148625404341" lon="114.33538260054857">
        <ele>19.150462545454502</ele>
        <time>2026-04-30T12:54:32Z</time>
      </trkpt>
      <trkpt lat="30.66154182000328" lon="114.33565780610812">
        <ele>20.14369024708867</ele>
        <time>2026-04-30T12:54:50Z</time>
      </trkpt>
    </trkseg>
  </trk>
</gpx>