<?xml version="1.0" encoding="UTF-8"?>
<gpx xmlns="http://www.topografix.com/GPX/1/1" xmlns:gpxtpx="http://www.garmin.com/xmlschemas/TrackPointExtension/v1" xmlns:xsi="http://www.w3.org/2001/XMLSchema-instance" xsi:schemaLocation="http://www.topografix.com/GPX/1/1 http://www.topografix.com/GPX/1/1/gpx.xsd" version="1.1" creator="gpx.py -- https://github.com/tkrajina/gpxpy">
  <trk>
    <name>gpx from keep</name>
    <type>Run</type>
    <trkseg>
      <trkpt lat="30.6674659683086" lon="114.33832803808038">
        <ele>25.16900062561035</ele>
        <time>2026-06-30T11:47:11Z</time>
      </trkpt>
      <trkpt lat="30.66746402090428" lon="114.33819185062653">
        <ele>27.625543571412564</ele>
        <time>2026-06-30T11:47:14Z</time>
      </trkpt>
      <trkpt lat="30.667478515286973" lon="114.33812002812047">
        <ele>24.77407315839082</ele>
        <time>2026-06-30T11:47:17Z</time>
      </trkpt>
      <trkpt lat="30.667376901656592" lon="114.33805423748277">
        <ele>25.08254487067461</ele>
        <time>2026-06-30T11:47:23Z</time>
      </trkpt>
      <trkpt lat="30.66731327491405" lon="114.3380344395031">
        <ele>26.261530457995832</ele>
        <time>2026-06-30T11:47:26Z</time>
      </trkpt>
      <trkpt lat="30.667273947291044" lon="114.33794646142422">
        <ele>24.691431279294193</ele>
        <time>2026-06-30T11:47:32Z</time>
      </trkpt>
      <trkpt lat="30.6673859330391" lon="114.33762320716745">
        <ele>28.335409720428288</ele>
        <time>2026-06-30T11:47:41Z</time>
      </trkpt>
      <trkpt lat="30.66739894076821" lon="114.3374802925643">
        <ele>26.554599476978183</ele>
        <time>2026-06-30T11:47:47Z</time>
      </trkpt>
      <trkpt lat="30.667374971694464" lon="114.33741057508932">
        <ele>27.162267416715622</ele>
        <time>2026-06-30T11:47:50Z</time>
      </trkpt>
      <trkpt lat="30.667336588261772" lon="114.33736669378862">
        <ele>27.23580176476389</ele>
        <time>2026-06-30T11:47:53Z</time>
      </trkpt>
      <trkpt lat="30.667265747875152" lon="114.337332841737">
        <ele>26.955783942714334</ele>
        <time>2026-06-30T11:47:56Z</time>
      </trkpt>
      <trkpt lat="30.666977510135684" lon="114.33731740640708">
        <ele>27.31099695060402</ele>
        <time>2026-06-30T11:48:08Z</time>
      </trkpt>
      <trkpt lat="30.66691761846707" lon="114.33730723227421">
        <ele>28.00984659511596</ele>
        <time>2026-06-30T11:48:11Z</time>
      </trkpt>
      <trkpt lat="30.66685355115774" lon="114.33731844336516">
        <ele>27.14452334586531</ele>
        <time>2026-06-30T11:48:14Z</time>
      </trkpt>
      <trkpt lat="30.666796455556195" lon="114.33736640295666">
        <ele>27.608316930010915</ele>
        <time>2026-06-30T11:48:17Z</time>
      </trkpt>
      <trkpt lat="30.666529221918836" lon="114.33747016483832">
        <ele>27.164933272637427</ele>
        <time>2026-06-30T11:48:29Z</time>
      </trkpt>
      <trkpt lat="30.66622345672298" lon="114.33761567796476">
        <ele>25.739286245778203</ele>
        <time>2026-06-30T11:48:44Z</time>
      </trkpt>
      <trkpt lat="30.665905096804472" lon="114.3377440411096">
        <ele>26.838402962312102</ele>
        <time>2026-06-30T11:49:00Z</time>
      </trkpt>
      <trkpt lat="30.66562710090705" lon="114.33784722433911">
        <ele>25.079549375921488</ele>
        <time>2026-06-30T11:49:15Z</time>
      </trkpt>
      <trkpt lat="30.665548278531688" lon="114.33790131908529">
        <ele>25.9360476648435</ele>
        <time>2026-06-30T11:49:19Z</time>
      </trkpt>
      <trkpt lat="30.665381672668886" lon="114.3379761026908">
        <ele>25.555634045042098</ele>
        <time>2026-06-30T11:49:27Z</time>
      </trkpt>
      <trkpt lat="30.665185193418896" lon="114.33802890631318">
        <ele>25.06298030912876</ele>
        <time>2026-06-30T11:49:35Z</time>
      </trkpt>
      <trkpt lat="30.66511048946702" lon="114.33807987582854">
        <ele>26.336725510656834</ele>
        <time>2026-06-30T11:49:39Z</time>
      </trkpt>
      <trkpt lat="30.665104303665704" lon="114.33816851369312">
        <ele>26.1306278295815</ele>
        <time>2026-06-30T11:49:43Z</time>
      </trkpt>
      <trkpt lat="30.66512866601987" lon="114.33825093045017">
        <ele>26.69840200431645</ele>
        <time>2026-06-30T11:49:47Z</time>
      </trkpt>
      <trkpt lat="30.66517720078889" lon="114.33832723456003">
        <ele>26.366743471473455</ele>
        <time>2026-06-30T11:49:51Z</time>
      </trkpt>
      <trkpt lat="30.665247968169144" lon="114.33863084899066">
        <ele>26.27366504445672</ele>
        <time>2026-06-30T11:50:03Z</time>
      </trkpt>
      <trkpt lat="30.665324651935453" lon="114.33894159966268">
        <ele>26.319836234673858</ele>
        <time>2026-06-30T11:50:15Z</time>
      </trkpt>
      <trkpt lat="30.665363373815964" lon="114.33931839737947">
        <ele>26.965940926223993</ele>
        <time>2026-06-30T11:50:31Z</time>
      </trkpt>
      <trkpt lat="30.665409780883603" lon="114.33940790190118">
        <ele>27.517220890149474</ele>
        <time>2026-06-30T11:50:35Z</time>
      </trkpt>
      <trkpt lat="30.665483488532143" lon="114.33978861599329">
        <ele>26.43229575548321</ele>
        <time>2026-06-30T11:50:51Z</time>
      </trkpt>
      <trkpt lat="30.665499501076" lon="114.33989226276239">
        <ele>26.96524741873145</ele>
        <time>2026-06-30T11:50:55Z</time>
      </trkpt>
      <trkpt lat="30.665602308693956" lon="114.34023458764175">
        <ele>26.64295721054077</ele>
        <time>2026-06-30T11:51:11Z</time>
      </trkpt>
      <trkpt lat="30.665651512042743" lon="114.34043617370965">
        <ele>26.033405429683626</ele>
        <time>2026-06-30T11:51:19Z</time>
      </trkpt>
      <trkpt lat="30.665684662704283" lon="114.34051105797879">
        <ele>26.110112600959837</ele>
        <time>2026-06-30T11:51:22Z</time>
      </trkpt>
      <trkpt lat="30.665702945206885" lon="114.34060581440912">
        <ele>26.278154058381915</ele>
        <time>2026-06-30T11:51:25Z</time>
      </trkpt>
      <trkpt lat="30.665739439572654" lon="114.34066840462548">
        <ele>27.008159923367202</ele>
        <time>2026-06-30T11:51:28Z</time>
      </trkpt>
      <trkpt lat="30.66581692338527" lon="114.34090504149108">
        <ele>26.84158876631409</ele>
        <time>2026-06-30T11:51:38Z</time>
      </trkpt>
      <trkpt lat="30.665887764983182" lon="114.34096292841909">
        <ele>26.904194474220276</ele>
        <time>2026-06-30T11:51:42Z</time>
      </trkpt>
      <trkpt lat="30.665975571257746" lon="114.34099044636771">
        <ele>27.64796139486134</ele>
        <time>2026-06-30T11:51:46Z</time>
      </trkpt>
      <trkpt lat="30.666054897243832" lon="114.3409895370606">
        <ele>27.528722728602588</ele>
        <time>2026-06-30T11:51:50Z</time>
      </trkpt>
      <trkpt lat="30.666191481463024" lon="114.34063577753253">
        <ele>28.30864843353629</ele>
        <time>2026-06-30T11:52:06Z</time>
      </trkpt>
      <trkpt lat="30.666286996378144" lon="114.34024510104575">
        <ele>26.555894215591252</ele>
        <time>2026-06-30T11:52:22Z</time>
      </trkpt>
      <trkpt lat="30.666312118718402" lon="114.34015656164185">
        <ele>27.241449285298586</ele>
        <time>2026-06-30T11:52:26Z</time>
      </trkpt>
      <trkpt lat="30.666434916039655" lon="114.33991061171915">
        <ele>27.80293466616422</ele>
        <time>2026-06-30T11:52:38Z</time>
      </trkpt>
      <trkpt lat="30.666492441371872" lon="114.33983805167134">
        <ele>26.438254175707698</ele>
        <time>2026-06-30T11:52:42Z</time>
      </trkpt>
      <trkpt lat="30.66659809703527" lon="114.33947744500098">
        <ele>26.209819547832012</ele>
        <time>2026-06-30T11:52:58Z</time>
      </trkpt>
      <trkpt lat="30.666698307396512" lon="114.33907573496771">
        <ele>26.623483640141785</ele>
        <time>2026-06-30T11:53:14Z</time>
      </trkpt>
      <trkpt lat="30.666828643130494" lon="114.33875417271797">
        <ele>27.8823620704934</ele>
        <time>2026-06-30T11:53:29Z</time>
      </trkpt>
      <trkpt lat="30.667026920667613" lon="114.33846732680982">
        <ele>26.80954430811107</ele>
        <time>2026-06-30T11:53:44Z</time>
      </trkpt>
      <trkpt lat="30.667056461554104" lon="114.33840452220501">
        <ele>26.515263843350112</ele>
        <time>2026-06-30T11:53:47Z</time>
      </trkpt>
      <trkpt lat="30.667097224583802" lon="114.33837785193118">
        <ele>30.057320279069245</ele>
        <time>2026-06-30T11:54:06Z</time>
      </trkpt>
      <trkpt lat="30.667268595073786" lon="114.33844378373556">
        <ele>27.217003667727113</ele>
        <time>2026-06-30T11:54:35Z</time>
      </trkpt>
      <trkpt lat="30.667274737923165" lon="114.33832378655447">
        <ele>27.685070760548115</ele>
        <time>2026-06-30T11:54:39Z</time>
      </trkpt>
      <trkpt lat="30.66724171554428" lon="114.33810504211087">
        <ele>27.043305869214237</ele>
        <time>2026-06-30T11:54:47Z</time>
      </trkpt>
      <trkpt lat="30.667323870624262" lon="114.33778824834621">
        <ele>27.4354747813195</ele>
        <time>2026-06-30T11:54:58Z</time>
      </trkpt>
      <trkpt lat="30.667380959784875" lon="114.33757571006909">
        <ele>26.504208942875266</ele>
        <time>2026-06-30T11:55:06Z</time>
      </trkpt>
      <trkpt lat="30.66736575552417" lon="114.33746379882103">
        <ele>26.286964938044548</ele>
        <time>2026-06-30T11:55:10Z</time>
      </trkpt>
      <trkpt lat="30.667331612108427" lon="114.33738627871452">
        <ele>25.264314047060907</ele>
        <time>2026-06-30T11:55:14Z</time>
      </trkpt>
      <trkpt lat="30.667237273392544" lon="114.3373476469254">
        <ele>27.362797793000937</ele>
        <time>2026-06-30T11:55:18Z</time>
      </trkpt>
      <trkpt lat="30.66704635254649" lon="114.3373440792736">
        <ele>25.928187034092844</ele>
        <time>2026-06-30T11:55:26Z</time>
      </trkpt>
      <trkpt lat="30.6672106355005" lon="114.33730191918706">
        <ele>24.647227726876736</ele>
        <time>2026-06-30T11:55:37Z</time>
      </trkpt>
      <trkpt lat="30.667274173023866" lon="114.33733044058857">
        <ele>26.26675472036004</ele>
        <time>2026-06-30T11:55:41Z</time>
      </trkpt>
      <trkpt lat="30.667322550231024" lon="114.33738178854234">
        <ele>26.903307082131505</ele>
        <time>2026-06-30T11:55:44Z</time>
      </trkpt>
      <trkpt lat="30.667384135335787" lon="114.33758986452918">
        <ele>26.76030004583299</ele>
        <time>2026-06-30T11:55:53Z</time>
      </trkpt>
      <trkpt lat="30.66734803096732" lon="114.33783871122118">
        <ele>25.850670313462615</ele>
        <time>2026-06-30T11:56:03Z</time>
      </trkpt>
      <trkpt lat="30.66729615824938" lon="114.33800016946687">
        <ele>27.010216805152595</ele>
        <time>2026-06-30T11:56:10Z</time>
      </trkpt>
      <trkpt lat="30.66724525505274" lon="114.33807398289945">
        <ele>25.34307673946023</ele>
        <time>2026-06-30T11:56:14Z</time>
      </trkpt>
      <trkpt lat="30.66716326320141" lon="114.33838346516673">
        <ele>26.2747271778062</ele>
        <time>2026-06-30T11:56:29Z</time>
      </trkpt>
      <trkpt lat="30.667162504106972" lon="114.33849180878282">
        <ele>25.820183909498155</ele>
        <time>2026-06-30T11:56:33Z</time>
      </trkpt>
      <trkpt lat="30.667095774019025" lon="114.3386478961737">
        <ele>26.45843812637031</ele>
        <time>2026-06-30T11:56:40Z</time>
      </trkpt>
      <trkpt lat="30.666889011773478" lon="114.33894689267515">
        <ele>27.806452361866832</ele>
        <time>2026-06-30T11:56:55Z</time>
      </trkpt>
      <trkpt lat="30.666833946498343" lon="114.33902991274303">
        <ele>27.82018710114062</ele>
        <time>2026-06-30T11:56:59Z</time>
      </trkpt>
      <trkpt lat="30.66685499802874" lon="114.33909851682051">
        <ele>26.159564898349345</ele>
        <time>2026-06-30T11:57:03Z</time>
      </trkpt>
      <trkpt lat="30.666950451485313" lon="114.3391558052984">
        <ele>26.475251818075776</ele>
        <time>2026-06-30T11:57:11Z</time>
      </trkpt>
    </trkseg>
  </trk>
</gpx>