<?xml version="1.0" encoding="UTF-8"?>
<gpx xmlns="http://www.topografix.com/GPX/1/1" xmlns:gpxtpx="http://www.garmin.com/xmlschemas/TrackPointExtension/v1" xmlns:xsi="http://www.w3.org/2001/XMLSchema-instance" xsi:schemaLocation="http://www.topografix.com/GPX/1/1 http://www.topografix.com/GPX/1/1/gpx.xsd" version="1.1" creator="gpx.py -- https://github.com/tkrajina/gpxpy">
  <trk>
    <name>gpx from keep</name>
    <type>Run</type>
    <trkseg>
      <trkpt lat="30.492112139630535" lon="114.42163846233696">
        <ele>47.09237289428711</ele>
        <time>2026-02-27T00:20:45Z</time>
      </trkpt>
      <trkpt lat="30.49205236771055" lon="114.42160232645749">
        <ele>48.20565414428711</ele>
        <time>2026-02-27T00:20:48Z</time>
      </trkpt>
      <trkpt lat="30.491758659592847" lon="114.42153306706075">
        <ele>46.38357229810208</ele>
        <time>2026-02-27T00:21:00Z</time>
      </trkpt>
      <trkpt lat="30.491453419771677" lon="114.42143883089294">
        <ele>42.4083689423278</ele>
        <time>2026-02-27T00:21:15Z</time>
      </trkpt>
      <trkpt lat="30.491398947529316" lon="114.42140816175032">
        <ele>41.00628307648003</ele>
        <time>2026-02-27T00:21:18Z</time>
      </trkpt>
      <trkpt lat="30.491329970048046" lon="114.42139692254521">
        <ele>42.060895374044776</ele>
        <time>2026-02-27T00:21:21Z</time>
      </trkpt>
      <trkpt lat="30.491269098306446" lon="114.42135559235729">
        <ele>41.23373848665506</ele>
        <time>2026-02-27T00:21:24Z</time>
      </trkpt>
      <trkpt lat="30.491010286138035" lon="114.42136655759799">
        <ele>39.3275210428983</ele>
        <time>2026-02-27T00:21:36Z</time>
      </trkpt>
      <trkpt lat="30.49081777603381" lon="114.42130479263652">
        <ele>39.010433305986226</ele>
        <time>2026-02-27T00:21:45Z</time>
      </trkpt>
      <trkpt lat="30.490718590017977" lon="114.42117740885756">
        <ele>40.364848801866174</ele>
        <time>2026-02-27T00:21:51Z</time>
      </trkpt>
      <trkpt lat="30.490591836768413" lon="114.42111260276694">
        <ele>41.47152708284557</ele>
        <time>2026-02-27T00:21:57Z</time>
      </trkpt>
      <trkpt lat="30.490525911385493" lon="114.42109879524516">
        <ele>40.86389503069222</ele>
        <time>2026-02-27T00:22:00Z</time>
      </trkpt>
      <trkpt lat="30.490226964930557" lon="114.42100101417415">
        <ele>39.76655185036361</ele>
        <time>2026-02-27T00:22:15Z</time>
      </trkpt>
      <trkpt lat="30.490047014718503" lon="114.42094669296011">
        <ele>39.55300562269986</ele>
        <time>2026-02-27T00:22:24Z</time>
      </trkpt>
      <trkpt lat="30.489760455358983" lon="114.42088089807764">
        <ele>38.93160898704082</ele>
        <time>2026-02-27T00:22:39Z</time>
      </trkpt>
      <trkpt lat="30.489422395860878" lon="114.42081041232198">
        <ele>38.79751715995371</ele>
        <time>2026-02-27T00:22:56Z</time>
      </trkpt>
      <trkpt lat="30.489265979054576" lon="114.42076348265705">
        <ele>38.4968567956239</ele>
        <time>2026-02-27T00:23:04Z</time>
      </trkpt>
      <trkpt lat="30.489021985113187" lon="114.42073686212125">
        <ele>40.51739008817822</ele>
        <time>2026-02-27T00:23:16Z</time>
      </trkpt>
      <trkpt lat="30.488860626082275" lon="114.42077357492468">
        <ele>41.58999054133892</ele>
        <time>2026-02-27T00:23:24Z</time>
      </trkpt>
      <trkpt lat="30.488630447486305" lon="114.42076016860983">
        <ele>40.97095105051994</ele>
        <time>2026-02-27T00:23:36Z</time>
      </trkpt>
      <trkpt lat="30.488560095580276" lon="114.42073746857456">
        <ele>40.52633598819375</ele>
        <time>2026-02-27T00:23:40Z</time>
      </trkpt>
      <trkpt lat="30.488486996833974" lon="114.42074312125683">
        <ele>40.35580022726208</ele>
        <time>2026-02-27T00:23:44Z</time>
      </trkpt>
      <trkpt lat="30.488330096217723" lon="114.4207205453935">
        <ele>39.334585330449045</ele>
        <time>2026-02-27T00:23:52Z</time>
      </trkpt>
      <trkpt lat="30.488249889839285" lon="114.4207364011288">
        <ele>40.13367666490376</ele>
        <time>2026-02-27T00:23:56Z</time>
      </trkpt>
      <trkpt lat="30.488180831890336" lon="114.42079226006854">
        <ele>39.03124868962914</ele>
        <time>2026-02-27T00:24:00Z</time>
      </trkpt>
      <trkpt lat="30.488120438042415" lon="114.42090612707042">
        <ele>39.11234532017261</ele>
        <time>2026-02-27T00:24:06Z</time>
      </trkpt>
      <trkpt lat="30.48807249558885" lon="114.4212398822442">
        <ele>40.81704958062619</ele>
        <time>2026-02-27T00:24:21Z</time>
      </trkpt>
      <trkpt lat="30.488064818178785" lon="114.42135564817383">
        <ele>42.28020044602454</ele>
        <time>2026-02-27T00:24:27Z</time>
      </trkpt>
      <trkpt lat="30.48802312280562" lon="114.42140616975671">
        <ele>43.13630120269954</ele>
        <time>2026-02-27T00:24:30Z</time>
      </trkpt>
      <trkpt lat="30.4879965969489" lon="114.42147058587287">
        <ele>44.24873575475067</ele>
        <time>2026-02-27T00:24:33Z</time>
      </trkpt>
      <trkpt lat="30.487965415658667" lon="114.42182049678063">
        <ele>48.84676992893219</ele>
        <time>2026-02-27T00:24:48Z</time>
      </trkpt>
      <trkpt lat="30.487918169349662" lon="114.4219545163163">
        <ele>49.267328136600554</ele>
        <time>2026-02-27T00:24:55Z</time>
      </trkpt>
      <trkpt lat="30.487881118601454" lon="114.42229416983211">
        <ele>48.35896683111787</ele>
        <time>2026-02-27T00:25:11Z</time>
      </trkpt>
      <trkpt lat="30.487830441356827" lon="114.42265787327125">
        <ele>48.18894047662616</ele>
        <time>2026-02-27T00:25:27Z</time>
      </trkpt>
      <trkpt lat="30.48778304794367" lon="114.42300879404178">
        <ele>47.766745045781136</ele>
        <time>2026-02-27T00:25:43Z</time>
      </trkpt>
      <trkpt lat="30.487742123830014" lon="114.42317683453487">
        <ele>48.15650852024555</ele>
        <time>2026-02-27T00:25:51Z</time>
      </trkpt>
      <trkpt lat="30.487616146940823" lon="114.42344140733233">
        <ele>48.46060715056956</ele>
        <time>2026-02-27T00:26:04Z</time>
      </trkpt>
      <trkpt lat="30.487572399542447" lon="114.42347746309308">
        <ele>47.502822992391884</ele>
        <time>2026-02-27T00:26:07Z</time>
      </trkpt>
      <trkpt lat="30.487439030897317" lon="114.42350273385466">
        <ele>45.97467881627381</ele>
        <time>2026-02-27T00:26:14Z</time>
      </trkpt>
      <trkpt lat="30.48738352227102" lon="114.42346148108928">
        <ele>45.26063025556505</ele>
        <time>2026-02-27T00:26:17Z</time>
      </trkpt>
      <trkpt lat="30.487334320617354" lon="114.42347542082929">
        <ele>44.20322466921061</ele>
        <time>2026-02-27T00:26:20Z</time>
      </trkpt>
      <trkpt lat="30.487130941869886" lon="114.42372479831684">
        <ele>41.33419890049845</ele>
        <time>2026-02-27T00:26:35Z</time>
      </trkpt>
      <trkpt lat="30.486968328276575" lon="114.42381438427809">
        <ele>40.16047550737858</ele>
        <time>2026-02-27T00:26:44Z</time>
      </trkpt>
      <trkpt lat="30.486653433164832" lon="114.42382474761426">
        <ele>40.28607268165797</ele>
        <time>2026-02-27T00:26:59Z</time>
      </trkpt>
      <trkpt lat="30.486350081016784" lon="114.4238504747765">
        <ele>40.7873965408653</ele>
        <time>2026-02-27T00:27:14Z</time>
      </trkpt>
      <trkpt lat="30.486045940900294" lon="114.42386195260963">
        <ele>39.58992206770927</ele>
        <time>2026-02-27T00:27:29Z</time>
      </trkpt>
      <trkpt lat="30.485746966674693" lon="114.4238750003941">
        <ele>37.909427241422236</ele>
        <time>2026-02-27T00:27:44Z</time>
      </trkpt>
      <trkpt lat="30.485453959723745" lon="114.4238725909721">
        <ele>37.67966232448816</ele>
        <time>2026-02-27T00:27:59Z</time>
      </trkpt>
      <trkpt lat="30.48517929407909" lon="114.4238812715003">
        <ele>38.07744848355651</ele>
        <time>2026-02-27T00:28:12Z</time>
      </trkpt>
      <trkpt lat="30.48486982821415" lon="114.42387025424418">
        <ele>37.77271076198667</ele>
        <time>2026-02-27T00:28:27Z</time>
      </trkpt>
      <trkpt lat="30.48484942004735" lon="114.42393034343296">
        <ele>36.970532790757716</ele>
        <time>2026-02-27T00:28:30Z</time>
      </trkpt>
      <trkpt lat="30.48517484306422" lon="114.42394813103282">
        <ele>37.66168336663395</ele>
        <time>2026-02-27T00:28:45Z</time>
      </trkpt>
      <trkpt lat="30.485502757895674" lon="114.42394927351694">
        <ele>37.550889713689685</ele>
        <time>2026-02-27T00:29:01Z</time>
      </trkpt>
      <trkpt lat="30.485633537363658" lon="114.42396428176949">
        <ele>37.718161013908684</ele>
        <time>2026-02-27T00:29:08Z</time>
      </trkpt>
      <trkpt lat="30.485928809247607" lon="114.4239413216849">
        <ele>39.474274828098714</ele>
        <time>2026-02-27T00:29:23Z</time>
      </trkpt>
      <trkpt lat="30.486210823098588" lon="114.42392286533088">
        <ele>39.41345959994942</ele>
        <time>2026-02-27T00:29:38Z</time>
      </trkpt>
      <trkpt lat="30.4865167844128" lon="114.42391735945552">
        <ele>41.36529672797769</ele>
        <time>2026-02-27T00:29:53Z</time>
      </trkpt>
      <trkpt lat="30.486747205519176" lon="114.42390367258606">
        <ele>42.48637189064175</ele>
        <time>2026-02-27T00:30:05Z</time>
      </trkpt>
      <trkpt lat="30.48702520673112" lon="114.42389680785962">
        <ele>40.38014102727175</ele>
        <time>2026-02-27T00:30:20Z</time>
      </trkpt>
      <trkpt lat="30.487309630683125" lon="114.42383034533624">
        <ele>41.045554988086224</ele>
        <time>2026-02-27T00:30:35Z</time>
      </trkpt>
      <trkpt lat="30.487356591683305" lon="114.4238029975784">
        <ele>41.310249797068536</ele>
        <time>2026-02-27T00:30:41Z</time>
      </trkpt>
      <trkpt lat="30.48747786933942" lon="114.42377170478387">
        <ele>42.72730740625411</ele>
        <time>2026-02-27T00:30:56Z</time>
      </trkpt>
      <trkpt lat="30.487600892339515" lon="114.42376365062906">
        <ele>43.7244549067691</ele>
        <time>2026-02-27T00:31:02Z</time>
      </trkpt>
      <trkpt lat="30.48770965203935" lon="114.42382920797895">
        <ele>44.04379118885845</ele>
        <time>2026-02-27T00:31:08Z</time>
      </trkpt>
      <trkpt lat="30.48798344416903" lon="114.42392598893193">
        <ele>45.88151469733566</ele>
        <time>2026-02-27T00:31:28Z</time>
      </trkpt>
      <trkpt lat="30.488145652716636" lon="114.4239694126555">
        <ele>45.292017264291644</ele>
        <time>2026-02-27T00:31:34Z</time>
      </trkpt>
      <trkpt lat="30.48820535272604" lon="114.42396695069279">
        <ele>47.41641857288778</ele>
        <time>2026-02-27T00:31:37Z</time>
      </trkpt>
      <trkpt lat="30.48827698745413" lon="114.42398868492936">
        <ele>46.306889180094004</ele>
        <time>2026-02-27T00:31:40Z</time>
      </trkpt>
      <trkpt lat="30.4883700890374" lon="114.4239898334136">
        <ele>46.221353587694466</ele>
        <time>2026-02-27T00:31:43Z</time>
      </trkpt>
      <trkpt lat="30.488538976812688" lon="114.42403557969382">
        <ele>44.14902410656214</ele>
        <time>2026-02-27T00:31:49Z</time>
      </trkpt>
      <trkpt lat="30.48860895120266" lon="114.42402868302524">
        <ele>43.77991607785225</ele>
        <time>2026-02-27T00:31:52Z</time>
      </trkpt>
      <trkpt lat="30.488679416109644" lon="114.42404623877675">
        <ele>43.90249805524945</ele>
        <time>2026-02-27T00:31:55Z</time>
      </trkpt>
      <trkpt lat="30.488768480531984" lon="114.42401446881532">
        <ele>43.167291074059904</ele>
        <time>2026-02-27T00:31:58Z</time>
      </trkpt>
      <trkpt lat="30.48886631421036" lon="114.42407886035848">
        <ele>42.53751495294273</ele>
        <time>2026-02-27T00:32:02Z</time>
      </trkpt>
      <trkpt lat="30.489010804815283" lon="114.42413957426649">
        <ele>40.310871542431414</ele>
        <time>2026-02-27T00:32:08Z</time>
      </trkpt>
      <trkpt lat="30.48908975213546" lon="114.42414505339683">
        <ele>40.04588816780597</ele>
        <time>2026-02-27T00:32:11Z</time>
      </trkpt>
      <trkpt lat="30.489154571704262" lon="114.4241295183893">
        <ele>40.8670714860782</ele>
        <time>2026-02-27T00:32:14Z</time>
      </trkpt>
      <trkpt lat="30.489477449121125" lon="114.42416747450122">
        <ele>40.97531860694289</ele>
        <time>2026-02-27T00:32:29Z</time>
      </trkpt>
      <trkpt lat="30.489661217069237" lon="114.42419046474413">
        <ele>41.49986933823675</ele>
        <time>2026-02-27T00:32:38Z</time>
      </trkpt>
      <trkpt lat="30.48977450938972" lon="114.42416159940927">
        <ele>40.875917197205126</ele>
        <time>2026-02-27T00:32:44Z</time>
      </trkpt>
      <trkpt lat="30.48993089422213" lon="114.42405720332286">
        <ele>39.898976863361895</ele>
        <time>2026-02-27T00:32:53Z</time>
      </trkpt>
      <trkpt lat="30.48998887053372" lon="114.4239572429729">
        <ele>42.39693571254611</ele>
        <time>2026-02-27T00:32:59Z</time>
      </trkpt>
      <trkpt lat="30.490225092248675" lon="114.4240499631734">
        <ele>40.286546904593706</ele>
        <time>2026-02-27T00:33:11Z</time>
      </trkpt>
      <trkpt lat="30.490323390634508" lon="114.42411020752728">
        <ele>39.449964611791074</ele>
        <time>2026-02-27T00:33:17Z</time>
      </trkpt>
      <trkpt lat="30.490628731991443" lon="114.42425078855061">
        <ele>40.944425710476935</ele>
        <time>2026-02-27T00:33:32Z</time>
      </trkpt>
      <trkpt lat="30.490879186439518" lon="114.4243779388155">
        <ele>40.089891120791435</ele>
        <time>2026-02-27T00:33:44Z</time>
      </trkpt>
      <trkpt lat="30.491165937109553" lon="114.42450434534095">
        <ele>41.437288095243275</ele>
        <time>2026-02-27T00:33:59Z</time>
      </trkpt>
      <trkpt lat="30.4914438123849" lon="114.42462981697959">
        <ele>42.081203107722104</ele>
        <time>2026-02-27T00:34:14Z</time>
      </trkpt>
      <trkpt lat="30.491730881244994" lon="114.42477549655354">
        <ele>41.524748804979026</ele>
        <time>2026-02-27T00:34:29Z</time>
      </trkpt>
      <trkpt lat="30.492007750537553" lon="114.424905613783">
        <ele>42.18836707994342</ele>
        <time>2026-02-27T00:34:44Z</time>
      </trkpt>
      <trkpt lat="30.49227603492038" lon="114.42505231642808">
        <ele>41.08599829021841</ele>
        <time>2026-02-27T00:34:59Z</time>
      </trkpt>
      <trkpt lat="30.49256442679879" lon="114.42517599178457">
        <ele>42.916677152737975</ele>
        <time>2026-02-27T00:35:14Z</time>
      </trkpt>
      <trkpt lat="30.492740978250566" lon="114.42524905739478">
        <ele>43.789449740201235</ele>
        <time>2026-02-27T00:35:23Z</time>
      </trkpt>
      <trkpt lat="30.492798339247546" lon="114.4252905907453">
        <ele>43.070157285779715</ele>
        <time>2026-02-27T00:35:27Z</time>
      </trkpt>
      <trkpt lat="30.493066201373896" lon="114.4254028893121">
        <ele>45.61267538834363</ele>
        <time>2026-02-27T00:35:41Z</time>
      </trkpt>
      <trkpt lat="30.493274976317625" lon="114.42551099390795">
        <ele>46.733944699168205</ele>
        <time>2026-02-27T00:35:53Z</time>
      </trkpt>
      <trkpt lat="30.493335219683974" lon="114.42552447117637">
        <ele>45.90935804415494</ele>
        <time>2026-02-27T00:35:56Z</time>
      </trkpt>
      <trkpt lat="30.493604518145016" lon="114.42565427579989">
        <ele>47.05793211143464</ele>
        <time>2026-02-27T00:36:11Z</time>
      </trkpt>
      <trkpt lat="30.493715098846288" lon="114.42570532911004">
        <ele>47.9518761401996</ele>
        <time>2026-02-27T00:36:17Z</time>
      </trkpt>
      <trkpt lat="30.493816756995777" lon="114.42568957712344">
        <ele>47.07324659451842</ele>
        <time>2026-02-27T00:36:23Z</time>
      </trkpt>
      <trkpt lat="30.493839095831014" lon="114.42563684611642">
        <ele>45.55997721478343</ele>
        <time>2026-02-27T00:36:26Z</time>
      </trkpt>
      <trkpt lat="30.493898065525983" lon="114.42559822285698">
        <ele>44.8919345960021</ele>
        <time>2026-02-27T00:36:29Z</time>
      </trkpt>
      <trkpt lat="30.493898090688585" lon="114.4254525182965">
        <ele>45.12927100621164</ele>
        <time>2026-02-27T00:36:35Z</time>
      </trkpt>
      <trkpt lat="30.493915789068442" lon="114.42538797445228">
        <ele>46.475642224773765</ele>
        <time>2026-02-27T00:36:38Z</time>
      </trkpt>
      <trkpt lat="30.49395114443081" lon="114.4253463760483">
        <ele>46.101337864995</ele>
        <time>2026-02-27T00:36:41Z</time>
      </trkpt>
      <trkpt lat="30.493982536106692" lon="114.42515889098034">
        <ele>45.05412067938596</ele>
        <time>2026-02-27T00:36:50Z</time>
      </trkpt>
      <trkpt lat="30.494027889196985" lon="114.42503329603306">
        <ele>46.3105224808678</ele>
        <time>2026-02-27T00:36:56Z</time>
      </trkpt>
      <trkpt lat="30.494028957712143" lon="114.42495829960826">
        <ele>46.13188326638192</ele>
        <time>2026-02-27T00:36:59Z</time>
      </trkpt>
      <trkpt lat="30.494068981718257" lon="114.42490369508461">
        <ele>47.989785932935774</ele>
        <time>2026-02-27T00:37:02Z</time>
      </trkpt>
      <trkpt lat="30.494108214583626" lon="114.42478941114855">
        <ele>47.04780375864357</ele>
        <time>2026-02-27T00:37:08Z</time>
      </trkpt>
      <trkpt lat="30.494112415316376" lon="114.424660595766">
        <ele>47.38290413469076</ele>
        <time>2026-02-27T00:37:14Z</time>
      </trkpt>
      <trkpt lat="30.494227205785343" lon="114.42442914599877">
        <ele>47.65379701927304</ele>
        <time>2026-02-27T00:37:26Z</time>
      </trkpt>
      <trkpt lat="30.494357017496885" lon="114.42420425510151">
        <ele>46.43083592969924</ele>
        <time>2026-02-27T00:37:37Z</time>
      </trkpt>
      <trkpt lat="30.49437708482118" lon="114.42412664888562">
        <ele>47.87659484427422</ele>
        <time>2026-02-27T00:37:40Z</time>
      </trkpt>
      <trkpt lat="30.494424631770947" lon="114.42406397223597">
        <ele>48.948164604604244</ele>
        <time>2026-02-27T00:37:44Z</time>
      </trkpt>
      <trkpt lat="30.494556019512647" lon="114.42372449187715">
        <ele>49.54078698903322</ele>
        <time>2026-02-27T00:37:59Z</time>
      </trkpt>
      <trkpt lat="30.494586653973073" lon="114.42364164514241">
        <ele>47.39328576344997</ele>
        <time>2026-02-27T00:38:02Z</time>
      </trkpt>
      <trkpt lat="30.494631633690876" lon="114.42342630347288">
        <ele>49.166832271032035</ele>
        <time>2026-02-27T00:38:11Z</time>
      </trkpt>
      <trkpt lat="30.49472388052653" lon="114.4232532804981">
        <ele>49.60007501859218</ele>
        <time>2026-02-27T00:38:20Z</time>
      </trkpt>
      <trkpt lat="30.494735136746467" lon="114.42318401245612">
        <ele>47.86605610791594</ele>
        <time>2026-02-27T00:38:23Z</time>
      </trkpt>
      <trkpt lat="30.494770638157018" lon="114.42314740138428">
        <ele>47.99449266679585</ele>
        <time>2026-02-27T00:38:26Z</time>
      </trkpt>
      <trkpt lat="30.494777795048368" lon="114.42303472955378">
        <ele>46.78288082778454</ele>
        <time>2026-02-27T00:38:29Z</time>
      </trkpt>
      <trkpt lat="30.494761902334428" lon="114.42297421124805">
        <ele>48.2983792508021</ele>
        <time>2026-02-27T00:38:32Z</time>
      </trkpt>
      <trkpt lat="30.49471140464825" lon="114.42292311327394">
        <ele>48.58370223361999</ele>
        <time>2026-02-27T00:38:35Z</time>
      </trkpt>
      <trkpt lat="30.494456509110186" lon="114.42278281983096">
        <ele>50.31515381485224</ele>
        <time>2026-02-27T00:38:50Z</time>
      </trkpt>
      <trkpt lat="30.49433531002421" lon="114.42272267189603">
        <ele>50.57387619279325</ele>
        <time>2026-02-27T00:38:56Z</time>
      </trkpt>
      <trkpt lat="30.49428709306086" lon="114.42271540397145">
        <ele>49.38934177160263</ele>
        <time>2026-02-27T00:38:59Z</time>
      </trkpt>
      <trkpt lat="30.494010693183544" lon="114.42257209260119">
        <ele>49.116533644497395</ele>
        <time>2026-02-27T00:39:14Z</time>
      </trkpt>
      <trkpt lat="30.493839872179763" lon="114.42251042507098">
        <ele>49.444271504879</ele>
        <time>2026-02-27T00:39:23Z</time>
      </trkpt>
      <trkpt lat="30.49368055153456" lon="114.42237175432473">
        <ele>47.934413803741336</ele>
        <time>2026-02-27T00:39:32Z</time>
      </trkpt>
      <trkpt lat="30.49361489252732" lon="114.4223713921754">
        <ele>49.14148344565183</ele>
        <time>2026-02-27T00:39:35Z</time>
      </trkpt>
      <trkpt lat="30.493307909385923" lon="114.42223232938571">
        <ele>50.04273299314082</ele>
        <time>2026-02-27T00:39:51Z</time>
      </trkpt>
      <trkpt lat="30.49312875100576" lon="114.42216386096273">
        <ele>50.77956839930266</ele>
        <time>2026-02-27T00:40:00Z</time>
      </trkpt>
      <trkpt lat="30.493014510082972" lon="114.42217478960367">
        <ele>49.2264436269179</ele>
        <time>2026-02-27T00:40:06Z</time>
      </trkpt>
      <trkpt lat="30.49295765667669" lon="114.422144398385">
        <ele>49.18127234838903</ele>
        <time>2026-02-27T00:40:09Z</time>
      </trkpt>
      <trkpt lat="30.492922627201462" lon="114.42205739405249">
        <ele>49.318306213244796</ele>
        <time>2026-02-27T00:40:12Z</time>
      </trkpt>
      <trkpt lat="30.492725810708976" lon="114.42200280054209">
        <ele>47.78851662762463</ele>
        <time>2026-02-27T00:40:21Z</time>
      </trkpt>
      <trkpt lat="30.49261251457591" lon="114.42190708511711">
        <ele>48.080544541589916</ele>
        <time>2026-02-27T00:40:27Z</time>
      </trkpt>
      <trkpt lat="30.492490875680055" lon="114.42188576162735">
        <ele>48.53431192506105</ele>
        <time>2026-02-27T00:40:33Z</time>
      </trkpt>
      <trkpt lat="30.49221182451948" lon="114.4217034754471">
        <ele>44.00744494330138</ele>
        <time>2026-02-27T00:40:48Z</time>
      </trkpt>
      <trkpt lat="30.492045339951844" lon="114.42162366731779">
        <ele>42.380126954987645</ele>
        <time>2026-02-27T00:40:57Z</time>
      </trkpt>
      <trkpt lat="30.49191236693139" lon="114.42160036627895">
        <ele>42.54502975102514</ele>
        <time>2026-02-27T00:41:03Z</time>
      </trkpt>
      <trkpt lat="30.4918038000366" lon="114.42156459242868">
        <ele>41.2498933672905</ele>
        <time>2026-02-27T00:41:09Z</time>
      </trkpt>
      <trkpt lat="30.491636305989527" lon="114.42147000539265">
        <ele>42.31231145374477</ele>
        <time>2026-02-27T00:41:18Z</time>
      </trkpt>
      <trkpt lat="30.491329513914067" lon="114.42135112009842">
        <ele>39.75919066555798</ele>
        <time>2026-02-27T00:41:33Z</time>
      </trkpt>
      <trkpt lat="30.491206436421884" lon="114.42133250829792">
        <ele>37.99573793169111</ele>
        <time>2026-02-27T00:41:39Z</time>
      </trkpt>
      <trkpt lat="30.491099364601865" lon="114.42135154700186">
        <ele>38.92415068950504</ele>
        <time>2026-02-27T00:41:43Z</time>
      </trkpt>
      <trkpt lat="30.490928600708234" lon="114.42132349959651">
        <ele>39.36361550260335</ele>
        <time>2026-02-27T00:41:51Z</time>
      </trkpt>
      <trkpt lat="30.490802958189285" lon="114.42127509741573">
        <ele>39.30505799874663</ele>
        <time>2026-02-27T00:41:57Z</time>
      </trkpt>
      <trkpt lat="30.490657453158533" lon="114.42113192713843">
        <ele>39.63792536407709</ele>
        <time>2026-02-27T00:42:06Z</time>
      </trkpt>
      <trkpt lat="30.490387587404044" lon="114.42104393319322">
        <ele>38.47423950582743</ele>
        <time>2026-02-27T00:42:18Z</time>
      </trkpt>
      <trkpt lat="30.490080786086395" lon="114.42095408165805">
        <ele>39.254175749607384</ele>
        <time>2026-02-27T00:42:33Z</time>
      </trkpt>
      <trkpt lat="30.48978078403038" lon="114.42087022011619">
        <ele>39.826802427880466</ele>
        <time>2026-02-27T00:42:48Z</time>
      </trkpt>
      <trkpt lat="30.489663132447443" lon="114.42081882748465">
        <ele>38.3723951485008</ele>
        <time>2026-02-27T00:42:54Z</time>
      </trkpt>
      <trkpt lat="30.489390571641177" lon="114.42079610653839">
        <ele>39.03695386648178</ele>
        <time>2026-02-27T00:43:06Z</time>
      </trkpt>
      <trkpt lat="30.489348428079197" lon="114.42078526991814">
        <ele>39.23297891858965</ele>
        <time>2026-02-27T00:43:09Z</time>
      </trkpt>
    </trkseg>
  </trk>
</gpx>