<?xml version="1.0" encoding="UTF-8"?>
<gpx xmlns="http://www.topografix.com/GPX/1/1" xmlns:gpxtpx="http://www.garmin.com/xmlschemas/TrackPointExtension/v1" xmlns:xsi="http://www.w3.org/2001/XMLSchema-instance" xsi:schemaLocation="http://www.topografix.com/GPX/1/1 http://www.topografix.com/GPX/1/1/gpx.xsd" version="1.1" creator="gpx.py -- https://github.com/tkrajina/gpxpy">
  <trk>
    <name>gpx from keep</name>
    <type>Run</type>
    <trkseg>
      <trkpt lat="30.858236775535502" lon="114.80352737925207">
        <ele>29.83083768002689</ele>
        <time>2026-04-04T22:49:49Z</time>
      </trkpt>
      <trkpt lat="30.858325217397233" lon="114.80355522863435">
        <ele>29.77401403710246</ele>
        <time>2026-04-04T22:49:53Z</time>
      </trkpt>
      <trkpt lat="30.858384393002673" lon="114.80354491268102">
        <ele>32.336934202350676</ele>
        <time>2026-04-04T22:49:57Z</time>
      </trkpt>
      <trkpt lat="30.858506572571724" lon="114.80357186687255">
        <ele>31.131343401037157</ele>
        <time>2026-04-04T22:50:03Z</time>
      </trkpt>
      <trkpt lat="30.858575358596667" lon="114.80360494609008">
        <ele>30.092730414122343</ele>
        <time>2026-04-04T22:50:06Z</time>
      </trkpt>
      <trkpt lat="30.858643939533138" lon="114.80359202938463">
        <ele>30.131864119321108</ele>
        <time>2026-04-04T22:50:09Z</time>
      </trkpt>
      <trkpt lat="30.85870292616353" lon="114.80360437400662">
        <ele>30.265316743403673</ele>
        <time>2026-04-04T22:50:12Z</time>
      </trkpt>
      <trkpt lat="30.859000441631363" lon="114.80355442329092">
        <ele>30.1014312999323</ele>
        <time>2026-04-04T22:50:24Z</time>
      </trkpt>
      <trkpt lat="30.859280221253425" lon="114.8035518713978">
        <ele>28.781930877827108</ele>
        <time>2026-04-04T22:50:36Z</time>
      </trkpt>
      <trkpt lat="30.859612394061788" lon="114.80355282718968">
        <ele>30.064500246196985</ele>
        <time>2026-04-04T22:50:51Z</time>
      </trkpt>
      <trkpt lat="30.859819350400926" lon="114.80352594997014">
        <ele>28.910537969321012</ele>
        <time>2026-04-04T22:51:00Z</time>
      </trkpt>
      <trkpt lat="30.859881979813213" lon="114.80354559159328">
        <ele>31.327501656487584</ele>
        <time>2026-04-04T22:51:03Z</time>
      </trkpt>
      <trkpt lat="30.86001816099406" lon="114.80352616348308">
        <ele>30.517005912028253</ele>
        <time>2026-04-04T22:51:09Z</time>
      </trkpt>
      <trkpt lat="30.86028705150269" lon="114.80355684560868">
        <ele>29.589340805076063</ele>
        <time>2026-04-04T22:51:21Z</time>
      </trkpt>
      <trkpt lat="30.86056542260468" lon="114.80355219105266">
        <ele>30.962312960997224</ele>
        <time>2026-04-04T22:51:33Z</time>
      </trkpt>
      <trkpt lat="30.860741592476067" lon="114.80355156212374">
        <ele>32.95408684108406</ele>
        <time>2026-04-04T22:51:41Z</time>
      </trkpt>
      <trkpt lat="30.860936005267305" lon="114.80358095575173">
        <ele>31.438313924707472</ele>
        <time>2026-04-04T22:51:49Z</time>
      </trkpt>
      <trkpt lat="30.861219582301935" lon="114.80358578023376">
        <ele>29.02084339596331</ele>
        <time>2026-04-04T22:52:01Z</time>
      </trkpt>
      <trkpt lat="30.861545897703436" lon="114.80367819304347">
        <ele>29.325882418081164</ele>
        <time>2026-04-04T22:52:17Z</time>
      </trkpt>
      <trkpt lat="30.861787709910583" lon="114.80377273338635">
        <ele>30.528240612708032</ele>
        <time>2026-04-04T22:52:29Z</time>
      </trkpt>
      <trkpt lat="30.861917615278493" lon="114.80386041972294">
        <ele>29.76340141892433</ele>
        <time>2026-04-04T22:52:37Z</time>
      </trkpt>
      <trkpt lat="30.861971280998116" lon="114.80404593307267">
        <ele>29.104490713216364</ele>
        <time>2026-04-04T22:52:45Z</time>
      </trkpt>
      <trkpt lat="30.861985960590772" lon="114.80417287355048">
        <ele>25.797944341786206</ele>
        <time>2026-04-04T22:52:52Z</time>
      </trkpt>
      <trkpt lat="30.861976941172465" lon="114.80434524822131">
        <ele>27.590820658020675</ele>
        <time>2026-04-04T22:52:58Z</time>
      </trkpt>
      <trkpt lat="30.862003891344926" lon="114.8045995788501">
        <ele>29.317573143169284</ele>
        <time>2026-04-04T22:53:07Z</time>
      </trkpt>
      <trkpt lat="30.861994839179445" lon="114.80475663345821">
        <ele>30.46965412143618</ele>
        <time>2026-04-04T22:53:13Z</time>
      </trkpt>
      <trkpt lat="30.862027609564084" lon="114.80500598944901">
        <ele>29.812486797571182</ele>
        <time>2026-04-04T22:53:22Z</time>
      </trkpt>
      <trkpt lat="30.862007745944396" lon="114.80532249574311">
        <ele>31.627525215037167</ele>
        <time>2026-04-04T22:53:34Z</time>
      </trkpt>
      <trkpt lat="30.861938867466115" lon="114.80553740309394">
        <ele>31.595576458610594</ele>
        <time>2026-04-04T22:53:44Z</time>
      </trkpt>
      <trkpt lat="30.861905559328843" lon="114.80588827227285">
        <ele>29.399941310286522</ele>
        <time>2026-04-04T22:53:59Z</time>
      </trkpt>
      <trkpt lat="30.861902568649946" lon="114.80628095900748">
        <ele>29.66344976425171</ele>
        <time>2026-04-04T22:54:15Z</time>
      </trkpt>
      <trkpt lat="30.861869821225504" lon="114.80665051601302">
        <ele>29.55664438381791</ele>
        <time>2026-04-04T22:54:30Z</time>
      </trkpt>
      <trkpt lat="30.86185083289387" lon="114.80703874396582">
        <ele>31.948432562872767</ele>
        <time>2026-04-04T22:54:46Z</time>
      </trkpt>
      <trkpt lat="30.861852489108287" lon="114.80715018800464">
        <ele>32.256954341195524</ele>
        <time>2026-04-04T22:54:50Z</time>
      </trkpt>
      <trkpt lat="30.861882289886875" lon="114.80731498895865">
        <ele>31.296067374758422</ele>
        <time>2026-04-04T22:54:57Z</time>
      </trkpt>
      <trkpt lat="30.86189071976589" lon="114.80768046694199">
        <ele>30.852429697290063</ele>
        <time>2026-04-04T22:55:13Z</time>
      </trkpt>
      <trkpt lat="30.861856646940346" lon="114.80803635715856">
        <ele>31.295274617150426</ele>
        <time>2026-04-04T22:55:28Z</time>
      </trkpt>
      <trkpt lat="30.86182772576402" lon="114.80824271176432">
        <ele>32.63711969554424</ele>
        <time>2026-04-04T22:55:36Z</time>
      </trkpt>
      <trkpt lat="30.86183096251949" lon="114.80842025090479">
        <ele>28.7732168501243</ele>
        <time>2026-04-04T22:55:46Z</time>
      </trkpt>
      <trkpt lat="30.861862641904818" lon="114.80862471906812">
        <ele>31.51929112058133</ele>
        <time>2026-04-04T22:55:54Z</time>
      </trkpt>
      <trkpt lat="30.86181581455215" lon="114.80898764675094">
        <ele>28.202888081781566</ele>
        <time>2026-04-04T22:56:10Z</time>
      </trkpt>
      <trkpt lat="30.86176589745098" lon="114.80917943071371">
        <ele>31.959162165410817</ele>
        <time>2026-04-04T22:56:18Z</time>
      </trkpt>
      <trkpt lat="30.861714615998018" lon="114.80925610934601">
        <ele>31.487884531728923</ele>
        <time>2026-04-04T22:56:22Z</time>
      </trkpt>
      <trkpt lat="30.861409107227907" lon="114.80934944657864">
        <ele>31.075667610391974</ele>
        <time>2026-04-04T22:56:38Z</time>
      </trkpt>
      <trkpt lat="30.861140990444223" lon="114.80942955525751">
        <ele>31.82602698355913</ele>
        <time>2026-04-04T22:56:50Z</time>
      </trkpt>
      <trkpt lat="30.860957292289218" lon="114.80946435774018">
        <ele>30.954647038131952</ele>
        <time>2026-04-04T22:56:58Z</time>
      </trkpt>
      <trkpt lat="30.860670641914595" lon="114.80954557818828">
        <ele>30.662403103895485</ele>
        <time>2026-04-04T22:57:13Z</time>
      </trkpt>
      <trkpt lat="30.860406408668272" lon="114.80962603643418">
        <ele>32.366335331462324</ele>
        <time>2026-04-04T22:57:25Z</time>
      </trkpt>
      <trkpt lat="30.860069296758226" lon="114.80969142161878">
        <ele>31.105641888454556</ele>
        <time>2026-04-04T22:57:41Z</time>
      </trkpt>
      <trkpt lat="30.8598051773064" lon="114.80975450107464">
        <ele>33.80048738140613</ele>
        <time>2026-04-04T22:57:53Z</time>
      </trkpt>
      <trkpt lat="30.85975916224311" lon="114.80977944736722">
        <ele>32.45961621310562</ele>
        <time>2026-04-04T22:57:56Z</time>
      </trkpt>
      <trkpt lat="30.859491936878616" lon="114.80984875508709">
        <ele>34.26622162759304</ele>
        <time>2026-04-04T22:58:09Z</time>
      </trkpt>
      <trkpt lat="30.859383260392296" lon="114.8098789081627">
        <ele>34.24159885942936</ele>
        <time>2026-04-04T22:58:15Z</time>
      </trkpt>
      <trkpt lat="30.859245208359816" lon="114.80984011135172">
        <ele>33.32994740549475</ele>
        <time>2026-04-04T22:58:22Z</time>
      </trkpt>
      <trkpt lat="30.85900489296041" lon="114.80995674241605">
        <ele>34.522579598240554</ele>
        <time>2026-04-04T22:58:34Z</time>
      </trkpt>
      <trkpt lat="30.85894368200699" lon="114.81000314197664">
        <ele>35.62266240268946</ele>
        <time>2026-04-04T22:58:37Z</time>
      </trkpt>
      <trkpt lat="30.85865157991523" lon="114.8100620889257">
        <ele>35.7801701258868</ele>
        <time>2026-04-04T22:58:51Z</time>
      </trkpt>
      <trkpt lat="30.858566454749518" lon="114.8100742510348">
        <ele>35.60405354388058</ele>
        <time>2026-04-04T22:58:55Z</time>
      </trkpt>
      <trkpt lat="30.85824502038046" lon="114.81018531010062">
        <ele>35.11571980267763</ele>
        <time>2026-04-04T22:59:11Z</time>
      </trkpt>
      <trkpt lat="30.857975251655397" lon="114.81025070029824">
        <ele>35.17122848238796</ele>
        <time>2026-04-04T22:59:25Z</time>
      </trkpt>
      <trkpt lat="30.857675710093044" lon="114.81032610258093">
        <ele>36.36933710612357</ele>
        <time>2026-04-04T22:59:41Z</time>
      </trkpt>
      <trkpt lat="30.85733434444878" lon="114.81042650824884">
        <ele>36.05086311325431</ele>
        <time>2026-04-04T22:59:59Z</time>
      </trkpt>
      <trkpt lat="30.857052471296456" lon="114.8104999618686">
        <ele>37.064534939825535</ele>
        <time>2026-04-04T23:00:15Z</time>
      </trkpt>
      <trkpt lat="30.85693706228381" lon="114.81054125270869">
        <ele>38.28479980956763</ele>
        <time>2026-04-04T23:00:21Z</time>
      </trkpt>
      <trkpt lat="30.85662689698234" lon="114.81057504538842">
        <ele>37.70454769954085</ele>
        <time>2026-04-04T23:00:37Z</time>
      </trkpt>
      <trkpt lat="30.856358122208043" lon="114.81064772809046">
        <ele>38.73444555141032</ele>
        <time>2026-04-04T23:00:50Z</time>
      </trkpt>
      <trkpt lat="30.85621094914731" lon="114.81070663917811">
        <ele>38.49818474985659</ele>
        <time>2026-04-04T23:00:58Z</time>
      </trkpt>
      <trkpt lat="30.856151901970264" lon="114.8107067576936">
        <ele>38.33013515453786</ele>
        <time>2026-04-04T23:01:01Z</time>
      </trkpt>
      <trkpt lat="30.85610033762771" lon="114.81073261867142">
        <ele>37.72305812779814</ele>
        <time>2026-04-04T23:01:04Z</time>
      </trkpt>
      <trkpt lat="30.85576804246793" lon="114.81080309854492">
        <ele>39.09124881122261</ele>
        <time>2026-04-04T23:01:21Z</time>
      </trkpt>
      <trkpt lat="30.85543097952003" lon="114.81090114491082">
        <ele>41.316209631972015</ele>
        <time>2026-04-04T23:01:38Z</time>
      </trkpt>
      <trkpt lat="30.85537901484199" lon="114.8109200344939">
        <ele>39.7919189594686</ele>
        <time>2026-04-04T23:01:41Z</time>
      </trkpt>
      <trkpt lat="30.855112092935418" lon="114.81099886713592">
        <ele>40.861740780994296</ele>
        <time>2026-04-04T23:01:55Z</time>
      </trkpt>
      <trkpt lat="30.854913116425912" lon="114.81106249079194">
        <ele>41.25605572666973</ele>
        <time>2026-04-04T23:02:05Z</time>
      </trkpt>
      <trkpt lat="30.8548381443301" lon="114.81106931218454">
        <ele>40.771963100880384</ele>
        <time>2026-04-04T23:02:09Z</time>
      </trkpt>
      <trkpt lat="30.854533132392053" lon="114.81116066793763">
        <ele>37.62399813439697</ele>
        <time>2026-04-04T23:02:25Z</time>
      </trkpt>
      <trkpt lat="30.854221056313374" lon="114.81125319408974">
        <ele>38.59315283596516</ele>
        <time>2026-04-04T23:02:40Z</time>
      </trkpt>
      <trkpt lat="30.853936355877256" lon="114.81136739147023">
        <ele>36.95445817615837</ele>
        <time>2026-04-04T23:02:55Z</time>
      </trkpt>
      <trkpt lat="30.853687228643537" lon="114.81143652540688">
        <ele>36.120331045240164</ele>
        <time>2026-04-04T23:03:07Z</time>
      </trkpt>
      <trkpt lat="30.853428030582087" lon="114.81154369618999">
        <ele>36.658596214838326</ele>
        <time>2026-04-04T23:03:18Z</time>
      </trkpt>
      <trkpt lat="30.853129488731785" lon="114.81167870525556">
        <ele>40.31136969011277</ele>
        <time>2026-04-04T23:03:32Z</time>
      </trkpt>
      <trkpt lat="30.852845705339764" lon="114.81177386728535">
        <ele>36.09185024816543</ele>
        <time>2026-04-04T23:03:45Z</time>
      </trkpt>
      <trkpt lat="30.852704008257927" lon="114.8118510703703">
        <ele>36.393936378881335</ele>
        <time>2026-04-04T23:03:52Z</time>
      </trkpt>
      <trkpt lat="30.85264623074918" lon="114.81186201981691">
        <ele>35.49349169898778</ele>
        <time>2026-04-04T23:03:55Z</time>
      </trkpt>
      <trkpt lat="30.852505168258528" lon="114.81194929410957">
        <ele>38.19826611503959</ele>
        <time>2026-04-04T23:04:02Z</time>
      </trkpt>
      <trkpt lat="30.852301773999486" lon="114.81201762115947">
        <ele>37.67431594990194</ele>
        <time>2026-04-04T23:04:12Z</time>
      </trkpt>
      <trkpt lat="30.851988782390922" lon="114.81216686527455">
        <ele>36.478440530598164</ele>
        <time>2026-04-04T23:04:27Z</time>
      </trkpt>
      <trkpt lat="30.851679185270747" lon="114.81231894567206">
        <ele>34.11349608935416</ele>
        <time>2026-04-04T23:04:43Z</time>
      </trkpt>
      <trkpt lat="30.851355731250116" lon="114.8124922253827">
        <ele>34.90495918598026</ele>
        <time>2026-04-04T23:04:59Z</time>
      </trkpt>
      <trkpt lat="30.85109620102437" lon="114.81262704275697">
        <ele>33.67500793375075</ele>
        <time>2026-04-04T23:05:13Z</time>
      </trkpt>
      <trkpt lat="30.851018324539726" lon="114.81264580728244">
        <ele>34.27168406918645</ele>
        <time>2026-04-04T23:05:17Z</time>
      </trkpt>
      <trkpt lat="30.850968564196382" lon="114.81269087370286">
        <ele>32.85245996247977</ele>
        <time>2026-04-04T23:05:20Z</time>
      </trkpt>
      <trkpt lat="30.850686667151813" lon="114.81285576383162">
        <ele>34.297084723599255</ele>
        <time>2026-04-04T23:05:35Z</time>
      </trkpt>
      <trkpt lat="30.850552691625" lon="114.81295136512975">
        <ele>34.32790635153651</ele>
        <time>2026-04-04T23:05:42Z</time>
      </trkpt>
      <trkpt lat="30.850364224105046" lon="114.81304316437698">
        <ele>33.565348043106496</ele>
        <time>2026-04-04T23:05:52Z</time>
      </trkpt>
      <trkpt lat="30.850176096523438" lon="114.81317633534773">
        <ele>34.69379950501025</ele>
        <time>2026-04-04T23:06:03Z</time>
      </trkpt>
      <trkpt lat="30.850042247381964" lon="114.81323973363212">
        <ele>33.52807907294482</ele>
        <time>2026-04-04T23:06:10Z</time>
      </trkpt>
      <trkpt lat="30.84980269986168" lon="114.81338662401383">
        <ele>34.22993831522763</ele>
        <time>2026-04-04T23:06:23Z</time>
      </trkpt>
      <trkpt lat="30.84950605849818" lon="114.81336286569719">
        <ele>33.020345277152956</ele>
        <time>2026-04-04T23:06:38Z</time>
      </trkpt>
      <trkpt lat="30.849222776603263" lon="114.8133401090467">
        <ele>34.37387581728399</ele>
        <time>2026-04-04T23:06:52Z</time>
      </trkpt>
      <trkpt lat="30.84887207385398" lon="114.81333724638672">
        <ele>36.202245774678886</ele>
        <time>2026-04-04T23:07:08Z</time>
      </trkpt>
      <trkpt lat="30.848706841057336" lon="114.81329868654076">
        <ele>35.93917639926076</ele>
        <time>2026-04-04T23:07:19Z</time>
      </trkpt>
      <trkpt lat="30.848713331457017" lon="114.81309090415357">
        <ele>31.75640674866736</ele>
        <time>2026-04-04T23:07:28Z</time>
      </trkpt>
      <trkpt lat="30.848685517071754" lon="114.81288058910461">
        <ele>33.653477001935244</ele>
        <time>2026-04-04T23:07:35Z</time>
      </trkpt>
      <trkpt lat="30.84864178526981" lon="114.81279238287537">
        <ele>33.29364730697125</ele>
        <time>2026-04-04T23:07:38Z</time>
      </trkpt>
      <trkpt lat="30.84863407140796" lon="114.8126039321636">
        <ele>32.969771412201226</ele>
        <time>2026-04-04T23:07:45Z</time>
      </trkpt>
      <trkpt lat="30.848659597421154" lon="114.8124367987513">
        <ele>32.32432503066957</ele>
        <time>2026-04-04T23:07:52Z</time>
      </trkpt>
      <trkpt lat="30.848691497637137" lon="114.81234088554054">
        <ele>35.49792727548629</ele>
        <time>2026-04-04T23:07:56Z</time>
      </trkpt>
      <trkpt lat="30.84871010685748" lon="114.81200368857425">
        <ele>34.32809656765312</ele>
        <time>2026-04-04T23:08:09Z</time>
      </trkpt>
      <trkpt lat="30.84869662553784" lon="114.81191887772339">
        <ele>32.39058445952833</ele>
        <time>2026-04-04T23:08:13Z</time>
      </trkpt>
      <trkpt lat="30.848728076073694" lon="114.81177523574789">
        <ele>36.25994919333607</ele>
        <time>2026-04-04T23:08:19Z</time>
      </trkpt>
      <trkpt lat="30.848723003313236" lon="114.81148637191666">
        <ele>30.64415669068694</ele>
        <time>2026-04-04T23:08:32Z</time>
      </trkpt>
      <trkpt lat="30.84875218681001" lon="114.81125606838962">
        <ele>35.759449045173824</ele>
        <time>2026-04-04T23:08:41Z</time>
      </trkpt>
      <trkpt lat="30.84874465252167" lon="114.81089140600436">
        <ele>35.47783406637609</ele>
        <time>2026-04-04T23:08:56Z</time>
      </trkpt>
      <trkpt lat="30.848744575685558" lon="114.81051055827822">
        <ele>34.972992279566824</ele>
        <time>2026-04-04T23:09:12Z</time>
      </trkpt>
      <trkpt lat="30.84877660544153" lon="114.81015384695361">
        <ele>36.284014370292425</ele>
        <time>2026-04-04T23:09:27Z</time>
      </trkpt>
      <trkpt lat="30.84876943317396" lon="114.81001600055764">
        <ele>35.66923010814935</ele>
        <time>2026-04-04T23:09:33Z</time>
      </trkpt>
      <trkpt lat="30.848797998596215" lon="114.8098916747354">
        <ele>33.83606223016977</ele>
        <time>2026-04-04T23:09:39Z</time>
      </trkpt>
      <trkpt lat="30.848805118706828" lon="114.80975248073766">
        <ele>32.750973246991634</ele>
        <time>2026-04-04T23:09:45Z</time>
      </trkpt>
      <trkpt lat="30.848793527839028" lon="114.80968162157028">
        <ele>33.32390466891229</ele>
        <time>2026-04-04T23:09:48Z</time>
      </trkpt>
      <trkpt lat="30.848811015229895" lon="114.80963242656802">
        <ele>33.97256437316537</ele>
        <time>2026-04-04T23:09:51Z</time>
      </trkpt>
      <trkpt lat="30.848826443141455" lon="114.80930013548452">
        <ele>35.28036570735276</ele>
        <time>2026-04-04T23:10:04Z</time>
      </trkpt>
      <trkpt lat="30.848844016456294" lon="114.80909249581514">
        <ele>34.95586726535112</ele>
        <time>2026-04-04T23:10:13Z</time>
      </trkpt>
      <trkpt lat="30.848832611176903" lon="114.80872836096157">
        <ele>30.634693684987724</ele>
        <time>2026-04-04T23:10:29Z</time>
      </trkpt>
      <trkpt lat="30.84883903549928" lon="114.80855135121703">
        <ele>32.5421148231253</ele>
        <time>2026-04-04T23:10:36Z</time>
      </trkpt>
      <trkpt lat="30.84879343808456" lon="114.80833772408307">
        <ele>30.335976417176425</ele>
        <time>2026-04-04T23:10:45Z</time>
      </trkpt>
      <trkpt lat="30.8487904614508" lon="114.80825830761952">
        <ele>32.34258234966546</ele>
        <time>2026-04-04T23:10:48Z</time>
      </trkpt>
      <trkpt lat="30.848807182945073" lon="114.80794035488357">
        <ele>31.03578635957092</ele>
        <time>2026-04-04T23:11:00Z</time>
      </trkpt>
      <trkpt lat="30.84880155300361" lon="114.80787852118442">
        <ele>30.269153613597155</ele>
        <time>2026-04-04T23:11:03Z</time>
      </trkpt>
      <trkpt lat="30.84890376544708" lon="114.80767281705066">
        <ele>34.67036737129092</ele>
        <time>2026-04-04T23:11:12Z</time>
      </trkpt>
      <trkpt lat="30.84898315794857" lon="114.80759287458999">
        <ele>31.841333091259003</ele>
        <time>2026-04-04T23:11:18Z</time>
      </trkpt>
      <trkpt lat="30.84898957014368" lon="114.80744301333213">
        <ele>33.949438482522964</ele>
        <time>2026-04-04T23:11:30Z</time>
      </trkpt>
      <trkpt lat="30.848888374331292" lon="114.80726689570898">
        <ele>31.634505804628134</ele>
        <time>2026-04-04T23:11:40Z</time>
      </trkpt>
      <trkpt lat="30.848842970504016" lon="114.80694778106269">
        <ele>32.875251797027886</ele>
        <time>2026-04-04T23:11:53Z</time>
      </trkpt>
      <trkpt lat="30.848845753147433" lon="114.80669004516471">
        <ele>32.68254193570465</ele>
        <time>2026-04-04T23:12:03Z</time>
      </trkpt>
      <trkpt lat="30.848873448710197" lon="114.8065326878296">
        <ele>32.492467395961285</ele>
        <time>2026-04-04T23:12:09Z</time>
      </trkpt>
      <trkpt lat="30.848879629217056" lon="114.80633610746175">
        <ele>29.463542096316814</ele>
        <time>2026-04-04T23:12:17Z</time>
      </trkpt>
      <trkpt lat="30.848895538626692" lon="114.80625659757695">
        <ele>31.819712329655886</ele>
        <time>2026-04-04T23:12:20Z</time>
      </trkpt>
      <trkpt lat="30.848890436500014" lon="114.80617961244903">
        <ele>34.70546764694154</ele>
        <time>2026-04-04T23:12:23Z</time>
      </trkpt>
      <trkpt lat="30.848923165331275" lon="114.8060227209901">
        <ele>34.67725911922753</ele>
        <time>2026-04-04T23:12:30Z</time>
      </trkpt>
      <trkpt lat="30.84892827114855" lon="114.80569929875546">
        <ele>34.39845913462341</ele>
        <time>2026-04-04T23:12:42Z</time>
      </trkpt>
      <trkpt lat="30.84894287918757" lon="114.80564525306427">
        <ele>34.84748555254191</ele>
        <time>2026-04-04T23:12:45Z</time>
      </trkpt>
      <trkpt lat="30.848914016836066" lon="114.80548359765689">
        <ele>32.765902056358755</ele>
        <time>2026-04-04T23:12:51Z</time>
      </trkpt>
      <trkpt lat="30.848909272347402" lon="114.80532624624222">
        <ele>31.263799981214106</ele>
        <time>2026-04-04T23:12:58Z</time>
      </trkpt>
      <trkpt lat="30.848922936916985" lon="114.80510711346686">
        <ele>34.156935861334205</ele>
        <time>2026-04-04T23:13:07Z</time>
      </trkpt>
      <trkpt lat="30.848941653984653" lon="114.80504388384956">
        <ele>32.78739303536713</ele>
        <time>2026-04-04T23:13:11Z</time>
      </trkpt>
      <trkpt lat="30.84891720940171" lon="114.8047494822624">
        <ele>32.92155849467963</ele>
        <time>2026-04-04T23:13:23Z</time>
      </trkpt>
      <trkpt lat="30.848954999022308" lon="114.8046111869488">
        <ele>33.44183799251914</ele>
        <time>2026-04-04T23:13:29Z</time>
      </trkpt>
      <trkpt lat="30.848941366231667" lon="114.80423536143054">
        <ele>32.38433615770191</ele>
        <time>2026-04-04T23:13:45Z</time>
      </trkpt>
      <trkpt lat="30.848949608575264" lon="114.80403195317673">
        <ele>31.84664127510041</ele>
        <time>2026-04-04T23:13:54Z</time>
      </trkpt>
      <trkpt lat="30.848896346754866" lon="114.80370394745478">
        <ele>30.644151147454977</ele>
        <time>2026-04-04T23:14:09Z</time>
      </trkpt>
      <trkpt lat="30.84891178646556" lon="114.80361026472167">
        <ele>32.36101394612342</ele>
        <time>2026-04-04T23:14:13Z</time>
      </trkpt>
      <trkpt lat="30.84892107829608" lon="114.80338262682899">
        <ele>32.50827709492296</ele>
        <time>2026-04-04T23:14:22Z</time>
      </trkpt>
      <trkpt lat="30.848980452022655" lon="114.80323091749104">
        <ele>33.72462820354849</ele>
        <time>2026-04-04T23:14:29Z</time>
      </trkpt>
      <trkpt lat="30.84903337636217" lon="114.80316276589838">
        <ele>33.05162371043116</ele>
        <time>2026-04-04T23:14:32Z</time>
      </trkpt>
      <trkpt lat="30.84926279075657" lon="114.80306208505066">
        <ele>34.4745460934937</ele>
        <time>2026-04-04T23:14:42Z</time>
      </trkpt>
      <trkpt lat="30.849514552247456" lon="114.80316304055337">
        <ele>31.197003042325377</ele>
        <time>2026-04-04T23:14:54Z</time>
      </trkpt>
      <trkpt lat="30.84969086057756" lon="114.80316968205724">
        <ele>33.11630278453231</ele>
        <time>2026-04-04T23:15:02Z</time>
      </trkpt>
      <trkpt lat="30.849759328923756" lon="114.80319352062838">
        <ele>33.44063833076507</ele>
        <time>2026-04-04T23:15:06Z</time>
      </trkpt>
      <trkpt lat="30.850030629618615" lon="114.80316671255875">
        <ele>32.279021301306784</ele>
        <time>2026-04-04T23:15:18Z</time>
      </trkpt>
      <trkpt lat="30.850332965508095" lon="114.8031815787759">
        <ele>30.892907259054482</ele>
        <time>2026-04-04T23:15:34Z</time>
      </trkpt>
      <trkpt lat="30.85054672632598" lon="114.80323325045231">
        <ele>33.20787611696869</ele>
        <time>2026-04-04T23:15:45Z</time>
      </trkpt>
      <trkpt lat="30.850613437112607" lon="114.80321943867499">
        <ele>33.28430677112192</ele>
        <time>2026-04-04T23:15:49Z</time>
      </trkpt>
      <trkpt lat="30.85092899812046" lon="114.80325231126118">
        <ele>33.26039738114923</ele>
        <time>2026-04-04T23:16:05Z</time>
      </trkpt>
      <trkpt lat="30.851167994500663" lon="114.80327958467304">
        <ele>34.01744371559471</ele>
        <time>2026-04-04T23:16:17Z</time>
      </trkpt>
      <trkpt lat="30.851393001255893" lon="114.80323561177097">
        <ele>32.873867858201265</ele>
        <time>2026-04-04T23:16:27Z</time>
      </trkpt>
      <trkpt lat="30.851503240770292" lon="114.80324493005669">
        <ele>32.83733802102506</ele>
        <time>2026-04-04T23:16:33Z</time>
      </trkpt>
      <trkpt lat="30.851561787214298" lon="114.80328181975769">
        <ele>32.972626882605255</ele>
        <time>2026-04-04T23:16:36Z</time>
      </trkpt>
      <trkpt lat="30.851884282895558" lon="114.80328914608522">
        <ele>32.737464119680226</ele>
        <time>2026-04-04T23:16:51Z</time>
      </trkpt>
      <trkpt lat="30.85200747646387" lon="114.80327778096448">
        <ele>33.64418922923505</ele>
        <time>2026-04-04T23:16:57Z</time>
      </trkpt>
      <trkpt lat="30.85208610013291" lon="114.80329490371803">
        <ele>32.773017866536975</ele>
        <time>2026-04-04T23:17:01Z</time>
      </trkpt>
      <trkpt lat="30.852416061987547" lon="114.8032696470155">
        <ele>33.350348906591535</ele>
        <time>2026-04-04T23:17:17Z</time>
      </trkpt>
      <trkpt lat="30.852723679888925" lon="114.80324940200363">
        <ele>34.84082811884582</ele>
        <time>2026-04-04T23:17:33Z</time>
      </trkpt>
      <trkpt lat="30.852809944834107" lon="114.80326683956706">
        <ele>34.71091040968895</ele>
        <time>2026-04-04T23:17:37Z</time>
      </trkpt>
      <trkpt lat="30.853086969680835" lon="114.80328788884326">
        <ele>33.69245574902743</ele>
        <time>2026-04-04T23:17:51Z</time>
      </trkpt>
      <trkpt lat="30.853220732091604" lon="114.80331035301897">
        <ele>32.781163055449724</ele>
        <time>2026-04-04T23:17:58Z</time>
      </trkpt>
      <trkpt lat="30.853383428775658" lon="114.80329381929849">
        <ele>32.570869631133974</ele>
        <time>2026-04-04T23:18:08Z</time>
      </trkpt>
      <trkpt lat="30.853421960306374" lon="114.80336768067123">
        <ele>33.334279434755445</ele>
        <time>2026-04-04T23:18:19Z</time>
      </trkpt>
      <trkpt lat="30.853424709419144" lon="114.803222542384">
        <ele>32.215462455525994</ele>
        <time>2026-04-04T23:19:26Z</time>
      </trkpt>
      <trkpt lat="30.853533553887203" lon="114.80325906835306">
        <ele>32.47760155983269</ele>
        <time>2026-04-04T23:19:32Z</time>
      </trkpt>
      <trkpt lat="30.85359221223088" lon="114.8032975618658">
        <ele>31.307559173554182</ele>
        <time>2026-04-04T23:19:35Z</time>
      </trkpt>
      <trkpt lat="30.853874121527884" lon="114.80335036204092">
        <ele>33.36055463925004</ele>
        <time>2026-04-04T23:19:48Z</time>
      </trkpt>
      <trkpt lat="30.854137063433214" lon="114.80338201508421">
        <ele>33.241649675183</ele>
        <time>2026-04-04T23:20:00Z</time>
      </trkpt>
      <trkpt lat="30.854219269650706" lon="114.80337386207718">
        <ele>33.411085029132664</ele>
        <time>2026-04-04T23:20:04Z</time>
      </trkpt>
      <trkpt lat="30.854323220389002" lon="114.80338847101001">
        <ele>33.13845518603921</ele>
        <time>2026-04-04T23:20:08Z</time>
      </trkpt>
      <trkpt lat="30.854399629225945" lon="114.80336757614778">
        <ele>33.085414663888514</ele>
        <time>2026-04-04T23:20:11Z</time>
      </trkpt>
      <trkpt lat="30.85447582333772" lon="114.80338603751547">
        <ele>30.127326915040612</ele>
        <time>2026-04-04T23:20:15Z</time>
      </trkpt>
      <trkpt lat="30.854813038686455" lon="114.80341096156839">
        <ele>31.62615675292909</ele>
        <time>2026-04-04T23:20:30Z</time>
      </trkpt>
      <trkpt lat="30.855097237325747" lon="114.80341537089977">
        <ele>33.28102778270841</ele>
        <time>2026-04-04T23:20:44Z</time>
      </trkpt>
      <trkpt lat="30.85542961597624" lon="114.8034591076765">
        <ele>32.96955088339746</ele>
        <time>2026-04-04T23:21:00Z</time>
      </trkpt>
      <trkpt lat="30.855673221091166" lon="114.80344404922768">
        <ele>33.35418352205306</ele>
        <time>2026-04-04T23:21:11Z</time>
      </trkpt>
      <trkpt lat="30.85576574549526" lon="114.80345750977123">
        <ele>33.794265914708376</ele>
        <time>2026-04-04T23:21:15Z</time>
      </trkpt>
      <trkpt lat="30.85584285308481" lon="114.80342414078694">
        <ele>33.088734064251184</ele>
        <time>2026-04-04T23:21:19Z</time>
      </trkpt>
      <trkpt lat="30.855622334108514" lon="114.80344396200367">
        <ele>31.711452901363373</ele>
        <time>2026-04-04T23:21:34Z</time>
      </trkpt>
      <trkpt lat="30.85539097182348" lon="114.8035050658761">
        <ele>31.854845377616584</ele>
        <time>2026-04-04T23:21:45Z</time>
      </trkpt>
      <trkpt lat="30.855111338741178" lon="114.80350403477433">
        <ele>29.953740389086306</ele>
        <time>2026-04-04T23:22:00Z</time>
      </trkpt>
      <trkpt lat="30.854872331538463" lon="114.80348143354314">
        <ele>31.394287690520287</ele>
        <time>2026-04-04T23:22:12Z</time>
      </trkpt>
      <trkpt lat="30.8547213367733" lon="114.80344278217605">
        <ele>31.29399505071342</ele>
        <time>2026-04-04T23:22:20Z</time>
      </trkpt>
      <trkpt lat="30.85441514624007" lon="114.80345440763665">
        <ele>31.678278089500964</ele>
        <time>2026-04-04T23:22:35Z</time>
      </trkpt>
      <trkpt lat="30.85428457236719" lon="114.80343857684325">
        <ele>28.377289820462465</ele>
        <time>2026-04-04T23:22:42Z</time>
      </trkpt>
      <trkpt lat="30.85419609934057" lon="114.80345679021778">
        <ele>29.68876065313816</ele>
        <time>2026-04-04T23:22:46Z</time>
      </trkpt>
      <trkpt lat="30.85385712660886" lon="114.8034419911794">
        <ele>31.1563553865999</ele>
        <time>2026-04-04T23:23:02Z</time>
      </trkpt>
      <trkpt lat="30.85371590057576" lon="114.80341354482033">
        <ele>30.05767854768783</ele>
        <time>2026-04-04T23:23:10Z</time>
      </trkpt>
      <trkpt lat="30.853485827836113" lon="114.80344401096339">
        <ele>29.374356393702328</ele>
        <time>2026-04-04T23:23:21Z</time>
      </trkpt>
      <trkpt lat="30.85341588567701" lon="114.80341742933766">
        <ele>29.364657601341605</ele>
        <time>2026-04-04T23:23:25Z</time>
      </trkpt>
      <trkpt lat="30.85327640679299" lon="114.80342338344998">
        <ele>31.98202225845307</ele>
        <time>2026-04-04T23:23:32Z</time>
      </trkpt>
      <trkpt lat="30.853216923604357" lon="114.80340182889016">
        <ele>31.212903554551303</ele>
        <time>2026-04-04T23:23:36Z</time>
      </trkpt>
      <trkpt lat="30.85317168247177" lon="114.80331746798961">
        <ele>32.572419956326485</ele>
        <time>2026-04-04T23:23:40Z</time>
      </trkpt>
      <trkpt lat="30.853178188061086" lon="114.8032061522306">
        <ele>32.515345656313</ele>
        <time>2026-04-04T23:23:44Z</time>
      </trkpt>
      <trkpt lat="30.853137033789753" lon="114.80285259823194">
        <ele>32.95994748082012</ele>
        <time>2026-04-04T23:23:56Z</time>
      </trkpt>
      <trkpt lat="30.85314068096496" lon="114.80258542080968">
        <ele>32.439356663264334</ele>
        <time>2026-04-04T23:24:08Z</time>
      </trkpt>
      <trkpt lat="30.85320006835588" lon="114.80238389815248">
        <ele>33.86485998611897</ele>
        <time>2026-04-04T23:24:16Z</time>
      </trkpt>
      <trkpt lat="30.85324019526772" lon="114.80202516058968">
        <ele>31.238933466374874</ele>
        <time>2026-04-04T23:24:32Z</time>
      </trkpt>
      <trkpt lat="30.853240935323743" lon="114.80175074849552">
        <ele>31.415707495994866</ele>
        <time>2026-04-04T23:24:44Z</time>
      </trkpt>
      <trkpt lat="30.853265724028287" lon="114.80140084547405">
        <ele>30.837800342589617</ele>
        <time>2026-04-04T23:24:59Z</time>
      </trkpt>
      <trkpt lat="30.853257243753283" lon="114.80121567698377">
        <ele>32.519965620711446</ele>
        <time>2026-04-04T23:25:07Z</time>
      </trkpt>
      <trkpt lat="30.853252744057023" lon="114.80151405029976">
        <ele>27.023999927565455</ele>
        <time>2026-04-04T23:25:24Z</time>
      </trkpt>
      <trkpt lat="30.853284203685998" lon="114.8016304775346">
        <ele>29.969060773029923</ele>
        <time>2026-04-04T23:25:28Z</time>
      </trkpt>
      <trkpt lat="30.85329909978767" lon="114.80181251860849">
        <ele>31.229311341419816</ele>
        <time>2026-04-04T23:25:36Z</time>
      </trkpt>
      <trkpt lat="30.853278488850787" lon="114.80189113710982">
        <ele>28.221096836961806</ele>
        <time>2026-04-04T23:25:40Z</time>
      </trkpt>
      <trkpt lat="30.853300527064636" lon="114.80210701695576">
        <ele>31.259212628938258</ele>
        <time>2026-04-04T23:25:48Z</time>
      </trkpt>
      <trkpt lat="30.853304000269656" lon="114.8024977700289">
        <ele>33.15092728193849</ele>
        <time>2026-04-04T23:26:04Z</time>
      </trkpt>
      <trkpt lat="30.85322251602485" lon="114.80282258558704">
        <ele>31.73114445898682</ele>
        <time>2026-04-04T23:26:19Z</time>
      </trkpt>
      <trkpt lat="30.85319483145298" lon="114.80314133665597">
        <ele>31.151442707516253</ele>
        <time>2026-04-04T23:26:33Z</time>
      </trkpt>
      <trkpt lat="30.853172361023407" lon="114.80329483296013">
        <ele>28.546910111792386</ele>
        <time>2026-04-04T23:26:41Z</time>
      </trkpt>
      <trkpt lat="30.85319198656409" lon="114.80338038461798">
        <ele>29.742236018180847</ele>
        <time>2026-04-04T23:26:45Z</time>
      </trkpt>
      <trkpt lat="30.853168219439677" lon="114.80344641190837">
        <ele>29.49124179314822</ele>
        <time>2026-04-04T23:26:49Z</time>
      </trkpt>
      <trkpt lat="30.853205857413915" lon="114.80352565857604">
        <ele>30.835923111997545</ele>
        <time>2026-04-04T23:26:53Z</time>
      </trkpt>
      <trkpt lat="30.85323687877493" lon="114.80372844626977">
        <ele>30.094324111938477</ele>
        <time>2026-04-04T23:27:01Z</time>
      </trkpt>
      <trkpt lat="30.853244389834398" lon="114.80408566018076">
        <ele>33.118389138020575</ele>
        <time>2026-04-04T23:27:16Z</time>
      </trkpt>
      <trkpt lat="30.853244845754627" lon="114.80420579975414">
        <ele>32.876642496325076</ele>
        <time>2026-04-04T23:27:22Z</time>
      </trkpt>
      <trkpt lat="30.853244845754627" lon="114.80420579975414">
        <ele>32.876642496325076</ele>
        <time>2026-04-04T23:27:28Z</time>
      </trkpt>
    </trkseg>
  </trk>
</gpx>