<?xml version="1.0" encoding="UTF-8"?>
<gpx xmlns="http://www.topografix.com/GPX/1/1" xmlns:gpxtpx="http://www.garmin.com/xmlschemas/TrackPointExtension/v1" xmlns:xsi="http://www.w3.org/2001/XMLSchema-instance" xsi:schemaLocation="http://www.topografix.com/GPX/1/1 http://www.topografix.com/GPX/1/1/gpx.xsd" version="1.1" creator="gpx.py -- https://github.com/tkrajina/gpxpy">
  <trk>
    <name>gpx from keep</name>
    <type>Run</type>
    <trkseg>
      <trkpt lat="30.665774330649995" lon="114.34049322914446">
        <ele>28.730205852538347</ele>
        <time>2026-04-10T23:33:38Z</time>
      </trkpt>
      <trkpt lat="30.66582192452337" lon="114.34084201560742">
        <ele>25.83433903567493</ele>
        <time>2026-04-10T23:33:57Z</time>
      </trkpt>
      <trkpt lat="30.665837986170985" lon="114.34093422121349">
        <ele>26.84658334683627</ele>
        <time>2026-04-10T23:34:01Z</time>
      </trkpt>
      <trkpt lat="30.66596910773019" lon="114.34102634260674">
        <ele>27.130637791007757</ele>
        <time>2026-04-10T23:34:09Z</time>
      </trkpt>
      <trkpt lat="30.666054819627366" lon="114.34102721967953">
        <ele>27.84047737158835</ele>
        <time>2026-04-10T23:34:13Z</time>
      </trkpt>
      <trkpt lat="30.66609372293283" lon="114.34096672597373">
        <ele>26.878915849141777</ele>
        <time>2026-04-10T23:34:17Z</time>
      </trkpt>
      <trkpt lat="30.66618097805474" lon="114.340592034689">
        <ele>28.445732886902988</ele>
        <time>2026-04-10T23:34:33Z</time>
      </trkpt>
      <trkpt lat="30.66620573454407" lon="114.34048263556225">
        <ele>28.24180845078081</ele>
        <time>2026-04-10T23:34:37Z</time>
      </trkpt>
      <trkpt lat="30.666263684513126" lon="114.34040467195078">
        <ele>26.951252697966993</ele>
        <time>2026-04-10T23:34:41Z</time>
      </trkpt>
      <trkpt lat="30.66635256454828" lon="114.34014699073067">
        <ele>28.00156136788428</ele>
        <time>2026-04-10T23:34:53Z</time>
      </trkpt>
      <trkpt lat="30.6665028742644" lon="114.33983055078086">
        <ele>27.083514289930463</ele>
        <time>2026-04-10T23:35:09Z</time>
      </trkpt>
      <trkpt lat="30.66658698524486" lon="114.33960011929314">
        <ele>26.75806583277881</ele>
        <time>2026-04-10T23:35:21Z</time>
      </trkpt>
      <trkpt lat="30.666578728536976" lon="114.3394927874114">
        <ele>26.904599217697978</ele>
        <time>2026-04-10T23:35:25Z</time>
      </trkpt>
      <trkpt lat="30.666607406378276" lon="114.33931669433481">
        <ele>27.129331421107054</ele>
        <time>2026-04-10T23:35:33Z</time>
      </trkpt>
      <trkpt lat="30.666740454060857" lon="114.33896780632374">
        <ele>28.08354492019862</ele>
        <time>2026-04-10T23:35:49Z</time>
      </trkpt>
      <trkpt lat="30.666807331932553" lon="114.33880320173711">
        <ele>28.08519276138395</ele>
        <time>2026-04-10T23:35:57Z</time>
      </trkpt>
      <trkpt lat="30.666998192865673" lon="114.33852984413421">
        <ele>27.73773037455976</ele>
        <time>2026-04-10T23:36:13Z</time>
      </trkpt>
      <trkpt lat="30.66711056994856" lon="114.33840826800623">
        <ele>26.902716878801584</ele>
        <time>2026-04-10T23:36:21Z</time>
      </trkpt>
      <trkpt lat="30.667147114249502" lon="114.3383239903723">
        <ele>27.7564165154472</ele>
        <time>2026-04-10T23:36:25Z</time>
      </trkpt>
      <trkpt lat="30.667210212071836" lon="114.33825775326348">
        <ele>27.559746876358986</ele>
        <time>2026-04-10T23:36:29Z</time>
      </trkpt>
      <trkpt lat="30.667230433564505" lon="114.33806980393197">
        <ele>28.915229115635157</ele>
        <time>2026-04-10T23:36:37Z</time>
      </trkpt>
      <trkpt lat="30.667319706918818" lon="114.33792320995965">
        <ele>29.314832171425223</ele>
        <time>2026-04-10T23:36:45Z</time>
      </trkpt>
      <trkpt lat="30.66739623275155" lon="114.33773389688584">
        <ele>28.303851044736803</ele>
        <time>2026-04-10T23:36:53Z</time>
      </trkpt>
      <trkpt lat="30.667419703038075" lon="114.33763783584237">
        <ele>28.756490075029433</ele>
        <time>2026-04-10T23:36:57Z</time>
      </trkpt>
      <trkpt lat="30.667389332045882" lon="114.33745985486902">
        <ele>26.641729804687202</ele>
        <time>2026-04-10T23:37:05Z</time>
      </trkpt>
      <trkpt lat="30.667319153780287" lon="114.33730570943302">
        <ele>24.81717815902084</ele>
        <time>2026-04-10T23:37:13Z</time>
      </trkpt>
      <trkpt lat="30.667257041089687" lon="114.33733247190143">
        <ele>25.77564994059503</ele>
        <time>2026-04-10T23:37:19Z</time>
      </trkpt>
      <trkpt lat="30.666933927617798" lon="114.3373354068782">
        <ele>27.313762265257537</ele>
        <time>2026-04-10T23:37:34Z</time>
      </trkpt>
      <trkpt lat="30.66682567076634" lon="114.33735239378986">
        <ele>26.72766699641943</ele>
        <time>2026-04-10T23:37:40Z</time>
      </trkpt>
      <trkpt lat="30.666741629421036" lon="114.33742633740088">
        <ele>27.138831791467965</ele>
        <time>2026-04-10T23:37:46Z</time>
      </trkpt>
      <trkpt lat="30.666517697806743" lon="114.33747613222158">
        <ele>26.829054561443627</ele>
        <time>2026-04-10T23:37:58Z</time>
      </trkpt>
      <trkpt lat="30.666260561812354" lon="114.33760601556786">
        <ele>26.88179155252874</ele>
        <time>2026-04-10T23:38:13Z</time>
      </trkpt>
      <trkpt lat="30.666178947983287" lon="114.33764231960663">
        <ele>27.259645903483033</ele>
        <time>2026-04-10T23:38:17Z</time>
      </trkpt>
      <trkpt lat="30.666102683009328" lon="114.33764609549533">
        <ele>25.5169445797801</ele>
        <time>2026-04-10T23:38:21Z</time>
      </trkpt>
      <trkpt lat="30.666035498995917" lon="114.33767428886598">
        <ele>24.79969598259777</ele>
        <time>2026-04-10T23:38:25Z</time>
      </trkpt>
      <trkpt lat="30.66583996957511" lon="114.33771200054221">
        <ele>26.361405377276242</ele>
        <time>2026-04-10T23:38:49Z</time>
      </trkpt>
      <trkpt lat="30.665779703767626" lon="114.33774016015835">
        <ele>26.51279942970723</ele>
        <time>2026-04-10T23:38:53Z</time>
      </trkpt>
      <trkpt lat="30.665732918901355" lon="114.3378108396767">
        <ele>26.155692738480866</ele>
        <time>2026-04-10T23:38:57Z</time>
      </trkpt>
      <trkpt lat="30.665393977767927" lon="114.33794029339795">
        <ele>27.40814522188157</ele>
        <time>2026-04-10T23:39:09Z</time>
      </trkpt>
      <trkpt lat="30.66530287376115" lon="114.33797937924523">
        <ele>25.87850979156792</ele>
        <time>2026-04-10T23:39:13Z</time>
      </trkpt>
      <trkpt lat="30.665216845233555" lon="114.3379760832839">
        <ele>23.86925431061536</ele>
        <time>2026-04-10T23:39:17Z</time>
      </trkpt>
      <trkpt lat="30.665085919835427" lon="114.33806362009206">
        <ele>26.507891685701907</ele>
        <time>2026-04-10T23:39:24Z</time>
      </trkpt>
      <trkpt lat="30.66505021482431" lon="114.33813411922998">
        <ele>26.14448539633304</ele>
        <time>2026-04-10T23:39:27Z</time>
      </trkpt>
      <trkpt lat="30.66506454048638" lon="114.33827113758794">
        <ele>26.611344635486603</ele>
        <time>2026-04-10T23:39:33Z</time>
      </trkpt>
      <trkpt lat="30.665165961137703" lon="114.33856036799465">
        <ele>27.538365342654288</ele>
        <time>2026-04-10T23:39:48Z</time>
      </trkpt>
      <trkpt lat="30.665246054219686" lon="114.33890966362016">
        <ele>25.43736317846924</ele>
        <time>2026-04-10T23:40:04Z</time>
      </trkpt>
      <trkpt lat="30.665320636001727" lon="114.33924756328014">
        <ele>25.934026643633842</ele>
        <time>2026-04-10T23:40:19Z</time>
      </trkpt>
      <trkpt lat="30.66535749136982" lon="114.33928744708477">
        <ele>22.52017784304917</ele>
        <time>2026-04-10T23:40:23Z</time>
      </trkpt>
      <trkpt lat="30.66542627716464" lon="114.33961637091362">
        <ele>24.810660120099783</ele>
        <time>2026-04-10T23:40:39Z</time>
      </trkpt>
      <trkpt lat="30.665532368375793" lon="114.33993365089454">
        <ele>26.465650351718068</ele>
        <time>2026-04-10T23:40:55Z</time>
      </trkpt>
      <trkpt lat="30.665627739963217" lon="114.34028935731484">
        <ele>24.542988640256226</ele>
        <time>2026-04-10T23:41:14Z</time>
      </trkpt>
      <trkpt lat="30.665725051588062" lon="114.34063784183903">
        <ele>25.560726878233254</ele>
        <time>2026-04-10T23:41:30Z</time>
      </trkpt>
      <trkpt lat="30.665789402380177" lon="114.34088342040398">
        <ele>27.731247490271926</ele>
        <time>2026-04-10T23:41:42Z</time>
      </trkpt>
      <trkpt lat="30.665935171497228" lon="114.34100160813085">
        <ele>27.36636048834771</ele>
        <time>2026-04-10T23:41:51Z</time>
      </trkpt>
      <trkpt lat="30.66604209200541" lon="114.3410209666465">
        <ele>27.829174185171723</ele>
        <time>2026-04-10T23:41:57Z</time>
      </trkpt>
      <trkpt lat="30.666081802920253" lon="114.34099441758282">
        <ele>27.47124488465488</ele>
        <time>2026-04-10T23:42:00Z</time>
      </trkpt>
      <trkpt lat="30.666138238096316" lon="114.34076326570165">
        <ele>28.78917671367526</ele>
        <time>2026-04-10T23:42:12Z</time>
      </trkpt>
      <trkpt lat="30.666142127688545" lon="114.34069554229585">
        <ele>27.236944410949945</ele>
        <time>2026-04-10T23:42:15Z</time>
      </trkpt>
      <trkpt lat="30.666224704997394" lon="114.34043379169142">
        <ele>23.317252452485263</ele>
        <time>2026-04-10T23:42:27Z</time>
      </trkpt>
      <trkpt lat="30.666351269239087" lon="114.3401981587475">
        <ele>26.56393034849316</ele>
        <time>2026-04-10T23:42:40Z</time>
      </trkpt>
      <trkpt lat="30.666479584138756" lon="114.3398868352924">
        <ele>24.974880813620985</ele>
        <time>2026-04-10T23:42:58Z</time>
      </trkpt>
      <trkpt lat="30.66656689615909" lon="114.3396831815236">
        <ele>28.144648981280625</ele>
        <time>2026-04-10T23:43:08Z</time>
      </trkpt>
      <trkpt lat="30.666606193795655" lon="114.33931186829021">
        <ele>27.352708788588643</ele>
        <time>2026-04-10T23:43:26Z</time>
      </trkpt>
      <trkpt lat="30.666722735689422" lon="114.33901056991486">
        <ele>27.62233404070139</ele>
        <time>2026-04-10T23:43:41Z</time>
      </trkpt>
      <trkpt lat="30.666835866765968" lon="114.3387522296604">
        <ele>28.23487071506679</ele>
        <time>2026-04-10T23:43:54Z</time>
      </trkpt>
      <trkpt lat="30.66698496318428" lon="114.33854807819426">
        <ele>27.742217114195228</ele>
        <time>2026-04-10T23:44:06Z</time>
      </trkpt>
      <trkpt lat="30.667076430088024" lon="114.33846525264073">
        <ele>26.717545264400542</ele>
        <time>2026-04-10T23:44:12Z</time>
      </trkpt>
      <trkpt lat="30.667172509372644" lon="114.3384847232613">
        <ele>27.54023782722652</ele>
        <time>2026-04-10T23:44:24Z</time>
      </trkpt>
      <trkpt lat="30.667249237613728" lon="114.33848065163568">
        <ele>27.14368463680148</ele>
        <time>2026-04-10T23:44:27Z</time>
      </trkpt>
      <trkpt lat="30.667279998010592" lon="114.33843925831188">
        <ele>27.02419190760702</ele>
        <time>2026-04-10T23:44:31Z</time>
      </trkpt>
      <trkpt lat="30.667289289923104" lon="114.33829550269549">
        <ele>26.383422857150435</ele>
        <time>2026-04-10T23:44:37Z</time>
      </trkpt>
      <trkpt lat="30.667237531165153" lon="114.33807614417887">
        <ele>26.172081619501114</ele>
        <time>2026-04-10T23:44:46Z</time>
      </trkpt>
      <trkpt lat="30.66737253375747" lon="114.33772988817879">
        <ele>27.30965411104262</ele>
        <time>2026-04-10T23:45:03Z</time>
      </trkpt>
      <trkpt lat="30.667399807244593" lon="114.33754695985803">
        <ele>27.292033527046442</ele>
        <time>2026-04-10T23:45:11Z</time>
      </trkpt>
      <trkpt lat="30.667391365690538" lon="114.33746723940557">
        <ele>27.07120021712035</ele>
        <time>2026-04-10T23:45:15Z</time>
      </trkpt>
      <trkpt lat="30.667366700933265" lon="114.33741417432731">
        <ele>27.543233355507255</ele>
        <time>2026-04-10T23:45:18Z</time>
      </trkpt>
      <trkpt lat="30.667256566794634" lon="114.33735856169152">
        <ele>25.472091546282172</ele>
        <time>2026-04-10T23:45:25Z</time>
      </trkpt>
      <trkpt lat="30.667018668384706" lon="114.33734882994509">
        <ele>25.99356324505061</ele>
        <time>2026-04-10T23:45:37Z</time>
      </trkpt>
      <trkpt lat="30.666948173692088" lon="114.33732531675871">
        <ele>27.053556212224066</ele>
        <time>2026-04-10T23:45:41Z</time>
      </trkpt>
      <trkpt lat="30.666877489149453" lon="114.3373270223637">
        <ele>26.922390218824148</ele>
        <time>2026-04-10T23:45:45Z</time>
      </trkpt>
      <trkpt lat="30.66665068385819" lon="114.3374670662173">
        <ele>25.386051927693188</ele>
        <time>2026-04-10T23:45:59Z</time>
      </trkpt>
      <trkpt lat="30.666466791329732" lon="114.33749475300685">
        <ele>27.509062780067325</ele>
        <time>2026-04-10T23:46:08Z</time>
      </trkpt>
      <trkpt lat="30.66628713537128" lon="114.33758996023089">
        <ele>26.782967283390462</ele>
        <time>2026-04-10T23:46:20Z</time>
      </trkpt>
      <trkpt lat="30.666107142502625" lon="114.33764049680624">
        <ele>24.9500882755965</ele>
        <time>2026-04-10T23:46:31Z</time>
      </trkpt>
      <trkpt lat="30.666026362828262" lon="114.33770363458792">
        <ele>24.174578031525016</ele>
        <time>2026-04-10T23:46:40Z</time>
      </trkpt>
      <trkpt lat="30.66579088460051" lon="114.33773940947572">
        <ele>26.57011488545686</ele>
        <time>2026-04-10T23:46:57Z</time>
      </trkpt>
      <trkpt lat="30.66571881814498" lon="114.33776637674116">
        <ele>25.858062846586108</ele>
        <time>2026-04-10T23:47:00Z</time>
      </trkpt>
      <trkpt lat="30.665602045834934" lon="114.3378511032045">
        <ele>26.10940521489829</ele>
        <time>2026-04-10T23:47:06Z</time>
      </trkpt>
      <trkpt lat="30.66533281289196" lon="114.33796472220376">
        <ele>25.63819109275937</ele>
        <time>2026-04-10T23:47:17Z</time>
      </trkpt>
      <trkpt lat="30.66527056079503" lon="114.33798918225945">
        <ele>25.524026839993894</ele>
        <time>2026-04-10T23:47:20Z</time>
      </trkpt>
      <trkpt lat="30.665205999558903" lon="114.33799129957202">
        <ele>25.03504711855203</ele>
        <time>2026-04-10T23:47:23Z</time>
      </trkpt>
      <trkpt lat="30.66508238559852" lon="114.33807546701757">
        <ele>24.779144818894565</ele>
        <time>2026-04-10T23:47:29Z</time>
      </trkpt>
      <trkpt lat="30.66504819965299" lon="114.33815459112452">
        <ele>26.446406544186175</ele>
        <time>2026-04-10T23:47:32Z</time>
      </trkpt>
      <trkpt lat="30.665070994640992" lon="114.33822755684523">
        <ele>26.431404545903206</ele>
        <time>2026-04-10T23:47:36Z</time>
      </trkpt>
      <trkpt lat="30.665071888541533" lon="114.33829255490407">
        <ele>26.52480830065906</ele>
        <time>2026-04-10T23:47:39Z</time>
      </trkpt>
      <trkpt lat="30.665113717704205" lon="114.3383474438881">
        <ele>26.802723973989487</ele>
        <time>2026-04-10T23:47:42Z</time>
      </trkpt>
      <trkpt lat="30.66519695368964" lon="114.33870137023324">
        <ele>26.865519436076283</ele>
        <time>2026-04-10T23:47:59Z</time>
      </trkpt>
      <trkpt lat="30.665268516093597" lon="114.33903001736448">
        <ele>26.39088150858879</ele>
        <time>2026-04-10T23:48:14Z</time>
      </trkpt>
      <trkpt lat="30.665280840459456" lon="114.33915008745676">
        <ele>22.917187590152025</ele>
        <time>2026-04-10T23:48:20Z</time>
      </trkpt>
      <trkpt lat="30.665359779153857" lon="114.33940814729331">
        <ele>25.341168055310845</ele>
        <time>2026-04-10T23:48:33Z</time>
      </trkpt>
      <trkpt lat="30.665390557192705" lon="114.33946302385861">
        <ele>25.672450883314013</ele>
        <time>2026-04-10T23:48:36Z</time>
      </trkpt>
      <trkpt lat="30.665467080824573" lon="114.33987285862803">
        <ele>24.433446684852242</ele>
        <time>2026-04-10T23:48:58Z</time>
      </trkpt>
      <trkpt lat="30.665476969868408" lon="114.33994925115711">
        <ele>25.781330252997577</ele>
        <time>2026-04-10T23:49:01Z</time>
      </trkpt>
      <trkpt lat="30.665530954350693" lon="114.3400843695533">
        <ele>26.750487425364554</ele>
        <time>2026-04-10T23:49:07Z</time>
      </trkpt>
      <trkpt lat="30.665576999058334" lon="114.3401437553723">
        <ele>26.357130649499595</ele>
        <time>2026-04-10T23:49:13Z</time>
      </trkpt>
      <trkpt lat="30.665632484833477" lon="114.34030511440741">
        <ele>23.567185976542532</ele>
        <time>2026-04-10T23:49:22Z</time>
      </trkpt>
      <trkpt lat="30.66565753370627" lon="114.3404473362908">
        <ele>23.813422478735447</ele>
        <time>2026-04-10T23:49:28Z</time>
      </trkpt>
      <trkpt lat="30.665777895632075" lon="114.3407683228483">
        <ele>26.15117539651692</ele>
        <time>2026-04-10T23:49:43Z</time>
      </trkpt>
      <trkpt lat="30.665794507624565" lon="114.34087766407467">
        <ele>28.28903957363218</ele>
        <time>2026-04-10T23:49:49Z</time>
      </trkpt>
      <trkpt lat="30.66589243605824" lon="114.34100198740198">
        <ele>28.431735396385193</ele>
        <time>2026-04-10T23:49:57Z</time>
      </trkpt>
      <trkpt lat="30.666021772243372" lon="114.34103745339107">
        <ele>26.973967638798058</ele>
        <time>2026-04-10T23:50:05Z</time>
      </trkpt>
      <trkpt lat="30.66607164558742" lon="114.34101567453062">
        <ele>27.13998120650649</ele>
        <time>2026-04-10T23:50:09Z</time>
      </trkpt>
      <trkpt lat="30.666139008233515" lon="114.34080306902156">
        <ele>27.165080818347633</ele>
        <time>2026-04-10T23:50:21Z</time>
      </trkpt>
      <trkpt lat="30.66617398655517" lon="114.34058307586257">
        <ele>24.32370070926845</ele>
        <time>2026-04-10T23:50:31Z</time>
      </trkpt>
      <trkpt lat="30.66617402037673" lon="114.34049535507259">
        <ele>26.703645913861692</ele>
        <time>2026-04-10T23:50:34Z</time>
      </trkpt>
      <trkpt lat="30.666228675465028" lon="114.340379548888">
        <ele>26.29717481788248</ele>
        <time>2026-04-10T23:50:40Z</time>
      </trkpt>
      <trkpt lat="30.66627040941412" lon="114.34034558383551">
        <ele>25.370342957787216</ele>
        <time>2026-04-10T23:50:43Z</time>
      </trkpt>
      <trkpt lat="30.66640057284376" lon="114.34002013627007">
        <ele>26.31632629223168</ele>
        <time>2026-04-10T23:51:02Z</time>
      </trkpt>
      <trkpt lat="30.666567219790057" lon="114.33971031276985">
        <ele>28.343837117776275</ele>
        <time>2026-04-10T23:51:20Z</time>
      </trkpt>
      <trkpt lat="30.66658399864267" lon="114.33964469619052">
        <ele>27.909783132374287</ele>
        <time>2026-04-10T23:51:24Z</time>
      </trkpt>
      <trkpt lat="30.666578679124612" lon="114.33951743062408">
        <ele>28.297624738886952</ele>
        <time>2026-04-10T23:51:30Z</time>
      </trkpt>
      <trkpt lat="30.666667110243502" lon="114.33921197860343">
        <ele>29.14125343039632</ele>
        <time>2026-04-10T23:51:45Z</time>
      </trkpt>
      <trkpt lat="30.666768458437524" lon="114.33889871439406">
        <ele>27.818093866109848</ele>
        <time>2026-04-10T23:52:01Z</time>
      </trkpt>
      <trkpt lat="30.666939333595778" lon="114.33862635025262">
        <ele>28.167663141153753</ele>
        <time>2026-04-10T23:52:18Z</time>
      </trkpt>
      <trkpt lat="30.667016822315283" lon="114.33853028737664">
        <ele>27.775143434293568</ele>
        <time>2026-04-10T23:52:24Z</time>
      </trkpt>
      <trkpt lat="30.667118709926996" lon="114.33839182930853">
        <ele>26.257542772218585</ele>
        <time>2026-04-10T23:52:33Z</time>
      </trkpt>
      <trkpt lat="30.667209445707485" lon="114.33816689361198">
        <ele>27.38768800906837</ele>
        <time>2026-04-10T23:52:45Z</time>
      </trkpt>
      <trkpt lat="30.6672312798855" lon="114.33805044406641">
        <ele>27.390565808862448</ele>
        <time>2026-04-10T23:52:51Z</time>
      </trkpt>
      <trkpt lat="30.66735019986429" lon="114.33776458812551">
        <ele>27.588697964325547</ele>
        <time>2026-04-10T23:53:07Z</time>
      </trkpt>
      <trkpt lat="30.66738818621572" lon="114.33758969311464">
        <ele>27.334077149629593</ele>
        <time>2026-04-10T23:53:16Z</time>
      </trkpt>
      <trkpt lat="30.667385000344265" lon="114.33745235506473">
        <ele>26.990320631302893</ele>
        <time>2026-04-10T23:53:23Z</time>
      </trkpt>
      <trkpt lat="30.667322231063146" lon="114.33734710071364">
        <ele>26.013115980662405</ele>
        <time>2026-04-10T23:53:30Z</time>
      </trkpt>
      <trkpt lat="30.667108926013306" lon="114.33730485674398">
        <ele>25.735750461928546</ele>
        <time>2026-04-10T23:53:42Z</time>
      </trkpt>
      <trkpt lat="30.66699235848137" lon="114.33731901929262">
        <ele>25.898040615953505</ele>
        <time>2026-04-10T23:53:48Z</time>
      </trkpt>
      <trkpt lat="30.66693872968506" lon="114.33730544662727">
        <ele>26.850927799008787</ele>
        <time>2026-04-10T23:53:51Z</time>
      </trkpt>
      <trkpt lat="30.66683680497555" lon="114.33732479148748">
        <ele>27.103715664707124</ele>
        <time>2026-04-10T23:53:57Z</time>
      </trkpt>
      <trkpt lat="30.66676350139034" lon="114.33740457456592">
        <ele>27.936477397568524</ele>
        <time>2026-04-10T23:54:03Z</time>
      </trkpt>
      <trkpt lat="30.666486105912806" lon="114.33752399918197">
        <ele>24.832104705274105</ele>
        <time>2026-04-10T23:54:24Z</time>
      </trkpt>
      <trkpt lat="30.666306900102693" lon="114.3375989272393">
        <ele>26.031441780738533</ele>
        <time>2026-04-10T23:54:36Z</time>
      </trkpt>
      <trkpt lat="30.66622588211986" lon="114.33760744619023">
        <ele>26.541302339173853</ele>
        <time>2026-04-10T23:54:42Z</time>
      </trkpt>
      <trkpt lat="30.666108454097614" lon="114.33769528947438">
        <ele>26.809175022877753</ele>
        <time>2026-04-10T23:54:51Z</time>
      </trkpt>
      <trkpt lat="30.666041440834253" lon="114.33769867790534">
        <ele>26.107135692611337</ele>
        <time>2026-04-10T23:54:57Z</time>
      </trkpt>
      <trkpt lat="30.665725688907074" lon="114.33783619800472">
        <ele>27.622777425684035</ele>
        <time>2026-04-10T23:55:19Z</time>
      </trkpt>
      <trkpt lat="30.665591605463653" lon="114.33788788927156">
        <ele>26.60545290261507</ele>
        <time>2026-04-10T23:55:28Z</time>
      </trkpt>
      <trkpt lat="30.66548225050331" lon="114.33795654313252">
        <ele>28.054963120259345</ele>
        <time>2026-04-10T23:55:35Z</time>
      </trkpt>
      <trkpt lat="30.66537955375855" lon="114.33798517048297">
        <ele>26.496727260760963</ele>
        <time>2026-04-10T23:55:42Z</time>
      </trkpt>
      <trkpt lat="30.665321914439637" lon="114.33803102019083">
        <ele>27.254952089861035</ele>
        <time>2026-04-10T23:55:46Z</time>
      </trkpt>
      <trkpt lat="30.665274067779002" lon="114.33802714069715">
        <ele>26.401617534458637</ele>
        <time>2026-04-10T23:55:49Z</time>
      </trkpt>
      <trkpt lat="30.665135717476836" lon="114.33806890716266">
        <ele>26.418701535090804</ele>
        <time>2026-04-10T23:55:58Z</time>
      </trkpt>
      <trkpt lat="30.66509320167338" lon="114.33810917329032">
        <ele>26.21710382029414</ele>
        <time>2026-04-10T23:56:01Z</time>
      </trkpt>
      <trkpt lat="30.665068321647787" lon="114.33820575033077">
        <ele>26.538886881433427</ele>
        <time>2026-04-10T23:56:08Z</time>
      </trkpt>
      <trkpt lat="30.66517111249038" lon="114.33841374719383">
        <ele>25.59365880396217</ele>
        <time>2026-04-10T23:56:23Z</time>
      </trkpt>
      <trkpt lat="30.665187452616802" lon="114.33852779427103">
        <ele>25.702689063735306</ele>
        <time>2026-04-10T23:56:29Z</time>
      </trkpt>
      <trkpt lat="30.665265210665407" lon="114.33883458002623">
        <ele>24.737682062201202</ele>
        <time>2026-04-10T23:56:44Z</time>
      </trkpt>
      <trkpt lat="30.665340536534732" lon="114.33914817646308">
        <ele>26.783154198899865</ele>
        <time>2026-04-10T23:56:59Z</time>
      </trkpt>
      <trkpt lat="30.665439739153232" lon="114.33946395430875">
        <ele>26.253600435331464</ele>
        <time>2026-04-10T23:57:16Z</time>
      </trkpt>
      <trkpt lat="30.665541413038248" lon="114.33982587215485">
        <ele>25.838524835184216</ele>
        <time>2026-04-10T23:57:36Z</time>
      </trkpt>
      <trkpt lat="30.665575112209016" lon="114.3399627570913">
        <ele>26.562523759901524</ele>
        <time>2026-04-10T23:57:43Z</time>
      </trkpt>
      <trkpt lat="30.66566716619189" lon="114.34012104481181">
        <ele>27.557099787518382</ele>
        <time>2026-04-10T23:57:53Z</time>
      </trkpt>
      <trkpt lat="30.665692644052715" lon="114.34031372742099">
        <ele>25.81859905552119</ele>
        <time>2026-04-10T23:58:02Z</time>
      </trkpt>
      <trkpt lat="30.665691814892153" lon="114.34041895290389">
        <ele>26.11841273214668</ele>
        <time>2026-04-10T23:58:08Z</time>
      </trkpt>
      <trkpt lat="30.66577050653342" lon="114.3405766005824">
        <ele>25.591197275556624</ele>
        <time>2026-04-10T23:58:16Z</time>
      </trkpt>
      <trkpt lat="30.665773113620773" lon="114.34064586849571">
        <ele>24.6806271802634</ele>
        <time>2026-04-10T23:58:20Z</time>
      </trkpt>
      <trkpt lat="30.66580178396774" lon="114.34071928646509">
        <ele>26.754458839073777</ele>
        <time>2026-04-10T23:58:24Z</time>
      </trkpt>
      <trkpt lat="30.66579495737439" lon="114.34078790710768">
        <ele>27.682542986236513</ele>
        <time>2026-04-10T23:58:28Z</time>
      </trkpt>
      <trkpt lat="30.66584781675502" lon="114.34092446151216">
        <ele>27.14683995116502</ele>
        <time>2026-04-10T23:58:36Z</time>
      </trkpt>
      <trkpt lat="30.66589975576416" lon="114.34097414190948">
        <ele>28.81323600001633</ele>
        <time>2026-04-10T23:58:40Z</time>
      </trkpt>
      <trkpt lat="30.666027599896687" lon="114.34099850376076">
        <ele>27.85398228559643</ele>
        <time>2026-04-10T23:58:48Z</time>
      </trkpt>
      <trkpt lat="30.666085440095575" lon="114.34098965861033">
        <ele>26.353660008870065</ele>
        <time>2026-04-10T23:58:52Z</time>
      </trkpt>
      <trkpt lat="30.666101708271132" lon="114.3409216929171">
        <ele>26.454809081740677</ele>
        <time>2026-04-10T23:58:56Z</time>
      </trkpt>
      <trkpt lat="30.66612759053912" lon="114.34056339367231">
        <ele>27.362739823758602</ele>
        <time>2026-04-10T23:59:12Z</time>
      </trkpt>
      <trkpt lat="30.666168730855105" lon="114.34040400454568">
        <ele>26.855775760486722</ele>
        <time>2026-04-10T23:59:20Z</time>
      </trkpt>
      <trkpt lat="30.666278453258503" lon="114.34019101269074">
        <ele>26.81342352833599</ele>
        <time>2026-04-10T23:59:32Z</time>
      </trkpt>
      <trkpt lat="30.666367880647048" lon="114.3399753117036">
        <ele>26.052535355091095</ele>
        <time>2026-04-10T23:59:46Z</time>
      </trkpt>
      <trkpt lat="30.666508640435406" lon="114.33974821034901">
        <ele>27.297385657206178</ele>
        <time>2026-04-11T00:00:01Z</time>
      </trkpt>
      <trkpt lat="30.66655141798829" lon="114.33958199275237">
        <ele>28.242088069207966</ele>
        <time>2026-04-11T00:00:12Z</time>
      </trkpt>
      <trkpt lat="30.66654844232193" lon="114.33948885122754">
        <ele>28.059768228791654</ele>
        <time>2026-04-11T00:00:16Z</time>
      </trkpt>
      <trkpt lat="30.666574730777388" lon="114.3392967553177">
        <ele>28.74771003983915</ele>
        <time>2026-04-11T00:00:25Z</time>
      </trkpt>
      <trkpt lat="30.66668861002426" lon="114.33899568095113">
        <ele>27.45550026744604</ele>
        <time>2026-04-11T00:00:40Z</time>
      </trkpt>
      <trkpt lat="30.66672656498412" lon="114.33887652297304">
        <ele>28.433905051089823</ele>
        <time>2026-04-11T00:00:46Z</time>
      </trkpt>
      <trkpt lat="30.666915313735608" lon="114.33859623965995">
        <ele>28.63112143240869</ele>
        <time>2026-04-11T00:01:04Z</time>
      </trkpt>
      <trkpt lat="30.666966570497024" lon="114.33855950520967">
        <ele>28.321751199662685</ele>
        <time>2026-04-11T00:01:07Z</time>
      </trkpt>
      <trkpt lat="30.667042128458316" lon="114.33844005231933">
        <ele>27.648746605962515</ele>
        <time>2026-04-11T00:01:14Z</time>
      </trkpt>
      <trkpt lat="30.667156220352346" lon="114.3382112589715">
        <ele>27.135522600263357</ele>
        <time>2026-04-11T00:01:27Z</time>
      </trkpt>
      <trkpt lat="30.667178529811018" lon="114.3381355017705">
        <ele>27.12478176318109</ele>
        <time>2026-04-11T00:01:31Z</time>
      </trkpt>
      <trkpt lat="30.667176145137084" lon="114.33807776984445">
        <ele>27.2989094061777</ele>
        <time>2026-04-11T00:01:34Z</time>
      </trkpt>
      <trkpt lat="30.66723566139794" lon="114.33796044809739">
        <ele>26.667652937583625</ele>
        <time>2026-04-11T00:01:41Z</time>
      </trkpt>
      <trkpt lat="30.667247630677963" lon="114.33787919387912">
        <ele>27.30262982007116</ele>
        <time>2026-04-11T00:01:45Z</time>
      </trkpt>
      <trkpt lat="30.667310277721953" lon="114.33771749484008">
        <ele>28.053183709271252</ele>
        <time>2026-04-11T00:01:53Z</time>
      </trkpt>
      <trkpt lat="30.667342282279524" lon="114.33756414798751">
        <ele>27.6228861855343</ele>
        <time>2026-04-11T00:02:00Z</time>
      </trkpt>
      <trkpt lat="30.66732312345077" lon="114.33738647983499">
        <ele>26.54549085535109</ele>
        <time>2026-04-11T00:02:11Z</time>
      </trkpt>
      <trkpt lat="30.667258722725904" lon="114.33734361060681">
        <ele>26.45762120373547</ele>
        <time>2026-04-11T00:02:15Z</time>
      </trkpt>
      <trkpt lat="30.666984707351077" lon="114.337350548628">
        <ele>26.748204476200044</ele>
        <time>2026-04-11T00:02:29Z</time>
      </trkpt>
      <trkpt lat="30.66684332678474" lon="114.33734883210388">
        <ele>27.151066621765494</ele>
        <time>2026-04-11T00:02:37Z</time>
      </trkpt>
      <trkpt lat="30.6667543253377" lon="114.3374274892238">
        <ele>28.373044109903276</ele>
        <time>2026-04-11T00:02:45Z</time>
      </trkpt>
      <trkpt lat="30.666515889349597" lon="114.33748537684332">
        <ele>25.537246944382787</ele>
        <time>2026-04-11T00:02:58Z</time>
      </trkpt>
      <trkpt lat="30.66626207371171" lon="114.3376399063782">
        <ele>25.067469511181116</ele>
        <time>2026-04-11T00:03:13Z</time>
      </trkpt>
      <trkpt lat="30.666088955115452" lon="114.33766111341774">
        <ele>24.941668950021267</ele>
        <time>2026-04-11T00:03:24Z</time>
      </trkpt>
      <trkpt lat="30.666021856942095" lon="114.33769396707828">
        <ele>25.796075609512627</ele>
        <time>2026-04-11T00:03:28Z</time>
      </trkpt>
      <trkpt lat="30.665916561000724" lon="114.33777711423197">
        <ele>25.53100660815835</ele>
        <time>2026-04-11T00:03:35Z</time>
      </trkpt>
      <trkpt lat="30.665742977777438" lon="114.3378153774282">
        <ele>26.204914682544768</ele>
        <time>2026-04-11T00:03:47Z</time>
      </trkpt>
      <trkpt lat="30.66569546792554" lon="114.33780609001037">
        <ele>25.615556723438203</ele>
        <time>2026-04-11T00:03:50Z</time>
      </trkpt>
      <trkpt lat="30.665519277377044" lon="114.33792814634626">
        <ele>25.851446786895394</ele>
        <time>2026-04-11T00:04:01Z</time>
      </trkpt>
      <trkpt lat="30.665248395070947" lon="114.33807159112123">
        <ele>25.71530543360859</ele>
        <time>2026-04-11T00:04:17Z</time>
      </trkpt>
      <trkpt lat="30.665048764765253" lon="114.33811884571534">
        <ele>26.11965329479426</ele>
        <time>2026-04-11T00:04:29Z</time>
      </trkpt>
      <trkpt lat="30.664864337165103" lon="114.33792969611588">
        <ele>26.47743607312441</ele>
        <time>2026-04-11T00:04:43Z</time>
      </trkpt>
      <trkpt lat="30.66480982761052" lon="114.33796638013521">
        <ele>26.395603409968317</ele>
        <time>2026-04-11T00:04:46Z</time>
      </trkpt>
      <trkpt lat="30.664801926307202" lon="114.33804541237097">
        <ele>26.988618872128427</ele>
        <time>2026-04-11T00:04:50Z</time>
      </trkpt>
      <trkpt lat="30.66489750307737" lon="114.33815800913239">
        <ele>25.31770992744714</ele>
        <time>2026-04-11T00:04:58Z</time>
      </trkpt>
      <trkpt lat="30.664970086622112" lon="114.33816089720615">
        <ele>25.32265050895512</ele>
        <time>2026-04-11T00:05:02Z</time>
      </trkpt>
      <trkpt lat="30.66503001520358" lon="114.33826741190995">
        <ele>26.822881869971752</ele>
        <time>2026-04-11T00:05:09Z</time>
      </trkpt>
      <trkpt lat="30.665036617522556" lon="114.33832465433319">
        <ele>27.646334286779165</ele>
        <time>2026-04-11T00:05:13Z</time>
      </trkpt>
      <trkpt lat="30.66477336054006" lon="114.33842699198982">
        <ele>26.79677185509354</ele>
        <time>2026-04-11T00:05:29Z</time>
      </trkpt>
      <trkpt lat="30.664557315995964" lon="114.33849242321165">
        <ele>26.743367467075586</ele>
        <time>2026-04-11T00:05:41Z</time>
      </trkpt>
      <trkpt lat="30.664303462638546" lon="114.33860949913243">
        <ele>26.51933427155018</ele>
        <time>2026-04-11T00:05:56Z</time>
      </trkpt>
      <trkpt lat="30.664183673828774" lon="114.33863688402649">
        <ele>26.11694262456149</ele>
        <time>2026-04-11T00:06:03Z</time>
      </trkpt>
      <trkpt lat="30.663990673141654" lon="114.33872131449961">
        <ele>26.070276484824717</ele>
        <time>2026-04-11T00:06:15Z</time>
      </trkpt>
      <trkpt lat="30.66395604509215" lon="114.33876140636362">
        <ele>26.826964987441897</ele>
        <time>2026-04-11T00:06:18Z</time>
      </trkpt>
      <trkpt lat="30.66388620549745" lon="114.33874858228327">
        <ele>26.91096394788474</ele>
        <time>2026-04-11T00:06:22Z</time>
      </trkpt>
      <trkpt lat="30.663771297453103" lon="114.33882257902704">
        <ele>27.359460364095867</ele>
        <time>2026-04-11T00:06:30Z</time>
      </trkpt>
      <trkpt lat="30.66371038450952" lon="114.33897773795209">
        <ele>26.799731909297407</ele>
        <time>2026-04-11T00:06:38Z</time>
      </trkpt>
      <trkpt lat="30.66341627124348" lon="114.33907657497879">
        <ele>26.878332505002618</ele>
        <time>2026-04-11T00:06:55Z</time>
      </trkpt>
      <trkpt lat="30.66315161611959" lon="114.33915853626145">
        <ele>26.314146147109568</ele>
        <time>2026-04-11T00:07:11Z</time>
      </trkpt>
      <trkpt lat="30.662888649480827" lon="114.33927594201313">
        <ele>26.475984917022288</ele>
        <time>2026-04-11T00:07:27Z</time>
      </trkpt>
      <trkpt lat="30.662757288119803" lon="114.33932178741328">
        <ele>26.694008263759315</ele>
        <time>2026-04-11T00:07:35Z</time>
      </trkpt>
      <trkpt lat="30.66252684786959" lon="114.33945010706476">
        <ele>26.975706643424928</ele>
        <time>2026-04-11T00:07:50Z</time>
      </trkpt>
      <trkpt lat="30.662407964374218" lon="114.33947433568767">
        <ele>26.910179196856916</ele>
        <time>2026-04-11T00:07:57Z</time>
      </trkpt>
      <trkpt lat="30.662230907657108" lon="114.33954835110501">
        <ele>26.564156596548855</ele>
        <time>2026-04-11T00:08:08Z</time>
      </trkpt>
      <trkpt lat="30.662099270721644" lon="114.33955661199221">
        <ele>26.065390846692026</ele>
        <time>2026-04-11T00:08:16Z</time>
      </trkpt>
      <trkpt lat="30.662041342625887" lon="114.33951697923804">
        <ele>26.21944281179458</ele>
        <time>2026-04-11T00:08:20Z</time>
      </trkpt>
      <trkpt lat="30.661952115933428" lon="114.33915079350126">
        <ele>27.020293828099966</ele>
        <time>2026-04-11T00:08:39Z</time>
      </trkpt>
      <trkpt lat="30.66190400329837" lon="114.33881315626245">
        <ele>26.47880171518773</ele>
        <time>2026-04-11T00:08:56Z</time>
      </trkpt>
      <trkpt lat="30.661860380412723" lon="114.33845042250438">
        <ele>25.635651430115104</ele>
        <time>2026-04-11T00:09:15Z</time>
      </trkpt>
      <trkpt lat="30.661811419500744" lon="114.33817748375776">
        <ele>26.03168157208711</ele>
        <time>2026-04-11T00:09:30Z</time>
      </trkpt>
      <trkpt lat="30.661752532634686" lon="114.33780087484841">
        <ele>25.934973930940032</ele>
        <time>2026-04-11T00:09:51Z</time>
      </trkpt>
      <trkpt lat="30.661716928175665" lon="114.33745299760903">
        <ele>25.608891130425036</ele>
        <time>2026-04-11T00:10:10Z</time>
      </trkpt>
      <trkpt lat="30.66169096421039" lon="114.33730364379527">
        <ele>25.604003570973873</ele>
        <time>2026-04-11T00:10:18Z</time>
      </trkpt>
      <trkpt lat="30.66168818971433" lon="114.33716405060093">
        <ele>24.61189068481326</ele>
        <time>2026-04-11T00:10:26Z</time>
      </trkpt>
      <trkpt lat="30.661661670354313" lon="114.33703657400615">
        <ele>24.84171693958342</ele>
        <time>2026-04-11T00:10:34Z</time>
      </trkpt>
      <trkpt lat="30.661695261406454" lon="114.3369694740727">
        <ele>25.047455182299018</ele>
        <time>2026-04-11T00:10:38Z</time>
      </trkpt>
      <trkpt lat="30.66197954642322" lon="114.33684639904357">
        <ele>25.42997686099261</ele>
        <time>2026-04-11T00:10:56Z</time>
      </trkpt>
      <trkpt lat="30.66204524017922" lon="114.33680226701878">
        <ele>26.482015348039567</ele>
        <time>2026-04-11T00:11:00Z</time>
      </trkpt>
      <trkpt lat="30.66209782180422" lon="114.33678995725552">
        <ele>25.525397866033018</ele>
        <time>2026-04-11T00:11:03Z</time>
      </trkpt>
      <trkpt lat="30.66216056643559" lon="114.3368131000491">
        <ele>24.613388237543404</ele>
        <time>2026-04-11T00:11:07Z</time>
      </trkpt>
      <trkpt lat="30.662097977862963" lon="114.33681074549737">
        <ele>23.979784725233912</ele>
        <time>2026-04-11T00:11:14Z</time>
      </trkpt>
      <trkpt lat="30.66194603132811" lon="114.33688736877228">
        <ele>24.18973678443581</ele>
        <time>2026-04-11T00:11:23Z</time>
      </trkpt>
      <trkpt lat="30.661846593733326" lon="114.33696324621191">
        <ele>26.54664928652346</ele>
        <time>2026-04-11T00:11:30Z</time>
      </trkpt>
      <trkpt lat="30.66178589413109" lon="114.33696911971168">
        <ele>25.233711348846555</ele>
        <time>2026-04-11T00:11:34Z</time>
      </trkpt>
      <trkpt lat="30.661748115726514" lon="114.33700261036354">
        <ele>27.201825535856187</ele>
        <time>2026-04-11T00:11:37Z</time>
      </trkpt>
      <trkpt lat="30.661707295970825" lon="114.33696507884049">
        <ele>26.834048999473453</ele>
        <time>2026-04-11T00:11:40Z</time>
      </trkpt>
      <trkpt lat="30.661693637176135" lon="114.33688294580686">
        <ele>26.486212184652686</ele>
        <time>2026-04-11T00:11:44Z</time>
      </trkpt>
    </trkseg>
  </trk>
</gpx>