<?xml version="1.0" encoding="UTF-8"?>
<gpx xmlns="http://www.topografix.com/GPX/1/1" xmlns:gpxtpx="http://www.garmin.com/xmlschemas/TrackPointExtension/v1" xmlns:xsi="http://www.w3.org/2001/XMLSchema-instance" xsi:schemaLocation="http://www.topografix.com/GPX/1/1 http://www.topografix.com/GPX/1/1/gpx.xsd" version="1.1" creator="gpx.py -- https://github.com/tkrajina/gpxpy">
  <trk>
    <name>gpx from keep</name>
    <type>Run</type>
    <trkseg>
      <trkpt lat="30.456871071398112" lon="114.42844124796393">
        <ele>0.0</ele>
        <time>2021-04-27T12:10:38Z</time>
      </trkpt>
      <trkpt lat="30.456856226849524" lon="114.4285494713744">
        <ele>0.0</ele>
        <time>2021-04-27T12:10:42Z</time>
      </trkpt>
      <trkpt lat="30.456763261393156" lon="114.42855749591679">
        <ele>0.0</ele>
        <time>2021-04-27T12:10:47Z</time>
      </trkpt>
      <trkpt lat="30.456678174440473" lon="114.42848034484928">
        <ele>0.0</ele>
        <time>2021-04-27T12:10:54Z</time>
      </trkpt>
      <trkpt lat="30.456560269997862" lon="114.4285274517633">
        <ele>0.0</ele>
        <time>2021-04-27T12:10:57Z</time>
      </trkpt>
      <trkpt lat="30.456435305477584" lon="114.42853046878155">
        <ele>0.0</ele>
        <time>2021-04-27T12:11:02Z</time>
      </trkpt>
      <trkpt lat="30.456345387068538" lon="114.42857256307613">
        <ele>0.0</ele>
        <time>2021-04-27T12:11:06Z</time>
      </trkpt>
      <trkpt lat="30.456234472563388" lon="114.42861365721383">
        <ele>0.0</ele>
        <time>2021-04-27T12:11:10Z</time>
      </trkpt>
      <trkpt lat="30.456123525668215" lon="114.42863170396932">
        <ele>0.0</ele>
        <time>2021-04-27T12:11:15Z</time>
      </trkpt>
      <trkpt lat="30.456036592543196" lon="114.42866377755686">
        <ele>0.0</ele>
        <time>2021-04-27T12:11:21Z</time>
      </trkpt>
      <trkpt lat="30.455934640593846" lon="114.42867981944343">
        <ele>0.0</ele>
        <time>2021-04-27T12:11:26Z</time>
      </trkpt>
      <trkpt lat="30.455839698204766" lon="114.42870387726468">
        <ele>0.0</ele>
        <time>2021-04-27T12:11:31Z</time>
      </trkpt>
      <trkpt lat="30.45574076390115" lon="114.42873294579852">
        <ele>0.0</ele>
        <time>2021-04-27T12:11:36Z</time>
      </trkpt>
      <trkpt lat="30.45563683936555" lon="114.42876802722165">
        <ele>0.0</ele>
        <time>2021-04-27T12:11:42Z</time>
      </trkpt>
      <trkpt lat="30.455536899700856" lon="114.428793087647">
        <ele>0.0</ele>
        <time>2021-04-27T12:11:48Z</time>
      </trkpt>
      <trkpt lat="30.455439930949762" lon="114.4287981064147">
        <ele>0.0</ele>
        <time>2021-04-27T12:11:54Z</time>
      </trkpt>
      <trkpt lat="30.4553379917953" lon="114.42882316704886">
        <ele>0.0</ele>
        <time>2021-04-27T12:12:00Z</time>
      </trkpt>
      <trkpt lat="30.45524202136406" lon="114.42882718366452">
        <ele>0.0</ele>
        <time>2021-04-27T12:12:05Z</time>
      </trkpt>
      <trkpt lat="30.45514710319894" lon="114.42886827690653">
        <ele>0.0</ele>
        <time>2021-04-27T12:12:11Z</time>
      </trkpt>
      <trkpt lat="30.455051144122606" lon="114.42888031012706">
        <ele>0.0</ele>
        <time>2021-04-27T12:12:15Z</time>
      </trkpt>
      <trkpt lat="30.454943197976547" lon="114.42889935892354">
        <ele>0.0</ele>
        <time>2021-04-27T12:12:20Z</time>
      </trkpt>
      <trkpt lat="30.454836206089237" lon="114.42888634122504">
        <ele>0.0</ele>
        <time>2021-04-27T12:12:26Z</time>
      </trkpt>
      <trkpt lat="30.454730282184162" lon="114.42892142307421">
        <ele>0.0</ele>
        <time>2021-04-27T12:12:36Z</time>
      </trkpt>
      <trkpt lat="30.45464235385119" lon="114.42895650342001">
        <ele>0.0</ele>
        <time>2021-04-27T12:12:41Z</time>
      </trkpt>
      <trkpt lat="30.454529427490126" lon="114.42898857975224">
        <ele>0.0</ele>
        <time>2021-04-27T12:12:45Z</time>
      </trkpt>
      <trkpt lat="30.4544414821193" lon="114.42901163523402">
        <ele>0.0</ele>
        <time>2021-04-27T12:12:49Z</time>
      </trkpt>
      <trkpt lat="30.454332550535412" lon="114.42904070505516">
        <ele>0.0</ele>
        <time>2021-04-27T12:12:55Z</time>
      </trkpt>
      <trkpt lat="30.454244619485856" lon="114.42907378142968">
        <ele>0.0</ele>
        <time>2021-04-27T12:13:00Z</time>
      </trkpt>
      <trkpt lat="30.45414968162759" lon="114.42910084595097">
        <ele>0.0</ele>
        <time>2021-04-27T12:13:05Z</time>
      </trkpt>
      <trkpt lat="30.454049730719024" lon="114.42911789007836">
        <ele>0.0</ele>
        <time>2021-04-27T12:13:10Z</time>
      </trkpt>
      <trkpt lat="30.45395479146071" lon="114.42914395256838">
        <ele>0.0</ele>
        <time>2021-04-27T12:13:14Z</time>
      </trkpt>
      <trkpt lat="30.45385585751134" lon="114.4291730217026">
        <ele>0.0</ele>
        <time>2021-04-27T12:13:19Z</time>
      </trkpt>
      <trkpt lat="30.453764951740236" lon="114.4292231340813">
        <ele>0.0</ele>
        <time>2021-04-27T12:13:24Z</time>
      </trkpt>
      <trkpt lat="30.453725101056133" lon="114.42932034059099">
        <ele>0.0</ele>
        <time>2021-04-27T12:13:29Z</time>
      </trkpt>
      <trkpt lat="30.453759267117587" lon="114.42944159154284">
        <ele>0.0</ele>
        <time>2021-04-27T12:13:34Z</time>
      </trkpt>
      <trkpt lat="30.453781426617635" lon="114.42955582947918">
        <ele>0.0</ele>
        <time>2021-04-27T12:13:39Z</time>
      </trkpt>
      <trkpt lat="30.45378857874437" lon="114.42966205243506">
        <ele>0.0</ele>
        <time>2021-04-27T12:13:44Z</time>
      </trkpt>
      <trkpt lat="30.45381372980601" lon="114.42977027859273">
        <ele>0.0</ele>
        <time>2021-04-27T12:13:49Z</time>
      </trkpt>
      <trkpt lat="30.45382690188332" lon="114.42989053180462">
        <ele>0.0</ele>
        <time>2021-04-27T12:13:55Z</time>
      </trkpt>
      <trkpt lat="30.453847078706275" lon="114.4300147935991">
        <ele>0.0</ele>
        <time>2021-04-27T12:14:01Z</time>
      </trkpt>
      <trkpt lat="30.4538652478272" lon="114.43013304348669">
        <ele>0.0</ele>
        <time>2021-04-27T12:14:07Z</time>
      </trkpt>
      <trkpt lat="30.45388341605288" lon="114.43025029188888">
        <ele>0.0</ele>
        <time>2021-04-27T12:14:13Z</time>
      </trkpt>
      <trkpt lat="30.453892570765895" lon="114.43035651812514">
        <ele>0.0</ele>
        <time>2021-04-27T12:14:18Z</time>
      </trkpt>
      <trkpt lat="30.453900736607977" lon="114.43046976001973">
        <ele>0.0</ele>
        <time>2021-04-27T12:14:23Z</time>
      </trkpt>
      <trkpt lat="30.453923887333914" lon="114.43057498397546">
        <ele>0.0</ele>
        <time>2021-04-27T12:14:28Z</time>
      </trkpt>
      <trkpt lat="30.45393904498943" lon="114.43068321561876">
        <ele>0.0</ele>
        <time>2021-04-27T12:14:33Z</time>
      </trkpt>
      <trkpt lat="30.453960198644175" lon="114.43078944295843">
        <ele>0.0</ele>
        <time>2021-04-27T12:14:38Z</time>
      </trkpt>
      <trkpt lat="30.45397634798438" lon="114.43089166257963">
        <ele>0.0</ele>
        <time>2021-04-27T12:14:43Z</time>
      </trkpt>
      <trkpt lat="30.453991499514775" lon="114.4309948849471">
        <ele>0.0</ele>
        <time>2021-04-27T12:14:49Z</time>
      </trkpt>
      <trkpt lat="30.4540076815205" lon="114.43111815130676">
        <ele>0.0</ele>
        <time>2021-04-27T12:14:55Z</time>
      </trkpt>
      <trkpt lat="30.454013842323345" lon="114.43122538427785">
        <ele>0.0</ele>
        <time>2021-04-27T12:15:00Z</time>
      </trkpt>
      <trkpt lat="30.45403899432641" lon="114.43132960956625">
        <ele>0.0</ele>
        <time>2021-04-27T12:15:05Z</time>
      </trkpt>
      <trkpt lat="30.454066166144585" lon="114.43144686371464">
        <ele>0.0</ele>
        <time>2021-04-27T12:15:13Z</time>
      </trkpt>
      <trkpt lat="30.454081346101628" lon="114.43156712614069">
        <ele>0.0</ele>
        <time>2021-04-27T12:15:19Z</time>
      </trkpt>
      <trkpt lat="30.454096522041258" lon="114.43168438261729">
        <ele>0.0</ele>
        <time>2021-04-27T12:15:25Z</time>
      </trkpt>
      <trkpt lat="30.454115689843114" lon="114.4317966283259">
        <ele>0.0</ele>
        <time>2021-04-27T12:15:31Z</time>
      </trkpt>
      <trkpt lat="30.454134868995002" lon="114.43191589013112">
        <ele>0.0</ele>
        <time>2021-04-27T12:15:37Z</time>
      </trkpt>
      <trkpt lat="30.45415004972293" lon="114.4320351529386">
        <ele>0.0</ele>
        <time>2021-04-27T12:15:43Z</time>
      </trkpt>
      <trkpt lat="30.454160232274294" lon="114.43215441683432">
        <ele>0.0</ele>
        <time>2021-04-27T12:15:50Z</time>
      </trkpt>
      <trkpt lat="30.45418539763421" lon="114.43226465998791">
        <ele>0.0</ele>
        <time>2021-04-27T12:15:56Z</time>
      </trkpt>
      <trkpt lat="30.454216555739897" lon="114.43237089422925">
        <ele>0.0</ele>
        <time>2021-04-27T12:16:02Z</time>
      </trkpt>
      <trkpt lat="30.45422174117283" lon="114.43249016039839">
        <ele>0.0</ele>
        <time>2021-04-27T12:16:08Z</time>
      </trkpt>
      <trkpt lat="30.45424890597712" lon="114.4325994028299">
        <ele>0.0</ele>
        <time>2021-04-27T12:16:14Z</time>
      </trkpt>
      <trkpt lat="30.454296063150643" lon="114.43270663956902">
        <ele>0.0</ele>
        <time>2021-04-27T12:16:20Z</time>
      </trkpt>
      <trkpt lat="30.45436817024569" lon="114.43278581146357">
        <ele>0.0</ele>
        <time>2021-04-27T12:16:26Z</time>
      </trkpt>
      <trkpt lat="30.454465192116924" lon="114.43281486852104">
        <ele>0.0</ele>
        <time>2021-04-27T12:16:31Z</time>
      </trkpt>
      <trkpt lat="30.45456518790414" lon="114.43282788921367">
        <ele>0.0</ele>
        <time>2021-04-27T12:16:36Z</time>
      </trkpt>
      <trkpt lat="30.454663142975924" lon="114.43281485136357">
        <ele>0.0</ele>
        <time>2021-04-27T12:16:41Z</time>
      </trkpt>
      <trkpt lat="30.45476206771015" lon="114.43278277055188">
        <ele>0.0</ele>
        <time>2021-04-27T12:16:46Z</time>
      </trkpt>
      <trkpt lat="30.45485402111269" lon="114.43276772873658">
        <ele>0.0</ele>
        <time>2021-04-27T12:16:50Z</time>
      </trkpt>
      <trkpt lat="30.454936927734394" lon="114.43272161782328">
        <ele>0.0</ele>
        <time>2021-04-27T12:16:55Z</time>
      </trkpt>
      <trkpt lat="30.455038888152888" lon="114.43271258870237">
        <ele>0.0</ele>
        <time>2021-04-27T12:17:00Z</time>
      </trkpt>
      <trkpt lat="30.45512985446054" lon="114.43270556504429">
        <ele>0.0</ele>
        <time>2021-04-27T12:17:05Z</time>
      </trkpt>
      <trkpt lat="30.45522578003896" lon="114.43267348465216">
        <ele>0.0</ele>
        <time>2021-04-27T12:17:11Z</time>
      </trkpt>
      <trkpt lat="30.455327710466385" lon="114.43264541278766">
        <ele>0.0</ele>
        <time>2021-04-27T12:17:17Z</time>
      </trkpt>
      <trkpt lat="30.45543863079319" lon="114.43261232893482">
        <ele>0.0</ele>
        <time>2021-04-27T12:17:24Z</time>
      </trkpt>
      <trkpt lat="30.455531554062535" lon="114.43257824444463">
        <ele>0.0</ele>
        <time>2021-04-27T12:17:31Z</time>
      </trkpt>
      <trkpt lat="30.45562752541652" lon="114.4325752293837">
        <ele>0.0</ele>
        <time>2021-04-27T12:17:36Z</time>
      </trkpt>
      <trkpt lat="30.45571746520248" lon="114.43255116766821">
        <ele>0.0</ele>
        <time>2021-04-27T12:17:41Z</time>
      </trkpt>
      <trkpt lat="30.455806400535817" lon="114.43252409933149">
        <ele>0.0</ele>
        <time>2021-04-27T12:17:46Z</time>
      </trkpt>
      <trkpt lat="30.45589835871858" lon="114.43251206442524">
        <ele>0.0</ele>
        <time>2021-04-27T12:17:53Z</time>
      </trkpt>
      <trkpt lat="30.45599131036354" lon="114.43249602046488">
        <ele>0.0</ele>
        <time>2021-04-27T12:17:58Z</time>
      </trkpt>
      <trkpt lat="30.45609425637228" lon="114.43247797116426">
        <ele>0.0</ele>
        <time>2021-04-27T12:18:04Z</time>
      </trkpt>
      <trkpt lat="30.456194182728247" lon="114.4324468929995">
        <ele>0.0</ele>
        <time>2021-04-27T12:18:10Z</time>
      </trkpt>
      <trkpt lat="30.45629513238977" lon="114.43243084839335">
        <ele>0.0</ele>
        <time>2021-04-27T12:18:16Z</time>
      </trkpt>
      <trkpt lat="30.456387031012326" lon="114.43238072845612">
        <ele>0.0</ele>
        <time>2021-04-27T12:18:23Z</time>
      </trkpt>
      <trkpt lat="30.456488980448032" lon="114.43236468381171">
        <ele>0.0</ele>
        <time>2021-04-27T12:18:29Z</time>
      </trkpt>
      <trkpt lat="30.456578946975682" lon="114.43235766035079">
        <ele>0.0</ele>
        <time>2021-04-27T12:18:37Z</time>
      </trkpt>
      <trkpt lat="30.456681913374762" lon="114.43235264023892">
        <ele>0.0</ele>
        <time>2021-04-27T12:18:45Z</time>
      </trkpt>
      <trkpt lat="30.456785835702505" lon="114.4323195574345">
        <ele>0.0</ele>
        <time>2021-04-27T12:18:51Z</time>
      </trkpt>
      <trkpt lat="30.456884754628735" lon="114.43228346841231">
        <ele>0.0</ele>
        <time>2021-04-27T12:19:00Z</time>
      </trkpt>
      <trkpt lat="30.456984704579472" lon="114.43226742401227">
        <ele>0.0</ele>
        <time>2021-04-27T12:19:05Z</time>
      </trkpt>
      <trkpt lat="30.457083645414396" lon="114.43224536631834">
        <ele>0.0</ele>
        <time>2021-04-27T12:19:10Z</time>
      </trkpt>
      <trkpt lat="30.457187577205456" lon="114.43221829705934">
        <ele>0.0</ele>
        <time>2021-04-27T12:19:15Z</time>
      </trkpt>
      <trkpt lat="30.457272484171753" lon="114.43217218713005">
        <ele>0.0</ele>
        <time>2021-04-27T12:19:20Z</time>
      </trkpt>
      <trkpt lat="30.45734735328125" lon="114.4321000202938">
        <ele>0.0</ele>
        <time>2021-04-27T12:19:25Z</time>
      </trkpt>
      <trkpt lat="30.457360165255558" lon="114.43198075469338">
        <ele>0.0</ele>
        <time>2021-04-27T12:19:31Z</time>
      </trkpt>
      <trkpt lat="30.457338009781054" lon="114.4318765260003">
        <ele>0.0</ele>
        <time>2021-04-27T12:19:36Z</time>
      </trkpt>
      <trkpt lat="30.457314821099427" lon="114.4317502492842">
        <ele>0.0</ele>
        <time>2021-04-27T12:19:42Z</time>
      </trkpt>
      <trkpt lat="30.457307647488552" lon="114.43163599835908">
        <ele>0.0</ele>
        <time>2021-04-27T12:19:48Z</time>
      </trkpt>
      <trkpt lat="30.457293476172122" lon="114.4315217486438">
        <ele>0.0</ele>
        <time>2021-04-27T12:19:54Z</time>
      </trkpt>
      <trkpt lat="30.457259310411384" lon="114.431407501266">
        <ele>0.0</ele>
        <time>2021-04-27T12:20:00Z</time>
      </trkpt>
      <trkpt lat="30.45723713457072" lon="114.43128824251325">
        <ele>0.0</ele>
        <time>2021-04-27T12:20:06Z</time>
      </trkpt>
      <trkpt lat="30.457213976253783" lon="114.43118000851224">
        <ele>0.0</ele>
        <time>2021-04-27T12:20:11Z</time>
      </trkpt>
      <trkpt lat="30.457189820184585" lon="114.43107277731885">
        <ele>0.0</ele>
        <time>2021-04-27T12:20:17Z</time>
      </trkpt>
      <trkpt lat="30.45716464674695" lon="114.43095352067743">
        <ele>0.0</ele>
        <time>2021-04-27T12:20:23Z</time>
      </trkpt>
      <trkpt lat="30.457147468887257" lon="114.4308322596702">
        <ele>0.0</ele>
        <time>2021-04-27T12:20:28Z</time>
      </trkpt>
      <trkpt lat="30.457128319102114" lon="114.43072903842192">
        <ele>0.0</ele>
        <time>2021-04-27T12:20:33Z</time>
      </trkpt>
      <trkpt lat="30.457117160283953" lon="114.43062080619238">
        <ele>0.0</ele>
        <time>2021-04-27T12:20:38Z</time>
      </trkpt>
      <trkpt lat="30.457080006981045" lon="114.43051157461149">
        <ele>0.0</ele>
        <time>2021-04-27T12:20:44Z</time>
      </trkpt>
      <trkpt lat="30.457059858821367" lon="114.43040835499193">
        <ele>0.0</ele>
        <time>2021-04-27T12:20:49Z</time>
      </trkpt>
      <trkpt lat="30.457049687873564" lon="114.43029110502137">
        <ele>0.0</ele>
        <time>2021-04-27T12:20:54Z</time>
      </trkpt>
      <trkpt lat="30.457028530582633" lon="114.43018087159761">
        <ele>0.0</ele>
        <time>2021-04-27T12:21:00Z</time>
      </trkpt>
      <trkpt lat="30.457004384846872" lon="114.43007765391908">
        <ele>0.0</ele>
        <time>2021-04-27T12:21:05Z</time>
      </trkpt>
      <trkpt lat="30.456975221742905" lon="114.42996140953426">
        <ele>0.0</ele>
        <time>2021-04-27T12:21:11Z</time>
      </trkpt>
      <trkpt lat="30.456964051770107" lon="114.42984315998068">
        <ele>0.0</ele>
        <time>2021-04-27T12:21:17Z</time>
      </trkpt>
      <trkpt lat="30.45693788759629" lon="114.42972591449791">
        <ele>0.0</ele>
        <time>2021-04-27T12:21:23Z</time>
      </trkpt>
      <trkpt lat="30.456918742568597" lon="114.42962269858552">
        <ele>0.0</ele>
        <time>2021-04-27T12:21:28Z</time>
      </trkpt>
      <trkpt lat="30.456909585348583" lon="114.42951246757242">
        <ele>0.0</ele>
        <time>2021-04-27T12:21:34Z</time>
      </trkpt>
      <trkpt lat="30.45691043190446" lon="114.42940624466087">
        <ele>0.0</ele>
        <time>2021-04-27T12:21:43Z</time>
      </trkpt>
      <trkpt lat="30.456870297835252" lon="114.42930603840445">
        <ele>0.0</ele>
        <time>2021-04-27T12:21:48Z</time>
      </trkpt>
      <trkpt lat="30.456838134933555" lon="114.429186792222">
        <ele>0.0</ele>
        <time>2021-04-27T12:21:54Z</time>
      </trkpt>
      <trkpt lat="30.456808971877056" lon="114.42906754644906">
        <ele>0.0</ele>
        <time>2021-04-27T12:22:00Z</time>
      </trkpt>
      <trkpt lat="30.456831803516057" lon="114.4289533072264">
        <ele>0.0</ele>
        <time>2021-04-27T12:22:06Z</time>
      </trkpt>
      <trkpt lat="30.456814640044673" lon="114.42883506379793">
        <ele>0.0</ele>
        <time>2021-04-27T12:22:16Z</time>
      </trkpt>
      <trkpt lat="30.456769509630153" lon="114.42873486067322">
        <ele>0.0</ele>
        <time>2021-04-27T12:22:21Z</time>
      </trkpt>
      <trkpt lat="30.45672738876019" lon="114.42864167220611">
        <ele>0.0</ele>
        <time>2021-04-27T12:22:26Z</time>
      </trkpt>
      <trkpt lat="30.45667525106606" lon="114.42853445619471">
        <ele>0.0</ele>
        <time>2021-04-27T12:22:34Z</time>
      </trkpt>
      <trkpt lat="30.45656727527696" lon="114.42853246144705">
        <ele>0.0</ele>
        <time>2021-04-27T12:22:40Z</time>
      </trkpt>
      <trkpt lat="30.45646230435095" lon="114.42853447467256">
        <ele>0.0</ele>
        <time>2021-04-27T12:22:46Z</time>
      </trkpt>
      <trkpt lat="30.456369361363954" lon="114.42855853215582">
        <ele>0.0</ele>
        <time>2021-04-27T12:22:52Z</time>
      </trkpt>
      <trkpt lat="30.45628041739334" lon="114.4285825893193">
        <ele>0.0</ele>
        <time>2021-04-27T12:22:57Z</time>
      </trkpt>
      <trkpt lat="30.456177488211935" lon="114.42861466422063">
        <ele>0.0</ele>
        <time>2021-04-27T12:23:03Z</time>
      </trkpt>
      <trkpt lat="30.456074546366366" lon="114.42863772059881">
        <ele>0.0</ele>
        <time>2021-04-27T12:23:09Z</time>
      </trkpt>
      <trkpt lat="30.455970600547804" lon="114.4286577708958">
        <ele>0.0</ele>
        <time>2021-04-27T12:23:15Z</time>
      </trkpt>
      <trkpt lat="30.455874641442747" lon="114.42866980399768">
        <ele>0.0</ele>
        <time>2021-04-27T12:23:21Z</time>
      </trkpt>
      <trkpt lat="30.45577668283348" lon="114.42868183727981">
        <ele>0.0</ele>
        <time>2021-04-27T12:23:27Z</time>
      </trkpt>
      <trkpt lat="30.455685726714915" lon="114.42869687615953">
        <ele>0.0</ele>
        <time>2021-04-27T12:23:33Z</time>
      </trkpt>
      <trkpt lat="30.455589800126795" lon="114.42873195682898">
        <ele>0.0</ele>
        <time>2021-04-27T12:23:40Z</time>
      </trkpt>
      <trkpt lat="30.455493859422976" lon="114.42875701686472">
        <ele>0.0</ele>
        <time>2021-04-27T12:23:46Z</time>
      </trkpt>
      <trkpt lat="30.455399899825085" lon="114.42876904984902">
        <ele>0.0</ele>
        <time>2021-04-27T12:23:52Z</time>
      </trkpt>
      <trkpt lat="30.455309970405448" lon="114.42880312804598">
        <ele>0.0</ele>
        <time>2021-04-27T12:23:58Z</time>
      </trkpt>
      <trkpt lat="30.45520303958104" lon="114.42883319948169">
        <ele>0.0</ele>
        <time>2021-04-27T12:24:05Z</time>
      </trkpt>
      <trkpt lat="30.45510111322066" lon="114.42886727882235">
        <ele>0.0</ele>
        <time>2021-04-27T12:24:11Z</time>
      </trkpt>
      <trkpt lat="30.454998157300622" lon="114.42888031472418">
        <ele>0.0</ele>
        <time>2021-04-27T12:24:17Z</time>
      </trkpt>
      <trkpt lat="30.454905197470726" lon="114.4288923476912">
        <ele>0.0</ele>
        <time>2021-04-27T12:24:23Z</time>
      </trkpt>
      <trkpt lat="30.454798305142518" lon="114.428949475342">
        <ele>0.0</ele>
        <time>2021-04-27T12:24:33Z</time>
      </trkpt>
      <trkpt lat="30.454700342298338" lon="114.42895850254612">
        <ele>0.0</ele>
        <time>2021-04-27T12:24:38Z</time>
      </trkpt>
      <trkpt lat="30.45459738211378" lon="114.42896853226661">
        <ele>0.0</ele>
        <time>2021-04-27T12:24:44Z</time>
      </trkpt>
      <trkpt lat="30.454504439395617" lon="114.4289925902404">
        <ele>0.0</ele>
        <time>2021-04-27T12:24:48Z</time>
      </trkpt>
      <trkpt lat="30.454412495018676" lon="114.42901564607345">
        <ele>0.0</ele>
        <time>2021-04-27T12:24:54Z</time>
      </trkpt>
      <trkpt lat="30.454320569217007" lon="114.42905172900426">
        <ele>0.0</ele>
        <time>2021-04-27T12:24:59Z</time>
      </trkpt>
      <trkpt lat="30.454219637115678" lon="114.42908180027047">
        <ele>0.0</ele>
        <time>2021-04-27T12:25:08Z</time>
      </trkpt>
      <trkpt lat="30.454128673961268" lon="114.42909182900787">
        <ele>0.0</ele>
        <time>2021-04-27T12:25:15Z</time>
      </trkpt>
      <trkpt lat="30.454032729206403" lon="114.42911388320934">
        <ele>0.0</ele>
        <time>2021-04-27T12:25:20Z</time>
      </trkpt>
      <trkpt lat="30.45393878539939" lon="114.42913693934695">
        <ele>0.0</ele>
        <time>2021-04-27T12:25:25Z</time>
      </trkpt>
      <trkpt lat="30.453855867544576" lon="114.4291800363236">
        <ele>0.0</ele>
        <time>2021-04-27T12:25:30Z</time>
      </trkpt>
      <trkpt lat="30.453783009042926" lon="114.4292662224731">
        <ele>0.0</ele>
        <time>2021-04-27T12:25:36Z</time>
      </trkpt>
      <trkpt lat="30.45377918711406" lon="114.4293894806094">
        <ele>0.0</ele>
        <time>2021-04-27T12:25:42Z</time>
      </trkpt>
      <trkpt lat="30.453781349865565" lon="114.4295027178964">
        <ele>0.0</ele>
        <time>2021-04-27T12:25:48Z</time>
      </trkpt>
      <trkpt lat="30.453797496626187" lon="114.42960693558886">
        <ele>0.0</ele>
        <time>2021-04-27T12:25:54Z</time>
      </trkpt>
      <trkpt lat="30.453814665435566" lon="114.42972618541816">
        <ele>0.0</ele>
        <time>2021-04-27T12:26:01Z</time>
      </trkpt>
      <trkpt lat="30.453834829713337" lon="114.4298424292939">
        <ele>0.0</ele>
        <time>2021-04-27T12:26:08Z</time>
      </trkpt>
      <trkpt lat="30.45385599724066" lon="114.4299606779673">
        <ele>0.0</ele>
        <time>2021-04-27T12:26:15Z</time>
      </trkpt>
      <trkpt lat="30.453877159467297" lon="114.43007491877115">
        <ele>0.0</ele>
        <time>2021-04-27T12:26:22Z</time>
      </trkpt>
      <trkpt lat="30.45388732643691" lon="114.43019016327568">
        <ele>0.0</ele>
        <time>2021-04-27T12:26:29Z</time>
      </trkpt>
      <trkpt lat="30.45390648284934" lon="114.43029939477081">
        <ele>0.0</ele>
        <time>2021-04-27T12:26:36Z</time>
      </trkpt>
      <trkpt lat="30.453920646936613" lon="114.4304126358434">
        <ele>0.0</ele>
        <time>2021-04-27T12:26:43Z</time>
      </trkpt>
      <trkpt lat="30.45393281503257" lon="114.43052788199189">
        <ele>0.0</ele>
        <time>2021-04-27T12:26:50Z</time>
      </trkpt>
      <trkpt lat="30.45395098966966" lon="114.43064813902758">
        <ele>0.0</ele>
        <time>2021-04-27T12:26:57Z</time>
      </trkpt>
      <trkpt lat="30.453979139936774" lon="114.4307533634243">
        <ele>0.0</ele>
        <time>2021-04-27T12:27:03Z</time>
      </trkpt>
      <trkpt lat="30.453991294625038" lon="114.43085858972336">
        <ele>0.0</ele>
        <time>2021-04-27T12:27:09Z</time>
      </trkpt>
      <trkpt lat="30.454006450537822" lon="114.43096481844965">
        <ele>0.0</ele>
        <time>2021-04-27T12:27:15Z</time>
      </trkpt>
      <trkpt lat="30.454024606175295" lon="114.43107104744007">
        <ele>0.0</ele>
        <time>2021-04-27T12:27:21Z</time>
      </trkpt>
      <trkpt lat="30.45404078098162" lon="114.43118930332">
        <ele>0.0</ele>
        <time>2021-04-27T12:27:28Z</time>
      </trkpt>
      <trkpt lat="30.454057957641172" lon="114.43130856195017">
        <ele>0.0</ele>
        <time>2021-04-27T12:27:35Z</time>
      </trkpt>
      <trkpt lat="30.454074113757716" lon="114.43141379061373">
        <ele>0.0</ele>
        <time>2021-04-27T12:27:41Z</time>
      </trkpt>
      <trkpt lat="30.454090290239332" lon="114.43153204837132">
        <ele>0.0</ele>
        <time>2021-04-27T12:27:48Z</time>
      </trkpt>
      <trkpt lat="30.45410346650463" lon="114.43164930483125">
        <ele>0.0</ele>
        <time>2021-04-27T12:27:55Z</time>
      </trkpt>
      <trkpt lat="30.45412663315307" lon="114.43176155001142">
        <ele>0.0</ele>
        <time>2021-04-27T12:28:02Z</time>
      </trkpt>
      <trkpt lat="30.45414581367858" lon="114.4318818138388">
        <ele>0.0</ele>
        <time>2021-04-27T12:28:09Z</time>
      </trkpt>
      <trkpt lat="30.454164974638893" lon="114.43198904946888">
        <ele>0.0</ele>
        <time>2021-04-27T12:28:15Z</time>
      </trkpt>
      <trkpt lat="30.454176141164172" lon="114.43209829077202">
        <ele>0.0</ele>
        <time>2021-04-27T12:28:21Z</time>
      </trkpt>
      <trkpt lat="30.454194301766567" lon="114.4322045253276">
        <ele>0.0</ele>
        <time>2021-04-27T12:28:27Z</time>
      </trkpt>
      <trkpt lat="30.45420647213824" lon="114.43231577209689">
        <ele>0.0</ele>
        <time>2021-04-27T12:28:34Z</time>
      </trkpt>
      <trkpt lat="30.454228643675957" lon="114.43242902304847">
        <ele>0.0</ele>
        <time>2021-04-27T12:28:41Z</time>
      </trkpt>
      <trkpt lat="30.45424882724831" lon="114.43254929048156">
        <ele>0.0</ele>
        <time>2021-04-27T12:28:48Z</time>
      </trkpt>
      <trkpt lat="30.45428698012182" lon="114.4326525187518">
        <ele>0.0</ele>
        <time>2021-04-27T12:28:54Z</time>
      </trkpt>
      <trkpt lat="30.45435009876108" lon="114.432737704756">
        <ele>0.0</ele>
        <time>2021-04-27T12:29:00Z</time>
      </trkpt>
      <trkpt lat="30.454444151395315" lon="114.43278580487788">
        <ele>0.0</ele>
        <time>2021-04-27T12:29:06Z</time>
      </trkpt>
      <trkpt lat="30.454534160738188" lon="114.43280584222173">
        <ele>0.0</ele>
        <time>2021-04-27T12:29:12Z</time>
      </trkpt>
      <trkpt lat="30.454626118897753" lon="114.43279380716167">
        <ele>0.0</ele>
        <time>2021-04-27T12:29:18Z</time>
      </trkpt>
      <trkpt lat="30.45472410406689" lon="114.43279981221264">
        <ele>0.0</ele>
        <time>2021-04-27T12:29:24Z</time>
      </trkpt>
      <trkpt lat="30.454821041973084" lon="114.43277574964452">
        <ele>0.0</ele>
        <time>2021-04-27T12:29:30Z</time>
      </trkpt>
      <trkpt lat="30.454916983305964" lon="114.43275369169973">
        <ele>0.0</ele>
        <time>2021-04-27T12:29:36Z</time>
      </trkpt>
      <trkpt lat="30.455016917331342" lon="114.432727624414">
        <ele>0.0</ele>
        <time>2021-04-27T12:29:42Z</time>
      </trkpt>
      <trkpt lat="30.45511286184904" lon="114.4327075710236">
        <ele>0.0</ele>
        <time>2021-04-27T12:29:48Z</time>
      </trkpt>
      <trkpt lat="30.455205805541365" lon="114.43268651565928">
        <ele>0.0</ele>
        <time>2021-04-27T12:29:54Z</time>
      </trkpt>
      <trkpt lat="30.455299760043573" lon="114.43267247598786">
        <ele>0.0</ele>
        <time>2021-04-27T12:30:00Z</time>
      </trkpt>
      <trkpt lat="30.45539469063035" lon="114.432643402481">
        <ele>0.0</ele>
        <time>2021-04-27T12:30:06Z</time>
      </trkpt>
      <trkpt lat="30.455486633024623" lon="114.43262134501563">
        <ele>0.0</ele>
        <time>2021-04-27T12:30:12Z</time>
      </trkpt>
      <trkpt lat="30.45558156365468" lon="114.43259227157655">
        <ele>0.0</ele>
        <time>2021-04-27T12:30:18Z</time>
      </trkpt>
      <trkpt lat="30.45567150500229" lon="114.4325692120891">
        <ele>0.0</ele>
        <time>2021-04-27T12:30:24Z</time>
      </trkpt>
      <trkpt lat="30.455769438075343" lon="114.4325421429501">
        <ele>0.0</ele>
        <time>2021-04-27T12:30:30Z</time>
      </trkpt>
      <trkpt lat="30.45586439550418" lon="114.43253010777397">
        <ele>0.0</ele>
        <time>2021-04-27T12:30:36Z</time>
      </trkpt>
      <trkpt lat="30.45595232795427" lon="114.43250103506249">
        <ele>0.0</ele>
        <time>2021-04-27T12:30:42Z</time>
      </trkpt>
      <trkpt lat="30.456042274067133" lon="114.43248098239889">
        <ele>0.0</ele>
        <time>2021-04-27T12:30:48Z</time>
      </trkpt>
      <trkpt lat="30.456132221758416" lon="114.43246193199545">
        <ele>0.0</ele>
        <time>2021-04-27T12:30:54Z</time>
      </trkpt>
      <trkpt lat="30.456235156794452" lon="114.43243686703681">
        <ele>0.0</ele>
        <time>2021-04-27T12:31:01Z</time>
      </trkpt>
      <trkpt lat="30.456327083620618" lon="114.43240478738447">
        <ele>0.0</ele>
        <time>2021-04-27T12:31:08Z</time>
      </trkpt>
      <trkpt lat="30.456418013863306" lon="114.43237471234146">
        <ele>0.0</ele>
        <time>2021-04-27T12:31:14Z</time>
      </trkpt>
      <trkpt lat="30.456518974511066" lon="114.43236568344904">
        <ele>0.0</ele>
        <time>2021-04-27T12:31:20Z</time>
      </trkpt>
      <trkpt lat="30.456614916053258" lon="114.43234362591623">
        <ele>0.0</ele>
        <time>2021-04-27T12:31:27Z</time>
      </trkpt>
      <trkpt lat="30.45671586104757" lon="114.4323245746787">
        <ele>0.0</ele>
        <time>2021-04-27T12:31:34Z</time>
      </trkpt>
      <trkpt lat="30.45681979904163" lon="114.43230151425938">
        <ele>0.0</ele>
        <time>2021-04-27T12:31:41Z</time>
      </trkpt>
      <trkpt lat="30.45691375048993" lon="114.43228547036618">
        <ele>0.0</ele>
        <time>2021-04-27T12:31:47Z</time>
      </trkpt>
      <trkpt lat="30.457004683950096" lon="114.43225739995187">
        <ele>0.0</ele>
        <time>2021-04-27T12:31:53Z</time>
      </trkpt>
      <trkpt lat="30.457107614426157" lon="114.43222932853348">
        <ele>0.0</ele>
        <time>2021-04-27T12:31:59Z</time>
      </trkpt>
      <trkpt lat="30.457207545676468" lon="114.43220125741118">
        <ele>0.0</ele>
        <time>2021-04-27T12:32:05Z</time>
      </trkpt>
      <trkpt lat="30.457298451168068" lon="114.43215514699789">
        <ele>0.0</ele>
        <time>2021-04-27T12:32:11Z</time>
      </trkpt>
      <trkpt lat="30.457355290656622" lon="114.43206093285204">
        <ele>0.0</ele>
        <time>2021-04-27T12:32:17Z</time>
      </trkpt>
      <trkpt lat="30.457351102442985" lon="114.4319386622863">
        <ele>0.0</ele>
        <time>2021-04-27T12:32:23Z</time>
      </trkpt>
      <trkpt lat="30.457333916562998" lon="114.43181539132422">
        <ele>0.0</ele>
        <time>2021-04-27T12:32:29Z</time>
      </trkpt>
      <trkpt lat="30.45731474411777" lon="114.43170013888898">
        <ele>0.0</ele>
        <time>2021-04-27T12:32:35Z</time>
      </trkpt>
      <trkpt lat="30.457301576850092" lon="114.43158889535297">
        <ele>0.0</ele>
        <time>2021-04-27T12:32:41Z</time>
      </trkpt>
      <trkpt lat="30.457286404477276" lon="114.43147364377688">
        <ele>0.0</ele>
        <time>2021-04-27T12:32:47Z</time>
      </trkpt>
      <trkpt lat="30.45726124125944" lon="114.43136240244625">
        <ele>0.0</ele>
        <time>2021-04-27T12:32:53Z</time>
      </trkpt>
      <trkpt lat="30.45723908236023" lon="114.43125416798657">
        <ele>0.0</ele>
        <time>2021-04-27T12:32:59Z</time>
      </trkpt>
      <trkpt lat="30.45722292698746" lon="114.43114894009297">
        <ele>0.0</ele>
        <time>2021-04-27T12:33:05Z</time>
      </trkpt>
      <trkpt lat="30.457196771558007" lon="114.43104170922751">
        <ele>0.0</ele>
        <time>2021-04-27T12:33:11Z</time>
      </trkpt>
      <trkpt lat="30.45717162087439" lon="114.43093748532306">
        <ele>0.0</ele>
        <time>2021-04-27T12:33:17Z</time>
      </trkpt>
      <trkpt lat="30.457162448599817" lon="114.43082123454158">
        <ele>0.0</ele>
        <time>2021-04-27T12:33:23Z</time>
      </trkpt>
      <trkpt lat="30.457132289638565" lon="114.43070999701256">
        <ele>0.0</ele>
        <time>2021-04-27T12:33:29Z</time>
      </trkpt>
      <trkpt lat="30.457117124444302" lon="114.43059675444795">
        <ele>0.0</ele>
        <time>2021-04-27T12:33:35Z</time>
      </trkpt>
      <trkpt lat="30.457091960801787" lon="114.43048251119777">
        <ele>0.0</ele>
        <time>2021-04-27T12:33:41Z</time>
      </trkpt>
      <trkpt lat="30.45707178458354" lon="114.43036025096593">
        <ele>0.0</ele>
        <time>2021-04-27T12:33:47Z</time>
      </trkpt>
      <trkpt lat="30.457041612971732" lon="114.43023899443772">
        <ele>0.0</ele>
        <time>2021-04-27T12:33:53Z</time>
      </trkpt>
      <trkpt lat="30.457025445828183" lon="114.43012274804825">
        <ele>0.0</ele>
        <time>2021-04-27T12:33:59Z</time>
      </trkpt>
      <trkpt lat="30.45699928909555" lon="114.43001151379768">
        <ele>0.0</ele>
        <time>2021-04-27T12:34:05Z</time>
      </trkpt>
      <trkpt lat="30.45698313622853" lon="114.4299042877508">
        <ele>0.0</ele>
        <time>2021-04-27T12:34:11Z</time>
      </trkpt>
      <trkpt lat="30.456954985389025" lon="114.42979606116522">
        <ele>0.0</ele>
        <time>2021-04-27T12:34:17Z</time>
      </trkpt>
      <trkpt lat="30.456926835038693" lon="114.42968783512879">
        <ele>0.0</ele>
        <time>2021-04-27T12:34:23Z</time>
      </trkpt>
      <trkpt lat="30.456919685718862" lon="114.4295836162521">
        <ele>0.0</ele>
        <time>2021-04-27T12:34:29Z</time>
      </trkpt>
      <trkpt lat="30.456895538220365" lon="114.42947739515381">
        <ele>0.0</ele>
        <time>2021-04-27T12:34:35Z</time>
      </trkpt>
      <trkpt lat="30.45689737747495" lon="114.42936616184141">
        <ele>0.0</ele>
        <time>2021-04-27T12:34:41Z</time>
      </trkpt>
      <trkpt lat="30.45684424682954" lon="114.42926595690155">
        <ele>0.0</ele>
        <time>2021-04-27T12:34:47Z</time>
      </trkpt>
      <trkpt lat="30.456829084167172" lon="114.42914971573197">
        <ele>0.0</ele>
        <time>2021-04-27T12:34:53Z</time>
      </trkpt>
      <trkpt lat="30.456808939027287" lon="114.4290444985378">
        <ele>0.0</ele>
        <time>2021-04-27T12:34:58Z</time>
      </trkpt>
      <trkpt lat="30.456809769171898" lon="114.42892525096244">
        <ele>0.0</ele>
        <time>2021-04-27T12:35:04Z</time>
      </trkpt>
      <trkpt lat="30.456795613595922" lon="114.42881301985919">
        <ele>0.0</ele>
        <time>2021-04-27T12:35:10Z</time>
      </trkpt>
      <trkpt lat="30.456776455562576" lon="114.42869778358573">
        <ele>0.0</ele>
        <time>2021-04-27T12:35:16Z</time>
      </trkpt>
      <trkpt lat="30.45675731076481" lon="114.42859156648807">
        <ele>0.0</ele>
        <time>2021-04-27T12:35:22Z</time>
      </trkpt>
      <trkpt lat="30.456673231883492" lon="114.42852042755506">
        <ele>0.0</ele>
        <time>2021-04-27T12:35:28Z</time>
      </trkpt>
      <trkpt lat="30.456568238481267" lon="114.42850640786007">
        <ele>0.0</ele>
        <time>2021-04-27T12:35:34Z</time>
      </trkpt>
      <trkpt lat="30.456468305663126" lon="114.42853647826898">
        <ele>0.0</ele>
        <time>2021-04-27T12:35:40Z</time>
      </trkpt>
      <trkpt lat="30.456375355642574" lon="114.42855552545687">
        <ele>0.0</ele>
        <time>2021-04-27T12:35:46Z</time>
      </trkpt>
      <trkpt lat="30.456273410693633" lon="114.42857657756328">
        <ele>0.0</ele>
        <time>2021-04-27T12:35:52Z</time>
      </trkpt>
      <trkpt lat="30.45616748507151" lon="114.42861065683967">
        <ele>0.0</ele>
        <time>2021-04-27T12:35:58Z</time>
      </trkpt>
      <trkpt lat="30.456074535082948" lon="114.42862970409398">
        <ele>0.0</ele>
        <time>2021-04-27T12:36:03Z</time>
      </trkpt>
      <trkpt lat="30.455972590169587" lon="114.42865075627377">
        <ele>0.0</ele>
        <time>2021-04-27T12:36:09Z</time>
      </trkpt>
      <trkpt lat="30.455873654401515" lon="114.42867882266964">
        <ele>0.0</ele>
        <time>2021-04-27T12:36:15Z</time>
      </trkpt>
      <trkpt lat="30.45577770942848" lon="114.4287008764438">
        <ele>0.0</ele>
        <time>2021-04-27T12:36:21Z</time>
      </trkpt>
      <trkpt lat="30.45568076895893" lon="114.42872593652972">
        <ele>0.0</ele>
        <time>2021-04-27T12:36:27Z</time>
      </trkpt>
      <trkpt lat="30.45558082642346" lon="114.42874899276819">
        <ele>0.0</ele>
        <time>2021-04-27T12:36:33Z</time>
      </trkpt>
      <trkpt lat="30.45548289190073" lon="114.42877806127684">
        <ele>0.0</ele>
        <time>2021-04-27T12:36:39Z</time>
      </trkpt>
      <trkpt lat="30.45538493614262" lon="114.4287920987611">
        <ele>0.0</ele>
        <time>2021-04-27T12:36:45Z</time>
      </trkpt>
      <trkpt lat="30.455286986054517" lon="114.42881014453991">
        <ele>0.0</ele>
        <time>2021-04-27T12:36:51Z</time>
      </trkpt>
      <trkpt lat="30.455191032635863" lon="114.42882618601604">
        <ele>0.0</ele>
        <time>2021-04-27T12:36:57Z</time>
      </trkpt>
      <trkpt lat="30.455191032635863" lon="114.42882618601604">
        <ele>0.0</ele>
        <time>2021-04-27T12:37:00Z</time>
      </trkpt>
    </trkseg>
  </trk>
</gpx>