<?xml version="1.0" encoding="UTF-8"?>
<gpx xmlns="http://www.topografix.com/GPX/1/1" xmlns:gpxtpx="http://www.garmin.com/xmlschemas/TrackPointExtension/v1" xmlns:xsi="http://www.w3.org/2001/XMLSchema-instance" xsi:schemaLocation="http://www.topografix.com/GPX/1/1 http://www.topografix.com/GPX/1/1/gpx.xsd" version="1.1" creator="gpx.py -- https://github.com/tkrajina/gpxpy">
  <trk>
    <name>gpx from keep</name>
    <type>Run</type>
    <trkseg>
      <trkpt lat="30.457132662063678" lon="114.4281947213881">
        <ele>0.0</ele>
        <time>2021-05-21T23:05:20Z</time>
      </trkpt>
      <trkpt lat="30.457021734448467" lon="114.42822679639633">
        <ele>0.0</ele>
        <time>2021-05-21T23:05:23Z</time>
      </trkpt>
      <trkpt lat="30.456920795992893" lon="114.42825285831434">
        <ele>0.0</ele>
        <time>2021-05-21T23:05:29Z</time>
      </trkpt>
      <trkpt lat="30.456898949539582" lon="114.42835907726659">
        <ele>0.0</ele>
        <time>2021-05-21T23:05:34Z</time>
      </trkpt>
      <trkpt lat="30.456999978821052" lon="114.42839814849454">
        <ele>0.0</ele>
        <time>2021-05-21T23:05:38Z</time>
      </trkpt>
      <trkpt lat="30.4570989582095" lon="114.42840114606192">
        <ele>0.0</ele>
        <time>2021-05-21T23:05:43Z</time>
      </trkpt>
      <trkpt lat="30.457193899388237" lon="114.4283760865324">
        <ele>0.0</ele>
        <time>2021-05-21T23:05:49Z</time>
      </trkpt>
      <trkpt lat="30.45728586091998" lon="114.42836505599364">
        <ele>0.0</ele>
        <time>2021-05-21T23:05:53Z</time>
      </trkpt>
      <trkpt lat="30.45738482908412" lon="114.42836003715335">
        <ele>0.0</ele>
        <time>2021-05-21T23:05:58Z</time>
      </trkpt>
      <trkpt lat="30.4574857953389" lon="114.4283540160908">
        <ele>0.0</ele>
        <time>2021-05-21T23:06:03Z</time>
      </trkpt>
      <trkpt lat="30.457590782959414" lon="114.42836402748243">
        <ele>0.0</ele>
        <time>2021-05-21T23:06:07Z</time>
      </trkpt>
      <trkpt lat="30.457696757728712" lon="114.4283650203365">
        <ele>0.0</ele>
        <time>2021-05-21T23:06:12Z</time>
      </trkpt>
      <trkpt lat="30.45779774353866" lon="114.42837302797874">
        <ele>0.0</ele>
        <time>2021-05-21T23:06:17Z</time>
      </trkpt>
      <trkpt lat="30.457902743735097" lon="114.42839205784269">
        <ele>0.0</ele>
        <time>2021-05-21T23:06:22Z</time>
      </trkpt>
      <trkpt lat="30.45799175076329" lon="114.42841309321727">
        <ele>0.0</ele>
        <time>2021-05-21T23:06:28Z</time>
      </trkpt>
      <trkpt lat="30.45808874457452" lon="114.42842611149078">
        <ele>0.0</ele>
        <time>2021-05-21T23:06:35Z</time>
      </trkpt>
      <trkpt lat="30.45817774881166" lon="114.42844514279086">
        <ele>0.0</ele>
        <time>2021-05-21T23:06:41Z</time>
      </trkpt>
      <trkpt lat="30.458276760361738" lon="114.42847118762758">
        <ele>0.0</ele>
        <time>2021-05-21T23:06:48Z</time>
      </trkpt>
      <trkpt lat="30.45837377805368" lon="114.42850124089713">
        <ele>0.0</ele>
        <time>2021-05-21T23:06:54Z</time>
      </trkpt>
      <trkpt lat="30.45846979883881" lon="114.42853329841303">
        <ele>0.0</ele>
        <time>2021-05-21T23:07:00Z</time>
      </trkpt>
      <trkpt lat="30.45856783745562" lon="114.42857838258719">
        <ele>0.0</ele>
        <time>2021-05-21T23:07:06Z</time>
      </trkpt>
      <trkpt lat="30.45866188561843" lon="114.42862947958162">
        <ele>0.0</ele>
        <time>2021-05-21T23:07:12Z</time>
      </trkpt>
      <trkpt lat="30.45874992268655" lon="114.42867155863364">
        <ele>0.0</ele>
        <time>2021-05-21T23:07:18Z</time>
      </trkpt>
      <trkpt lat="30.45884598042885" lon="114.42872967015283">
        <ele>0.0</ele>
        <time>2021-05-21T23:07:24Z</time>
      </trkpt>
      <trkpt lat="30.45893503298775" lon="114.42878277208732">
        <ele>0.0</ele>
        <time>2021-05-21T23:07:30Z</time>
      </trkpt>
      <trkpt lat="30.459018088592146" lon="114.42883687674846">
        <ele>0.0</ele>
        <time>2021-05-21T23:07:41Z</time>
      </trkpt>
      <trkpt lat="30.459106108950742" lon="114.42886693131938">
        <ele>0.0</ele>
        <time>2021-05-21T23:07:47Z</time>
      </trkpt>
      <trkpt lat="30.459194117968686" lon="114.42888896932942">
        <ele>0.0</ele>
        <time>2021-05-21T23:07:53Z</time>
      </trkpt>
      <trkpt lat="30.459292063357896" lon="114.42886791725759">
        <ele>0.0</ele>
        <time>2021-05-21T23:08:00Z</time>
      </trkpt>
      <trkpt lat="30.459376965226102" lon="114.42881379794211">
        <ele>0.0</ele>
        <time>2021-05-21T23:08:06Z</time>
      </trkpt>
      <trkpt lat="30.459441832646075" lon="114.42873162258215">
        <ele>0.0</ele>
        <time>2021-05-21T23:08:13Z</time>
      </trkpt>
      <trkpt lat="30.459506689058994" lon="114.42864143103098">
        <ele>0.0</ele>
        <time>2021-05-21T23:08:20Z</time>
      </trkpt>
      <trkpt lat="30.45956956601847" lon="114.42856526887218">
        <ele>0.0</ele>
        <time>2021-05-21T23:08:26Z</time>
      </trkpt>
      <trkpt lat="30.459633424712962" lon="114.42847608017236">
        <ele>0.0</ele>
        <time>2021-05-21T23:08:33Z</time>
      </trkpt>
      <trkpt lat="30.459702304878338" lon="114.4284029242448">
        <ele>0.0</ele>
        <time>2021-05-21T23:08:39Z</time>
      </trkpt>
      <trkpt lat="30.459773180565858" lon="114.42832676225078">
        <ele>0.0</ele>
        <time>2021-05-21T23:08:45Z</time>
      </trkpt>
      <trkpt lat="30.459843041413013" lon="114.42823957812567">
        <ele>0.0</ele>
        <time>2021-05-21T23:08:51Z</time>
      </trkpt>
      <trkpt lat="30.459910923939375" lon="114.42816742514485">
        <ele>0.0</ele>
        <time>2021-05-21T23:08:56Z</time>
      </trkpt>
      <trkpt lat="30.45997279571552" lon="114.42808625459448">
        <ele>0.0</ele>
        <time>2021-05-21T23:09:02Z</time>
      </trkpt>
      <trkpt lat="30.46004964874349" lon="114.4279940606909">
        <ele>0.0</ele>
        <time>2021-05-21T23:09:08Z</time>
      </trkpt>
      <trkpt lat="30.46011752096487" lon="114.42791389231631">
        <ele>0.0</ele>
        <time>2021-05-21T23:09:14Z</time>
      </trkpt>
      <trkpt lat="30.460188384434367" lon="114.42782771183616">
        <ele>0.0</ele>
        <time>2021-05-21T23:09:20Z</time>
      </trkpt>
      <trkpt lat="30.460255250601648" lon="114.42774253407671">
        <ele>0.0</ele>
        <time>2021-05-21T23:09:26Z</time>
      </trkpt>
      <trkpt lat="30.460326128379894" lon="114.42766637446809">
        <ele>0.0</ele>
        <time>2021-05-21T23:09:32Z</time>
      </trkpt>
      <trkpt lat="30.460389011163308" lon="114.42759221985679">
        <ele>0.0</ele>
        <time>2021-05-21T23:09:38Z</time>
      </trkpt>
      <trkpt lat="30.46046689718235" lon="114.42752307425671">
        <ele>0.0</ele>
        <time>2021-05-21T23:09:44Z</time>
      </trkpt>
      <trkpt lat="30.460527752362328" lon="114.42742787819118">
        <ele>0.0</ele>
        <time>2021-05-21T23:09:50Z</time>
      </trkpt>
      <trkpt lat="30.460606633174443" lon="114.42735472503543">
        <ele>0.0</ele>
        <time>2021-05-21T23:09:56Z</time>
      </trkpt>
      <trkpt lat="30.46067250939539" lon="114.42727556127055">
        <ele>0.0</ele>
        <time>2021-05-21T23:10:02Z</time>
      </trkpt>
      <trkpt lat="30.460734376101932" lon="114.42718838219481">
        <ele>0.0</ele>
        <time>2021-05-21T23:10:08Z</time>
      </trkpt>
      <trkpt lat="30.460799243710603" lon="114.42710220521154">
        <ele>0.0</ele>
        <time>2021-05-21T23:10:14Z</time>
      </trkpt>
      <trkpt lat="30.460866107097715" lon="114.42701302245092">
        <ele>0.0</ele>
        <time>2021-05-21T23:10:20Z</time>
      </trkpt>
      <trkpt lat="30.460937980250527" lon="114.42693185549166">
        <ele>0.0</ele>
        <time>2021-05-21T23:10:26Z</time>
      </trkpt>
      <trkpt lat="30.461005845355892" lon="114.42684367534787">
        <ele>0.0</ele>
        <time>2021-05-21T23:10:32Z</time>
      </trkpt>
      <trkpt lat="30.46107572358708" lon="114.42676551514141">
        <ele>0.0</ele>
        <time>2021-05-21T23:10:38Z</time>
      </trkpt>
      <trkpt lat="30.461154595799247" lon="114.4266843485349">
        <ele>0.0</ele>
        <time>2021-05-21T23:10:44Z</time>
      </trkpt>
      <trkpt lat="30.461221477964557" lon="114.42660819311776">
        <ele>0.0</ele>
        <time>2021-05-21T23:10:50Z</time>
      </trkpt>
      <trkpt lat="30.46129634644731" lon="114.42652301961918">
        <ele>0.0</ele>
        <time>2021-05-21T23:10:56Z</time>
      </trkpt>
      <trkpt lat="30.461353210605026" lon="114.42643083432283">
        <ele>0.0</ele>
        <time>2021-05-21T23:11:02Z</time>
      </trkpt>
      <trkpt lat="30.461423074434208" lon="114.4263406522128">
        <ele>0.0</ele>
        <time>2021-05-21T23:11:08Z</time>
      </trkpt>
      <trkpt lat="30.461499966938284" lon="114.42627351473467">
        <ele>0.0</ele>
        <time>2021-05-21T23:11:14Z</time>
      </trkpt>
      <trkpt lat="30.46156283576248" lon="114.42618533780539">
        <ele>0.0</ele>
        <time>2021-05-21T23:11:20Z</time>
      </trkpt>
      <trkpt lat="30.461635717995552" lon="114.42610918368928">
        <ele>0.0</ele>
        <time>2021-05-21T23:11:26Z</time>
      </trkpt>
      <trkpt lat="30.461702596805257" lon="114.42602902261714">
        <ele>0.0</ele>
        <time>2021-05-21T23:11:32Z</time>
      </trkpt>
      <trkpt lat="30.46177048081502" lon="114.42595286950696">
        <ele>0.0</ele>
        <time>2021-05-21T23:11:38Z</time>
      </trkpt>
      <trkpt lat="30.461827360121436" lon="114.4258707060429">
        <ele>0.0</ele>
        <time>2021-05-21T23:11:44Z</time>
      </trkpt>
      <trkpt lat="30.46188823353671" lon="114.42578453484803">
        <ele>0.0</ele>
        <time>2021-05-21T23:11:50Z</time>
      </trkpt>
      <trkpt lat="30.46195412270109" lon="114.42571138857717">
        <ele>0.0</ele>
        <time>2021-05-21T23:11:56Z</time>
      </trkpt>
      <trkpt lat="30.462019995420583" lon="114.42562521760905">
        <ele>0.0</ele>
        <time>2021-05-21T23:12:02Z</time>
      </trkpt>
      <trkpt lat="30.46207687714764" lon="114.42554405735632">
        <ele>0.0</ele>
        <time>2021-05-21T23:12:08Z</time>
      </trkpt>
      <trkpt lat="30.462136743090056" lon="114.42545087422674">
        <ele>0.0</ele>
        <time>2021-05-21T23:12:14Z</time>
      </trkpt>
      <trkpt lat="30.462202615492078" lon="114.42536370243397">
        <ele>0.0</ele>
        <time>2021-05-21T23:12:20Z</time>
      </trkpt>
      <trkpt lat="30.462262492285742" lon="114.42527853533382">
        <ele>0.0</ele>
        <time>2021-05-21T23:12:26Z</time>
      </trkpt>
      <trkpt lat="30.462314366381523" lon="114.42518936168524">
        <ele>0.0</ele>
        <time>2021-05-21T23:12:32Z</time>
      </trkpt>
      <trkpt lat="30.462302221945414" lon="114.42507214096825">
        <ele>0.0</ele>
        <time>2021-05-21T23:12:39Z</time>
      </trkpt>
      <trkpt lat="30.462285094421457" lon="114.42496694399586">
        <ele>0.0</ele>
        <time>2021-05-21T23:12:45Z</time>
      </trkpt>
      <trkpt lat="30.462274965584065" lon="114.42486174695121">
        <ele>0.0</ele>
        <time>2021-05-21T23:12:51Z</time>
      </trkpt>
      <trkpt lat="30.462257834036876" lon="114.42475254354186">
        <ele>0.0</ele>
        <time>2021-05-21T23:12:57Z</time>
      </trkpt>
      <trkpt lat="30.462219718293994" lon="114.42465135750955">
        <ele>0.0</ele>
        <time>2021-05-21T23:13:03Z</time>
      </trkpt>
      <trkpt lat="30.46218159928549" lon="114.42454716637239">
        <ele>0.0</ele>
        <time>2021-05-21T23:13:09Z</time>
      </trkpt>
      <trkpt lat="30.46215147500685" lon="114.42443996948148">
        <ele>0.0</ele>
        <time>2021-05-21T23:13:15Z</time>
      </trkpt>
      <trkpt lat="30.46214033043007" lon="114.42431974736625">
        <ele>0.0</ele>
        <time>2021-05-21T23:13:21Z</time>
      </trkpt>
      <trkpt lat="30.46210820649559" lon="114.42421154998222">
        <ele>0.0</ele>
        <time>2021-05-21T23:13:27Z</time>
      </trkpt>
      <trkpt lat="30.462074094526372" lon="114.42411236995204">
        <ele>0.0</ele>
        <time>2021-05-21T23:13:32Z</time>
      </trkpt>
      <trkpt lat="30.462040985151514" lon="114.4240151939957">
        <ele>0.0</ele>
        <time>2021-05-21T23:13:37Z</time>
      </trkpt>
      <trkpt lat="30.462000879181986" lon="114.42391902094334">
        <ele>0.0</ele>
        <time>2021-05-21T23:13:42Z</time>
      </trkpt>
      <trkpt lat="30.461962757452106" lon="114.4238098243586">
        <ele>0.0</ele>
        <time>2021-05-21T23:13:48Z</time>
      </trkpt>
      <trkpt lat="30.461938632661948" lon="114.4237006271387">
        <ele>0.0</ele>
        <time>2021-05-21T23:13:54Z</time>
      </trkpt>
      <trkpt lat="30.461904512137476" lon="114.4235924331891">
        <ele>0.0</ele>
        <time>2021-05-21T23:14:00Z</time>
      </trkpt>
      <trkpt lat="30.461867395265458" lon="114.42348624370157">
        <ele>0.0</ele>
        <time>2021-05-21T23:14:06Z</time>
      </trkpt>
      <trkpt lat="30.461839270660715" lon="114.42337504493238">
        <ele>0.0</ele>
        <time>2021-05-21T23:14:12Z</time>
      </trkpt>
      <trkpt lat="30.461806149049522" lon="114.4232648490057">
        <ele>0.0</ele>
        <time>2021-05-21T23:14:18Z</time>
      </trkpt>
      <trkpt lat="30.461779026433945" lon="114.423154653151">
        <ele>0.0</ele>
        <time>2021-05-21T23:14:24Z</time>
      </trkpt>
      <trkpt lat="30.46174790185734" lon="114.42304145285635">
        <ele>0.0</ele>
        <time>2021-05-21T23:14:30Z</time>
      </trkpt>
      <trkpt lat="30.46171177911435" lon="114.42292825362274">
        <ele>0.0</ele>
        <time>2021-05-21T23:14:36Z</time>
      </trkpt>
      <trkpt lat="30.461689662638136" lon="114.42282306806136">
        <ele>0.0</ele>
        <time>2021-05-21T23:14:42Z</time>
      </trkpt>
      <trkpt lat="30.46165653327312" lon="114.42270385911404">
        <ele>0.0</ele>
        <time>2021-05-21T23:14:48Z</time>
      </trkpt>
      <trkpt lat="30.46163042344916" lon="114.42260268214383">
        <ele>0.0</ele>
        <time>2021-05-21T23:14:53Z</time>
      </trkpt>
      <trkpt lat="30.461610312540657" lon="114.42250150515403">
        <ele>0.0</ele>
        <time>2021-05-21T23:14:58Z</time>
      </trkpt>
      <trkpt lat="30.461588178617095" lon="114.42237929184616">
        <ele>0.0</ele>
        <time>2021-05-21T23:15:04Z</time>
      </trkpt>
      <trkpt lat="30.461568044835662" lon="114.42225707909722">
        <ele>0.0</ele>
        <time>2021-05-21T23:15:10Z</time>
      </trkpt>
      <trkpt lat="30.461550927902067" lon="114.4221498930624">
        <ele>0.0</ele>
        <time>2021-05-21T23:15:15Z</time>
      </trkpt>
      <trkpt lat="30.461528799233495" lon="114.42203068709532">
        <ele>0.0</ele>
        <time>2021-05-21T23:15:21Z</time>
      </trkpt>
      <trkpt lat="30.4615216572775" lon="114.42190246488244">
        <ele>0.0</ele>
        <time>2021-05-21T23:15:27Z</time>
      </trkpt>
      <trkpt lat="30.461512524354507" lon="114.421781255772">
        <ele>0.0</ele>
        <time>2021-05-21T23:15:33Z</time>
      </trkpt>
      <trkpt lat="30.46150439625867" lon="114.42166405420046">
        <ele>0.0</ele>
        <time>2021-05-21T23:15:39Z</time>
      </trkpt>
      <trkpt lat="30.46149726409213" lon="114.42154284633801">
        <ele>0.0</ele>
        <time>2021-05-21T23:15:45Z</time>
      </trkpt>
      <trkpt lat="30.461497130784828" lon="114.42142163859067">
        <ele>0.0</ele>
        <time>2021-05-21T23:15:51Z</time>
      </trkpt>
      <trkpt lat="30.46149599728365" lon="114.42129942994603">
        <ele>0.0</ele>
        <time>2021-05-21T23:15:57Z</time>
      </trkpt>
      <trkpt lat="30.461493869046862" lon="114.42118122893228">
        <ele>0.0</ele>
        <time>2021-05-21T23:16:03Z</time>
      </trkpt>
      <trkpt lat="30.46148374346405" lon="114.42106302930274">
        <ele>0.0</ele>
        <time>2021-05-21T23:16:09Z</time>
      </trkpt>
      <trkpt lat="30.461476620964618" lon="114.42094783517324">
        <ele>0.0</ele>
        <time>2021-05-21T23:16:15Z</time>
      </trkpt>
      <trkpt lat="30.46145950374499" lon="114.42083464593759">
        <ele>0.0</ele>
        <time>2021-05-21T23:16:21Z</time>
      </trkpt>
      <trkpt lat="30.461462378784564" lon="114.42071845055882">
        <ele>0.0</ele>
        <time>2021-05-21T23:16:27Z</time>
      </trkpt>
      <trkpt lat="30.461463252802552" lon="114.42060025267422">
        <ele>0.0</ele>
        <time>2021-05-21T23:16:33Z</time>
      </trkpt>
      <trkpt lat="30.461462133234612" lon="114.42048706399203">
        <ele>0.0</ele>
        <time>2021-05-21T23:16:39Z</time>
      </trkpt>
      <trkpt lat="30.461451006254336" lon="114.42036386019396">
        <ele>0.0</ele>
        <time>2021-05-21T23:16:45Z</time>
      </trkpt>
      <trkpt lat="30.461435885151253" lon="114.42024466411712">
        <ele>0.0</ele>
        <time>2021-05-21T23:16:51Z</time>
      </trkpt>
      <trkpt lat="30.46142876784493" lon="114.42013047629793">
        <ele>0.0</ele>
        <time>2021-05-21T23:16:57Z</time>
      </trkpt>
      <trkpt lat="30.461424643090368" lon="114.42000927735435">
        <ele>0.0</ele>
        <time>2021-05-21T23:17:03Z</time>
      </trkpt>
      <trkpt lat="30.461410528754634" lon="114.41989509147513">
        <ele>0.0</ele>
        <time>2021-05-21T23:17:09Z</time>
      </trkpt>
      <trkpt lat="30.46141540193855" lon="114.41977289153087">
        <ele>0.0</ele>
        <time>2021-05-21T23:17:15Z</time>
      </trkpt>
      <trkpt lat="30.46141629007754" lon="114.41966371381987">
        <ele>0.0</ele>
        <time>2021-05-21T23:17:21Z</time>
      </trkpt>
      <trkpt lat="30.461413176713307" lon="114.41955153218389">
        <ele>0.0</ele>
        <time>2021-05-21T23:17:27Z</time>
      </trkpt>
      <trkpt lat="30.4614100618824" lon="114.41943734794124">
        <ele>0.0</ele>
        <time>2021-05-21T23:17:33Z</time>
      </trkpt>
      <trkpt lat="30.461407938317294" lon="114.4193141497717">
        <ele>0.0</ele>
        <time>2021-05-21T23:17:39Z</time>
      </trkpt>
      <trkpt lat="30.461406816169372" lon="114.41919195387261">
        <ele>0.0</ele>
        <time>2021-05-21T23:17:45Z</time>
      </trkpt>
      <trkpt lat="30.461399696212023" lon="114.41906975923722">
        <ele>0.0</ele>
        <time>2021-05-21T23:17:51Z</time>
      </trkpt>
      <trkpt lat="30.461398581325597" lon="114.41895357437092">
        <ele>0.0</ele>
        <time>2021-05-21T23:17:57Z</time>
      </trkpt>
      <trkpt lat="30.46139646039915" lon="114.41883037916405">
        <ele>0.0</ele>
        <time>2021-05-21T23:18:03Z</time>
      </trkpt>
      <trkpt lat="30.461404356206607" lon="114.41872621385781">
        <ele>0.0</ele>
        <time>2021-05-21T23:18:08Z</time>
      </trkpt>
      <trkpt lat="30.4614022511436" lon="114.41861804366145">
        <ele>0.0</ele>
        <time>2021-05-21T23:18:14Z</time>
      </trkpt>
      <trkpt lat="30.461399143943687" lon="114.41850686942671">
        <ele>0.0</ele>
        <time>2021-05-21T23:18:20Z</time>
      </trkpt>
      <trkpt lat="30.461396026677118" lon="114.41838467860987">
        <ele>0.0</ele>
        <time>2021-05-21T23:18:27Z</time>
      </trkpt>
      <trkpt lat="30.461399920763636" lon="114.41827550817455">
        <ele>0.0</ele>
        <time>2021-05-21T23:18:33Z</time>
      </trkpt>
      <trkpt lat="30.461392817228507" lon="114.41816533773755">
        <ele>0.0</ele>
        <time>2021-05-21T23:18:39Z</time>
      </trkpt>
      <trkpt lat="30.461375714881434" lon="114.41805316568205">
        <ele>0.0</ele>
        <time>2021-05-21T23:18:45Z</time>
      </trkpt>
      <trkpt lat="30.461348609972674" lon="114.41793498587879">
        <ele>0.0</ele>
        <time>2021-05-21T23:18:52Z</time>
      </trkpt>
      <trkpt lat="30.461332507578465" lon="114.41782181349076">
        <ele>0.0</ele>
        <time>2021-05-21T23:18:58Z</time>
      </trkpt>
      <trkpt lat="30.46132940244029" lon="114.41770864061182">
        <ele>0.0</ele>
        <time>2021-05-21T23:19:04Z</time>
      </trkpt>
      <trkpt lat="30.461331291949815" lon="114.41759046031983">
        <ele>0.0</ele>
        <time>2021-05-21T23:19:10Z</time>
      </trkpt>
      <trkpt lat="30.461339187021547" lon="114.41747929082793">
        <ele>0.0</ele>
        <time>2021-05-21T23:19:16Z</time>
      </trkpt>
      <trkpt lat="30.461344078810914" lon="114.41736311465344">
        <ele>0.0</ele>
        <time>2021-05-21T23:19:22Z</time>
      </trkpt>
      <trkpt lat="30.461342971816315" lon="114.41724593816919">
        <ele>0.0</ele>
        <time>2021-05-21T23:19:28Z</time>
      </trkpt>
      <trkpt lat="30.46133586332746" lon="114.41712475689236">
        <ele>0.0</ele>
        <time>2021-05-21T23:19:34Z</time>
      </trkpt>
      <trkpt lat="30.46132876995023" lon="114.41701960026188">
        <ele>0.0</ele>
        <time>2021-05-21T23:19:40Z</time>
      </trkpt>
      <trkpt lat="30.461338669136314" lon="114.41691043674834">
        <ele>0.0</ele>
        <time>2021-05-21T23:19:46Z</time>
      </trkpt>
      <trkpt lat="30.461342570382726" lon="114.41680127435305">
        <ele>0.0</ele>
        <time>2021-05-21T23:19:52Z</time>
      </trkpt>
      <trkpt lat="30.461341474324158" lon="114.41669311446773">
        <ele>0.0</ele>
        <time>2021-05-21T23:19:58Z</time>
      </trkpt>
      <trkpt lat="30.461334383855082" lon="114.41658896158295">
        <ele>0.0</ele>
        <time>2021-05-21T23:20:04Z</time>
      </trkpt>
      <trkpt lat="30.461329290720144" lon="114.41648180466375">
        <ele>0.0</ele>
        <time>2021-05-21T23:20:09Z</time>
      </trkpt>
      <trkpt lat="30.461315189018116" lon="114.4163616300941">
        <ele>0.0</ele>
        <time>2021-05-21T23:20:15Z</time>
      </trkpt>
      <trkpt lat="30.461313087510188" lon="114.41624445957254">
        <ele>0.0</ele>
        <time>2021-05-21T23:20:21Z</time>
      </trkpt>
      <trkpt lat="30.46130399704222" lon="114.41613730485183">
        <ele>0.0</ele>
        <time>2021-05-21T23:20:26Z</time>
      </trkpt>
      <trkpt lat="30.461303895338993" lon="114.41601913402981">
        <ele>0.0</ele>
        <time>2021-05-21T23:20:32Z</time>
      </trkpt>
      <trkpt lat="30.461297799204786" lon="114.41590497018562">
        <ele>0.0</ele>
        <time>2021-05-21T23:20:39Z</time>
      </trkpt>
      <trkpt lat="30.46127370654166" lon="114.41578880569489">
        <ele>0.0</ele>
        <time>2021-05-21T23:20:45Z</time>
      </trkpt>
      <trkpt lat="30.461219637318827" lon="114.41569067018992">
        <ele>0.0</ele>
        <time>2021-05-21T23:20:51Z</time>
      </trkpt>
      <trkpt lat="30.46117955907776" lon="114.41558552398958">
        <ele>0.0</ele>
        <time>2021-05-21T23:20:57Z</time>
      </trkpt>
      <trkpt lat="30.461171463995612" lon="114.41546935997069">
        <ele>0.0</ele>
        <time>2021-05-21T23:21:05Z</time>
      </trkpt>
      <trkpt lat="30.46114637301728" lon="114.41535219669731">
        <ele>0.0</ele>
        <time>2021-05-21T23:21:11Z</time>
      </trkpt>
      <trkpt lat="30.461051364895585" lon="114.415313149965">
        <ele>0.0</ele>
        <time>2021-05-21T23:21:17Z</time>
      </trkpt>
      <trkpt lat="30.46095337495029" lon="114.41529513313274">
        <ele>0.0</ele>
        <time>2021-05-21T23:21:23Z</time>
      </trkpt>
      <trkpt lat="30.46086238488139" lon="114.41527911852275">
        <ele>0.0</ele>
        <time>2021-05-21T23:21:29Z</time>
      </trkpt>
      <trkpt lat="30.46076641012559" lon="114.41528012828088">
        <ele>0.0</ele>
        <time>2021-05-21T23:21:35Z</time>
      </trkpt>
      <trkpt lat="30.460659434852545" lon="114.41527713336606">
        <ele>0.0</ele>
        <time>2021-05-21T23:21:41Z</time>
      </trkpt>
      <trkpt lat="30.4605514771763" lon="114.41529516810093">
        <ele>0.0</ele>
        <time>2021-05-21T23:21:47Z</time>
      </trkpt>
      <trkpt lat="30.460458508246187" lon="114.41530418886686">
        <ele>0.0</ele>
        <time>2021-05-21T23:21:52Z</time>
      </trkpt>
      <trkpt lat="30.46035053980952" lon="114.41530920530532">
        <ele>0.0</ele>
        <time>2021-05-21T23:21:58Z</time>
      </trkpt>
      <trkpt lat="30.46024655793704" lon="114.41529920026457">
        <ele>0.0</ele>
        <time>2021-05-21T23:22:04Z</time>
      </trkpt>
      <trkpt lat="30.460144590436414" lon="114.41530722040612">
        <ele>0.0</ele>
        <time>2021-05-21T23:22:10Z</time>
      </trkpt>
      <trkpt lat="30.460048627202035" lon="114.41532224989501">
        <ele>0.0</ele>
        <time>2021-05-21T23:22:16Z</time>
      </trkpt>
      <trkpt lat="30.459951658422224" lon="114.41533026961082">
        <ele>0.0</ele>
        <time>2021-05-21T23:22:22Z</time>
      </trkpt>
      <trkpt lat="30.459849676820518" lon="114.41532126579493">
        <ele>0.0</ele>
        <time>2021-05-21T23:22:29Z</time>
      </trkpt>
      <trkpt lat="30.45974768693845" lon="114.4153022478946">
        <ele>0.0</ele>
        <time>2021-05-21T23:22:38Z</time>
      </trkpt>
      <trkpt lat="30.459645727665965" lon="114.41532028212967">
        <ele>0.0</ele>
        <time>2021-05-21T23:22:44Z</time>
      </trkpt>
      <trkpt lat="30.459544765658563" lon="114.41533531206298">
        <ele>0.0</ele>
        <time>2021-05-21T23:22:49Z</time>
      </trkpt>
      <trkpt lat="30.459450806027228" lon="114.41535534845441">
        <ele>0.0</ele>
        <time>2021-05-21T23:22:54Z</time>
      </trkpt>
      <trkpt lat="30.459343857168566" lon="114.41538439870915">
        <ele>0.0</ele>
        <time>2021-05-21T23:22:59Z</time>
      </trkpt>
      <trkpt lat="30.459251894561955" lon="114.41540143073485">
        <ele>0.0</ele>
        <time>2021-05-21T23:23:04Z</time>
      </trkpt>
      <trkpt lat="30.459145927176667" lon="114.41540844985089">
        <ele>0.0</ele>
        <time>2021-05-21T23:23:10Z</time>
      </trkpt>
      <trkpt lat="30.45904595161054" lon="114.4154074571348">
        <ele>0.0</ele>
        <time>2021-05-21T23:23:16Z</time>
      </trkpt>
      <trkpt lat="30.458944968802577" lon="114.4153974517833">
        <ele>0.0</ele>
        <time>2021-05-21T23:23:22Z</time>
      </trkpt>
      <trkpt lat="30.458839998636538" lon="114.41540146656988">
        <ele>0.0</ele>
        <time>2021-05-21T23:23:28Z</time>
      </trkpt>
      <trkpt lat="30.458744043666652" lon="114.41542651027481">
        <ele>0.0</ele>
        <time>2021-05-21T23:23:34Z</time>
      </trkpt>
      <trkpt lat="30.45865110130615" lon="114.41546757641413">
        <ele>0.0</ele>
        <time>2021-05-21T23:23:40Z</time>
      </trkpt>
      <trkpt lat="30.45856214044969" lon="114.41548761250299">
        <ele>0.0</ele>
        <time>2021-05-21T23:23:46Z</time>
      </trkpt>
      <trkpt lat="30.458472196591288" lon="114.41552767708721">
        <ele>0.0</ele>
        <time>2021-05-21T23:23:52Z</time>
      </trkpt>
      <trkpt lat="30.45837922253885" lon="114.4155306894358">
        <ele>0.0</ele>
        <time>2021-05-21T23:23:58Z</time>
      </trkpt>
      <trkpt lat="30.458276240112944" lon="114.41552068419597">
        <ele>0.0</ele>
        <time>2021-05-21T23:24:08Z</time>
      </trkpt>
      <trkpt lat="30.45817827483574" lon="114.41553270975777">
        <ele>0.0</ele>
        <time>2021-05-21T23:24:14Z</time>
      </trkpt>
      <trkpt lat="30.45807429766308" lon="114.41552871312274">
        <ele>0.0</ele>
        <time>2021-05-21T23:24:20Z</time>
      </trkpt>
      <trkpt lat="30.45798534100218" lon="114.41555375637813">
        <ele>0.0</ele>
        <time>2021-05-21T23:24:25Z</time>
      </trkpt>
      <trkpt lat="30.457889378567824" lon="114.41556978747344">
        <ele>0.0</ele>
        <time>2021-05-21T23:24:30Z</time>
      </trkpt>
      <trkpt lat="30.457790433695834" lon="114.41560584730917">
        <ele>0.0</ele>
        <time>2021-05-21T23:24:35Z</time>
      </trkpt>
      <trkpt lat="30.45770247347796" lon="114.4156268848743">
        <ele>0.0</ele>
        <time>2021-05-21T23:24:40Z</time>
      </trkpt>
      <trkpt lat="30.457601513167543" lon="114.41564391788876">
        <ele>0.0</ele>
        <time>2021-05-21T23:24:46Z</time>
      </trkpt>
      <trkpt lat="30.457502527081804" lon="114.4156309079683">
        <ele>0.0</ele>
        <time>2021-05-21T23:24:52Z</time>
      </trkpt>
      <trkpt lat="30.457410535872274" lon="114.41561389175023">
        <ele>0.0</ele>
        <time>2021-05-21T23:24:58Z</time>
      </trkpt>
      <trkpt lat="30.457318564848386" lon="114.4156209097223">
        <ele>0.0</ele>
        <time>2021-05-21T23:25:04Z</time>
      </trkpt>
      <trkpt lat="30.457227596092924" lon="114.41563093188488">
        <ele>0.0</ele>
        <time>2021-05-21T23:25:10Z</time>
      </trkpt>
      <trkpt lat="30.457122633370965" lon="114.41564395954697">
        <ele>0.0</ele>
        <time>2021-05-21T23:25:16Z</time>
      </trkpt>
      <trkpt lat="30.457020670736934" lon="114.41565798838305">
        <ele>0.0</ele>
        <time>2021-05-21T23:25:22Z</time>
      </trkpt>
      <trkpt lat="30.456918697137112" lon="114.4156589986802">
        <ele>0.0</ele>
        <time>2021-05-21T23:25:28Z</time>
      </trkpt>
      <trkpt lat="30.45682669743193" lon="114.41563196818421">
        <ele>0.0</ele>
        <time>2021-05-21T23:25:34Z</time>
      </trkpt>
      <trkpt lat="30.45674467592357" lon="114.41558190412182">
        <ele>0.0</ele>
        <time>2021-05-21T23:25:40Z</time>
      </trkpt>
      <trkpt lat="30.45665166481208" lon="114.415540853925">
        <ele>0.0</ele>
        <time>2021-05-21T23:25:47Z</time>
      </trkpt>
      <trkpt lat="30.45656067836699" lon="114.4155298462161">
        <ele>0.0</ele>
        <time>2021-05-21T23:25:54Z</time>
      </trkpt>
      <trkpt lat="30.456469699452548" lon="114.41552785129028">
        <ele>0.0</ele>
        <time>2021-05-21T23:26:01Z</time>
      </trkpt>
      <trkpt lat="30.45636972864106" lon="114.4155328670871">
        <ele>0.0</ele>
        <time>2021-05-21T23:26:08Z</time>
      </trkpt>
      <trkpt lat="30.456271753133187" lon="114.41553287560987">
        <ele>0.0</ele>
        <time>2021-05-21T23:26:15Z</time>
      </trkpt>
      <trkpt lat="30.456168793108176" lon="114.41554990871708">
        <ele>0.0</ele>
        <time>2021-05-21T23:26:23Z</time>
      </trkpt>
      <trkpt lat="30.456074831677633" lon="114.41556794247796">
        <ele>0.0</ele>
        <time>2021-05-21T23:26:30Z</time>
      </trkpt>
      <trkpt lat="30.455977859248208" lon="114.41557195660161">
        <ele>0.0</ele>
        <time>2021-05-21T23:26:36Z</time>
      </trkpt>
      <trkpt lat="30.455915947902106" lon="114.41565908590677">
        <ele>0.0</ele>
        <time>2021-05-21T23:26:45Z</time>
      </trkpt>
      <trkpt lat="30.4559190486507" lon="114.41577925718617">
        <ele>0.0</ele>
        <time>2021-05-21T23:26:52Z</time>
      </trkpt>
      <trkpt lat="30.455925145027333" lon="114.41589442173746">
        <ele>0.0</ele>
        <time>2021-05-21T23:26:58Z</time>
      </trkpt>
      <trkpt lat="30.45593924343585" lon="114.41601359203547">
        <ele>0.0</ele>
        <time>2021-05-21T23:27:04Z</time>
      </trkpt>
      <trkpt lat="30.455943337197095" lon="114.41612375086505">
        <ele>0.0</ele>
        <time>2021-05-21T23:27:09Z</time>
      </trkpt>
      <trkpt lat="30.455950428145304" lon="114.41623090567657">
        <ele>0.0</ele>
        <time>2021-05-21T23:27:14Z</time>
      </trkpt>
      <trkpt lat="30.455959519980535" lon="114.41633906235057">
        <ele>0.0</ele>
        <time>2021-05-21T23:27:19Z</time>
      </trkpt>
      <trkpt lat="30.45595562876287" lon="114.41646224273822">
        <ele>0.0</ele>
        <time>2021-05-21T23:27:25Z</time>
      </trkpt>
      <trkpt lat="30.455965733843875" lon="114.41658442119594">
        <ele>0.0</ele>
        <time>2021-05-21T23:27:31Z</time>
      </trkpt>
      <trkpt lat="30.455954831487258" lon="114.41669158004679">
        <ele>0.0</ele>
        <time>2021-05-21T23:27:36Z</time>
      </trkpt>
      <trkpt lat="30.45594894181108" lon="114.41681376129927">
        <ele>0.0</ele>
        <time>2021-05-21T23:27:42Z</time>
      </trkpt>
      <trkpt lat="30.45594904680267" lon="114.41693093532514">
        <ele>0.0</ele>
        <time>2021-05-21T23:27:48Z</time>
      </trkpt>
      <trkpt lat="30.455960155093102" lon="114.41705411805998">
        <ele>0.0</ele>
        <time>2021-05-21T23:27:54Z</time>
      </trkpt>
      <trkpt lat="30.455975258506896" lon="114.41717229369354">
        <ele>0.0</ele>
        <time>2021-05-21T23:28:00Z</time>
      </trkpt>
      <trkpt lat="30.45599235929547" lon="114.41728746532698">
        <ele>0.0</ele>
        <time>2021-05-21T23:28:06Z</time>
      </trkpt>
      <trkpt lat="30.455988471443003" lon="114.41740864853416">
        <ele>0.0</ele>
        <time>2021-05-21T23:28:12Z</time>
      </trkpt>
      <trkpt lat="30.455981581286554" lon="114.41752582665526">
        <ele>0.0</ele>
        <time>2021-05-21T23:28:18Z</time>
      </trkpt>
      <trkpt lat="30.455974692672786" lon="114.41764400698843">
        <ele>0.0</ele>
        <time>2021-05-21T23:28:24Z</time>
      </trkpt>
      <trkpt lat="30.455972801558367" lon="114.41776018452069">
        <ele>0.0</ele>
        <time>2021-05-21T23:28:30Z</time>
      </trkpt>
      <trkpt lat="30.455978909989646" lon="114.41787736356909">
        <ele>0.0</ele>
        <time>2021-05-21T23:28:36Z</time>
      </trkpt>
      <trkpt lat="30.455994009207252" lon="114.41798653017355">
        <ele>0.0</ele>
        <time>2021-05-21T23:28:42Z</time>
      </trkpt>
      <trkpt lat="30.456006114463058" lon="114.41810070537724">
        <ele>0.0</ele>
        <time>2021-05-21T23:28:48Z</time>
      </trkpt>
      <trkpt lat="30.456011218216737" lon="114.4182108756218">
        <ele>0.0</ele>
        <time>2021-05-21T23:28:54Z</time>
      </trkpt>
      <trkpt lat="30.45600432069576" lon="114.41831603971589">
        <ele>0.0</ele>
        <time>2021-05-21T23:28:59Z</time>
      </trkpt>
      <trkpt lat="30.455992441348297" lon="114.41843823140603">
        <ele>0.0</ele>
        <time>2021-05-21T23:29:05Z</time>
      </trkpt>
      <trkpt lat="30.455995555029517" lon="114.41855641624929">
        <ele>0.0</ele>
        <time>2021-05-21T23:29:11Z</time>
      </trkpt>
      <trkpt lat="30.455999658329574" lon="114.41866358435159">
        <ele>0.0</ele>
        <time>2021-05-21T23:29:16Z</time>
      </trkpt>
      <trkpt lat="30.45601177389284" lon="114.41878477448766">
        <ele>0.0</ele>
        <time>2021-05-21T23:29:22Z</time>
      </trkpt>
      <trkpt lat="30.456025874794342" lon="114.41889094135071">
        <ele>0.0</ele>
        <time>2021-05-21T23:29:27Z</time>
      </trkpt>
      <trkpt lat="30.456020995822207" lon="114.41901213433549">
        <ele>0.0</ele>
        <time>2021-05-21T23:29:33Z</time>
      </trkpt>
      <trkpt lat="30.456012111514305" lon="114.41912631719688">
        <ele>0.0</ele>
        <time>2021-05-21T23:29:39Z</time>
      </trkpt>
      <trkpt lat="30.456011227792228" lon="114.41924250322252">
        <ele>0.0</ele>
        <time>2021-05-21T23:29:45Z</time>
      </trkpt>
      <trkpt lat="30.45600334742286" lon="114.41935969213893">
        <ele>0.0</ele>
        <time>2021-05-21T23:29:51Z</time>
      </trkpt>
      <trkpt lat="30.45598946713224" lon="114.41947487902398">
        <ele>0.0</ele>
        <time>2021-05-21T23:29:57Z</time>
      </trkpt>
      <trkpt lat="30.45598657348501" lon="114.41957904776064">
        <ele>0.0</ele>
        <time>2021-05-21T23:30:03Z</time>
      </trkpt>
      <trkpt lat="30.45598968597737" lon="114.41969022790967">
        <ele>0.0</ele>
        <time>2021-05-21T23:30:09Z</time>
      </trkpt>
      <trkpt lat="30.456002800630557" lon="114.41980541433765">
        <ele>0.0</ele>
        <time>2021-05-21T23:30:15Z</time>
      </trkpt>
      <trkpt lat="30.456026913123743" lon="114.41992060046768">
        <ele>0.0</ele>
        <time>2021-05-21T23:30:21Z</time>
      </trkpt>
      <trkpt lat="30.456043023010242" lon="114.42003077972504">
        <ele>0.0</ele>
        <time>2021-05-21T23:30:27Z</time>
      </trkpt>
      <trkpt lat="30.456045136927425" lon="114.42014096080051">
        <ele>0.0</ele>
        <time>2021-05-21T23:30:33Z</time>
      </trkpt>
      <trkpt lat="30.45604425736691" lon="114.42025615101805">
        <ele>0.0</ele>
        <time>2021-05-21T23:30:39Z</time>
      </trkpt>
      <trkpt lat="30.456041378890777" lon="114.42037134206619">
        <ele>0.0</ele>
        <time>2021-05-21T23:30:45Z</time>
      </trkpt>
      <trkpt lat="30.456030501938763" lon="114.4204855327984">
        <ele>0.0</ele>
        <time>2021-05-21T23:30:51Z</time>
      </trkpt>
      <trkpt lat="30.456023625625456" lon="114.42060072550106">
        <ele>0.0</ele>
        <time>2021-05-21T23:30:57Z</time>
      </trkpt>
      <trkpt lat="30.456012746623415" lon="114.42071191249183">
        <ele>0.0</ele>
        <time>2021-05-21T23:31:03Z</time>
      </trkpt>
      <trkpt lat="30.456021862100435" lon="114.42082209667137">
        <ele>0.0</ele>
        <time>2021-05-21T23:31:09Z</time>
      </trkpt>
      <trkpt lat="30.456033977362633" lon="114.42093228118988">
        <ele>0.0</ele>
        <time>2021-05-21T23:31:15Z</time>
      </trkpt>
      <trkpt lat="30.45603310398153" lon="114.4210494793041">
        <ele>0.0</ele>
        <time>2021-05-21T23:31:21Z</time>
      </trkpt>
      <trkpt lat="30.456041233309058" lon="114.42117068411937">
        <ele>0.0</ele>
        <time>2021-05-21T23:31:27Z</time>
      </trkpt>
      <trkpt lat="30.456048354786414" lon="114.42128387608832">
        <ele>0.0</ele>
        <time>2021-05-21T23:31:33Z</time>
      </trkpt>
      <trkpt lat="30.45606046899115" lon="114.42139105797969">
        <ele>0.0</ele>
        <time>2021-05-21T23:31:39Z</time>
      </trkpt>
      <trkpt lat="30.45606059110602" lon="114.4215022483504">
        <ele>0.0</ele>
        <time>2021-05-21T23:31:45Z</time>
      </trkpt>
      <trkpt lat="30.456055723872744" lon="114.42162145355208">
        <ele>0.0</ele>
        <time>2021-05-21T23:31:51Z</time>
      </trkpt>
      <trkpt lat="30.45605985501566" lon="114.42174065867128">
        <ele>0.0</ele>
        <time>2021-05-21T23:31:57Z</time>
      </trkpt>
      <trkpt lat="30.456059985543565" lon="114.42185786136623">
        <ele>0.0</ele>
        <time>2021-05-21T23:32:03Z</time>
      </trkpt>
      <trkpt lat="30.45606311367765" lon="114.42197306099386">
        <ele>0.0</ele>
        <time>2021-05-21T23:32:09Z</time>
      </trkpt>
      <trkpt lat="30.456061242512867" lon="114.42208725996132">
        <ele>0.0</ele>
        <time>2021-05-21T23:32:15Z</time>
      </trkpt>
      <trkpt lat="30.45606937282212" lon="114.42220446395757">
        <ele>0.0</ele>
        <time>2021-05-21T23:32:21Z</time>
      </trkpt>
      <trkpt lat="30.456076502843345" lon="114.42232066695689">
        <ele>0.0</ele>
        <time>2021-05-21T23:32:27Z</time>
      </trkpt>
      <trkpt lat="30.456085627238167" lon="114.42243186162662">
        <ele>0.0</ele>
        <time>2021-05-21T23:32:33Z</time>
      </trkpt>
      <trkpt lat="30.45609575996208" lon="114.42255006920013">
        <ele>0.0</ele>
        <time>2021-05-21T23:32:39Z</time>
      </trkpt>
      <trkpt lat="30.456105890988827" lon="114.42266627390826">
        <ele>0.0</ele>
        <time>2021-05-21T23:32:45Z</time>
      </trkpt>
      <trkpt lat="30.456107029487413" lon="114.42278648718299">
        <ele>0.0</ele>
        <time>2021-05-21T23:32:51Z</time>
      </trkpt>
      <trkpt lat="30.4561121571423" lon="114.42289768473803">
        <ele>0.0</ele>
        <time>2021-05-21T23:32:57Z</time>
      </trkpt>
      <trkpt lat="30.456123288512607" lon="114.42301288954478">
        <ele>0.0</ele>
        <time>2021-05-21T23:33:03Z</time>
      </trkpt>
      <trkpt lat="30.45613742088575" lon="114.42312909653774">
        <ele>0.0</ele>
        <time>2021-05-21T23:33:09Z</time>
      </trkpt>
      <trkpt lat="30.456152550060608" lon="114.42324229869375">
        <ele>0.0</ele>
        <time>2021-05-21T23:33:15Z</time>
      </trkpt>
      <trkpt lat="30.456163684343416" lon="114.42335850724984">
        <ele>0.0</ele>
        <time>2021-05-21T23:33:21Z</time>
      </trkpt>
      <trkpt lat="30.456169810952748" lon="114.4234667023837">
        <ele>0.0</ele>
        <time>2021-05-21T23:33:27Z</time>
      </trkpt>
      <trkpt lat="30.456169810952748" lon="114.4234667023837">
        <ele>0.0</ele>
        <time>2021-05-21T23:33:27Z</time>
      </trkpt>
    </trkseg>
  </trk>
</gpx>