<?xml version="1.0" encoding="UTF-8"?>
<gpx xmlns="http://www.topografix.com/GPX/1/1" xmlns:gpxtpx="http://www.garmin.com/xmlschemas/TrackPointExtension/v1" xmlns:xsi="http://www.w3.org/2001/XMLSchema-instance" xsi:schemaLocation="http://www.topografix.com/GPX/1/1 http://www.topografix.com/GPX/1/1/gpx.xsd" version="1.1" creator="gpx.py -- https://github.com/tkrajina/gpxpy">
  <trk>
    <name>gpx from keep</name>
    <type>Run</type>
    <trkseg>
      <trkpt lat="30.45679742911234" lon="114.42868275077703">
        <ele>0.0</ele>
        <time>2021-05-19T22:16:37Z</time>
      </trkpt>
      <trkpt lat="30.456818599329498" lon="114.42880700543522">
        <ele>0.0</ele>
        <time>2021-05-19T22:16:47Z</time>
      </trkpt>
      <trkpt lat="30.456849743507497" lon="114.42891422464945">
        <ele>0.0</ele>
        <time>2021-05-19T22:16:53Z</time>
      </trkpt>
      <trkpt lat="30.45683590657318" lon="114.4290264587175">
        <ele>0.0</ele>
        <time>2021-05-19T22:16:57Z</time>
      </trkpt>
      <trkpt lat="30.456844077546446" lon="114.42914771025595">
        <ele>0.0</ele>
        <time>2021-05-19T22:17:03Z</time>
      </trkpt>
      <trkpt lat="30.45686023994835" lon="114.42926395132785">
        <ele>0.0</ele>
        <time>2021-05-19T22:17:09Z</time>
      </trkpt>
      <trkpt lat="30.456896377725432" lon="114.42936616192814">
        <ele>0.0</ele>
        <time>2021-05-19T22:17:15Z</time>
      </trkpt>
      <trkpt lat="30.456947513627274" lon="114.42946937382145">
        <ele>0.0</ele>
        <time>2021-05-19T22:17:21Z</time>
      </trkpt>
      <trkpt lat="30.456975667337648" lon="114.4295806050715">
        <ele>0.0</ele>
        <time>2021-05-19T22:17:27Z</time>
      </trkpt>
      <trkpt lat="30.456998828638817" lon="114.42969584578881">
        <ele>0.0</ele>
        <time>2021-05-19T22:17:33Z</time>
      </trkpt>
      <trkpt lat="30.456995982413176" lon="114.42980106819982">
        <ele>0.0</ele>
        <time>2021-05-19T22:17:38Z</time>
      </trkpt>
      <trkpt lat="30.45701215092458" lon="114.42991931708671">
        <ele>0.0</ele>
        <time>2021-05-19T22:17:43Z</time>
      </trkpt>
      <trkpt lat="30.45702330804964" lon="114.43002854790036">
        <ele>0.0</ele>
        <time>2021-05-19T22:17:48Z</time>
      </trkpt>
      <trkpt lat="30.457054456239366" lon="114.43013477113618">
        <ele>0.0</ele>
        <time>2021-05-19T22:17:53Z</time>
      </trkpt>
      <trkpt lat="30.45707761429469" lon="114.43024600628814">
        <ele>0.0</ele>
        <time>2021-05-19T22:17:58Z</time>
      </trkpt>
      <trkpt lat="30.457093764241346" lon="114.43035022761649">
        <ele>0.0</ele>
        <time>2021-05-19T22:18:03Z</time>
      </trkpt>
      <trkpt lat="30.457128926235082" lon="114.43046547144411">
        <ele>0.0</ele>
        <time>2021-05-19T22:18:09Z</time>
      </trkpt>
      <trkpt lat="30.45714507713335" lon="114.43056969383976">
        <ele>0.0</ele>
        <time>2021-05-19T22:18:14Z</time>
      </trkpt>
      <trkpt lat="30.457172246673366" lon="114.43068794601922">
        <ele>0.0</ele>
        <time>2021-05-19T22:18:20Z</time>
      </trkpt>
      <trkpt lat="30.45719142330474" lon="114.43080920603934">
        <ele>0.0</ele>
        <time>2021-05-19T22:18:26Z</time>
      </trkpt>
      <trkpt lat="30.457207584727282" lon="114.43091944312509">
        <ele>0.0</ele>
        <time>2021-05-19T22:18:32Z</time>
      </trkpt>
      <trkpt lat="30.457228739356566" lon="114.43102567163992">
        <ele>0.0</ele>
        <time>2021-05-19T22:18:37Z</time>
      </trkpt>
      <trkpt lat="30.457248888643953" lon="114.43112789204423">
        <ele>0.0</ele>
        <time>2021-05-19T22:18:42Z</time>
      </trkpt>
      <trkpt lat="30.457273061671838" lon="114.43124614755178">
        <ele>0.0</ele>
        <time>2021-05-19T22:18:48Z</time>
      </trkpt>
      <trkpt lat="30.457302211157288" lon="114.43134937041144">
        <ele>0.0</ele>
        <time>2021-05-19T22:18:53Z</time>
      </trkpt>
      <trkpt lat="30.457321374291006" lon="114.43145960999964">
        <ele>0.0</ele>
        <time>2021-05-19T22:18:58Z</time>
      </trkpt>
      <trkpt lat="30.457345530539122" lon="114.43156584091417">
        <ele>0.0</ele>
        <time>2021-05-19T22:19:03Z</time>
      </trkpt>
      <trkpt lat="30.457359692836786" lon="114.43167407762832">
        <ele>0.0</ele>
        <time>2021-05-19T22:19:08Z</time>
      </trkpt>
      <trkpt lat="30.457384843605467" lon="114.43177630066751">
        <ele>0.0</ele>
        <time>2021-05-19T22:19:13Z</time>
      </trkpt>
      <trkpt lat="30.457402007634666" lon="114.43188554038852">
        <ele>0.0</ele>
        <time>2021-05-19T22:19:18Z</time>
      </trkpt>
      <trkpt lat="30.457419176807186" lon="114.43199778732102">
        <ele>0.0</ele>
        <time>2021-05-19T22:19:23Z</time>
      </trkpt>
      <trkpt lat="30.45738134163895" lon="114.43209801289638">
        <ele>0.0</ele>
        <time>2021-05-19T22:19:28Z</time>
      </trkpt>
      <trkpt lat="30.457300484938205" lon="114.43217719584638">
        <ele>0.0</ele>
        <time>2021-05-19T22:19:34Z</time>
      </trkpt>
      <trkpt lat="30.45720855322248" lon="114.43220626847449">
        <ele>0.0</ele>
        <time>2021-05-19T22:19:39Z</time>
      </trkpt>
      <trkpt lat="30.45710862509936" lon="114.43223634406615">
        <ele>0.0</ele>
        <time>2021-05-19T22:19:45Z</time>
      </trkpt>
      <trkpt lat="30.457018713243684" lon="114.4322784456303">
        <ele>0.0</ele>
        <time>2021-05-19T22:19:51Z</time>
      </trkpt>
      <trkpt lat="30.45691674036284" lon="114.43227945670448">
        <ele>0.0</ele>
        <time>2021-05-19T22:19:57Z</time>
      </trkpt>
      <trkpt lat="30.456811827628282" lon="114.43231855294572">
        <ele>0.0</ele>
        <time>2021-05-19T22:20:03Z</time>
      </trkpt>
      <trkpt lat="30.456719877256422" lon="114.43233559892582">
        <ele>0.0</ele>
        <time>2021-05-19T22:20:08Z</time>
      </trkpt>
      <trkpt lat="30.45663094492619" lon="114.4323646715045">
        <ele>0.0</ele>
        <time>2021-05-19T22:20:13Z</time>
      </trkpt>
      <trkpt lat="30.456533997387478" lon="114.43238272019201">
        <ele>0.0</ele>
        <time>2021-05-19T22:20:18Z</time>
      </trkpt>
      <trkpt lat="30.45643807311929" lon="114.43241580239852">
        <ele>0.0</ele>
        <time>2021-05-19T22:20:23Z</time>
      </trkpt>
      <trkpt lat="30.456345143428916" lon="114.43244587767153">
        <ele>0.0</ele>
        <time>2021-05-19T22:20:28Z</time>
      </trkpt>
      <trkpt lat="30.456254206985506" lon="114.43247194384287">
        <ele>0.0</ele>
        <time>2021-05-19T22:20:33Z</time>
      </trkpt>
      <trkpt lat="30.456152213623728" lon="114.43245992577849">
        <ele>0.0</ele>
        <time>2021-05-19T22:20:39Z</time>
      </trkpt>
      <trkpt lat="30.45606229735423" lon="114.43249902104205">
        <ele>0.0</ele>
        <time>2021-05-19T22:20:45Z</time>
      </trkpt>
      <trkpt lat="30.45596837741851" lon="114.43253510998632">
        <ele>0.0</ele>
        <time>2021-05-19T22:20:52Z</time>
      </trkpt>
      <trkpt lat="30.45587642397402" lon="114.43255015164274">
        <ele>0.0</ele>
        <time>2021-05-19T22:20:57Z</time>
      </trkpt>
      <trkpt lat="30.455791505002274" lon="114.43258824438645">
        <ele>0.0</ele>
        <time>2021-05-19T22:21:02Z</time>
      </trkpt>
      <trkpt lat="30.455701541621956" lon="114.43259727241677">
        <ele>0.0</ele>
        <time>2021-05-19T22:21:07Z</time>
      </trkpt>
      <trkpt lat="30.455610597399843" lon="114.43261832752233">
        <ele>0.0</ele>
        <time>2021-05-19T22:21:12Z</time>
      </trkpt>
      <trkpt lat="30.45551563210679" lon="114.43262535149947">
        <ele>0.0</ele>
        <time>2021-05-19T22:21:17Z</time>
      </trkpt>
      <trkpt lat="30.455424681582365" lon="114.43264239763104">
        <ele>0.0</ele>
        <time>2021-05-19T22:21:22Z</time>
      </trkpt>
      <trkpt lat="30.455333715283036" lon="114.4326494212691">
        <ele>0.0</ele>
        <time>2021-05-19T22:21:27Z</time>
      </trkpt>
      <trkpt lat="30.455243777138367" lon="114.43267448534385">
        <ele>0.0</ele>
        <time>2021-05-19T22:21:32Z</time>
      </trkpt>
      <trkpt lat="30.455147853142982" lon="114.43270756799056">
        <ele>0.0</ele>
        <time>2021-05-19T22:21:38Z</time>
      </trkpt>
      <trkpt lat="30.455050926269205" lon="114.43273864626467">
        <ele>0.0</ele>
        <time>2021-05-19T22:21:44Z</time>
      </trkpt>
      <trkpt lat="30.454959972618074" lon="114.4327536879735">
        <ele>0.0</ele>
        <time>2021-05-19T22:21:49Z</time>
      </trkpt>
      <trkpt lat="30.45485401794777" lon="114.43276572422495">
        <ele>0.0</ele>
        <time>2021-05-19T22:21:55Z</time>
      </trkpt>
      <trkpt lat="30.45475708320177" lon="114.43279179129591">
        <ele>0.0</ele>
        <time>2021-05-19T22:22:01Z</time>
      </trkpt>
      <trkpt lat="30.45466215114688" lon="114.43281986274086">
        <ele>0.0</ele>
        <time>2021-05-19T22:22:07Z</time>
      </trkpt>
      <trkpt lat="30.454571183245147" lon="114.43282588417662">
        <ele>0.0</ele>
        <time>2021-05-19T22:22:12Z</time>
      </trkpt>
      <trkpt lat="30.454466206130384" lon="114.4328238887583">
        <ele>0.0</ele>
        <time>2021-05-19T22:22:18Z</time>
      </trkpt>
      <trkpt lat="30.454358213903742" lon="114.43281187101914">
        <ele>0.0</ele>
        <time>2021-05-19T22:22:24Z</time>
      </trkpt>
      <trkpt lat="30.454259285997065" lon="114.43284194735439">
        <ele>0.0</ele>
        <time>2021-05-19T22:22:30Z</time>
      </trkpt>
      <trkpt lat="30.454165350531948" lon="114.43286801425546">
        <ele>0.0</ele>
        <time>2021-05-19T22:22:35Z</time>
      </trkpt>
      <trkpt lat="30.454064405707047" lon="114.43288706596373">
        <ele>0.0</ele>
        <time>2021-05-19T22:22:40Z</time>
      </trkpt>
      <trkpt lat="30.453960455277358" lon="114.43290210890007">
        <ele>0.0</ele>
        <time>2021-05-19T22:22:46Z</time>
      </trkpt>
      <trkpt lat="30.453860526100915" lon="114.43293118318199">
        <ele>0.0</ele>
        <time>2021-05-19T22:22:52Z</time>
      </trkpt>
      <trkpt lat="30.45376862042119" lon="114.4329762930494">
        <ele>0.0</ele>
        <time>2021-05-19T22:22:58Z</time>
      </trkpt>
      <trkpt lat="30.45369375044634" lon="114.43304645823693">
        <ele>0.0</ele>
        <time>2021-05-19T22:23:04Z</time>
      </trkpt>
      <trkpt lat="30.453604842626017" lon="114.43309056581063">
        <ele>0.0</ele>
        <time>2021-05-19T22:23:10Z</time>
      </trkpt>
      <trkpt lat="30.453510937710426" lon="114.4331356761787">
        <ele>0.0</ele>
        <time>2021-05-19T22:23:16Z</time>
      </trkpt>
      <trkpt lat="30.453408022298714" lon="114.43317276922276">
        <ele>0.0</ele>
        <time>2021-05-19T22:23:22Z</time>
      </trkpt>
      <trkpt lat="30.453323120096094" lon="114.43322088580908">
        <ele>0.0</ele>
        <time>2021-05-19T22:23:27Z</time>
      </trkpt>
      <trkpt lat="30.453237194187324" lon="114.43325396841122">
        <ele>0.0</ele>
        <time>2021-05-19T22:23:32Z</time>
      </trkpt>
      <trkpt lat="30.453136281640653" lon="114.43329306604085">
        <ele>0.0</ele>
        <time>2021-05-19T22:23:38Z</time>
      </trkpt>
      <trkpt lat="30.453052374586438" lon="114.43333817595757">
        <ele>0.0</ele>
        <time>2021-05-19T22:23:43Z</time>
      </trkpt>
      <trkpt lat="30.452953448804184" lon="114.43336925529536">
        <ele>0.0</ele>
        <time>2021-05-19T22:23:49Z</time>
      </trkpt>
      <trkpt lat="30.45285051438828" lon="114.4333943213159">
        <ele>0.0</ele>
        <time>2021-05-19T22:23:55Z</time>
      </trkpt>
      <trkpt lat="30.452747592861627" lon="114.43342740565107">
        <ele>0.0</ele>
        <time>2021-05-19T22:24:01Z</time>
      </trkpt>
      <trkpt lat="30.452653673984805" lon="114.43346349611869">
        <ele>0.0</ele>
        <time>2021-05-19T22:24:07Z</time>
      </trkpt>
      <trkpt lat="30.452548756248106" lon="114.43349858530905">
        <ele>0.0</ele>
        <time>2021-05-19T22:24:14Z</time>
      </trkpt>
      <trkpt lat="30.452451836581705" lon="114.4335336738621">
        <ele>0.0</ele>
        <time>2021-05-19T22:24:20Z</time>
      </trkpt>
      <trkpt lat="30.452362924679722" lon="114.43357477553299">
        <ele>0.0</ele>
        <time>2021-05-19T22:24:26Z</time>
      </trkpt>
      <trkpt lat="30.45227701048359" lon="114.43361487472598">
        <ele>0.0</ele>
        <time>2021-05-19T22:24:31Z</time>
      </trkpt>
      <trkpt lat="30.452191086633974" lon="114.43364896021474">
        <ele>0.0</ele>
        <time>2021-05-19T22:24:36Z</time>
      </trkpt>
      <trkpt lat="30.452099146483093" lon="114.43367202100518">
        <ele>0.0</ele>
        <time>2021-05-19T22:24:41Z</time>
      </trkpt>
      <trkpt lat="30.452004237875844" lon="114.43371412575209">
        <ele>0.0</ele>
        <time>2021-05-19T22:24:47Z</time>
      </trkpt>
      <trkpt lat="30.451911302880774" lon="114.43374019359733">
        <ele>0.0</ele>
        <time>2021-05-19T22:24:53Z</time>
      </trkpt>
      <trkpt lat="30.45181939850753" lon="114.43378530512057">
        <ele>0.0</ele>
        <time>2021-05-19T22:24:59Z</time>
      </trkpt>
      <trkpt lat="30.451726471696375" lon="114.43381638456715">
        <ele>0.0</ele>
        <time>2021-05-19T22:25:05Z</time>
      </trkpt>
      <trkpt lat="30.451632546787632" lon="114.43384846644899">
        <ele>0.0</ele>
        <time>2021-05-19T22:25:11Z</time>
      </trkpt>
      <trkpt lat="30.451536625658033" lon="114.43388255316367">
        <ele>0.0</ele>
        <time>2021-05-19T22:25:17Z</time>
      </trkpt>
      <trkpt lat="30.451443711978072" lon="114.43392165121236">
        <ele>0.0</ele>
        <time>2021-05-19T22:25:23Z</time>
      </trkpt>
      <trkpt lat="30.45135281906905" lon="114.4339737791929">
        <ele>0.0</ele>
        <time>2021-05-19T22:25:29Z</time>
      </trkpt>
      <trkpt lat="30.451263876778054" lon="114.43399583774955">
        <ele>0.0</ele>
        <time>2021-05-19T22:25:34Z</time>
      </trkpt>
      <trkpt lat="30.45116296521092" lon="114.43403493669095">
        <ele>0.0</ele>
        <time>2021-05-19T22:25:40Z</time>
      </trkpt>
      <trkpt lat="30.45106704756493" lon="114.43407102832248">
        <ele>0.0</ele>
        <time>2021-05-19T22:25:46Z</time>
      </trkpt>
      <trkpt lat="30.45098012939762" lon="114.43410812154997">
        <ele>0.0</ele>
        <time>2021-05-19T22:25:51Z</time>
      </trkpt>
      <trkpt lat="30.45089422086596" lon="114.43415122866479">
        <ele>0.0</ele>
        <time>2021-05-19T22:25:56Z</time>
      </trkpt>
      <trkpt lat="30.45079531065884" lon="114.43419133002722">
        <ele>0.0</ele>
        <time>2021-05-19T22:26:02Z</time>
      </trkpt>
      <trkpt lat="30.450696320095137" lon="114.43418231771801">
        <ele>0.0</ele>
        <time>2021-05-19T22:26:08Z</time>
      </trkpt>
      <trkpt lat="30.450621241727703" lon="114.43412318740134">
        <ele>0.0</ele>
        <time>2021-05-19T22:26:14Z</time>
      </trkpt>
      <trkpt lat="30.450574089644693" lon="114.43402295994763">
        <ele>0.0</ele>
        <time>2021-05-19T22:26:20Z</time>
      </trkpt>
      <trkpt lat="30.4505409263991" lon="114.43391772019432">
        <ele>0.0</ele>
        <time>2021-05-19T22:26:26Z</time>
      </trkpt>
      <trkpt lat="30.450508755231322" lon="114.4338074693394">
        <ele>0.0</ele>
        <time>2021-05-19T22:26:32Z</time>
      </trkpt>
      <trkpt lat="30.450473603114066" lon="114.43370824457814">
        <ele>0.0</ele>
        <time>2021-05-19T22:26:37Z</time>
      </trkpt>
      <trkpt lat="30.45041647293537" lon="114.4336190451133">
        <ele>0.0</ele>
        <time>2021-05-19T22:26:42Z</time>
      </trkpt>
      <trkpt lat="30.45039129010133" lon="114.43350177912005">
        <ele>0.0</ele>
        <time>2021-05-19T22:26:48Z</time>
      </trkpt>
      <trkpt lat="30.45034813151294" lon="114.43339654272172">
        <ele>0.0</ele>
        <time>2021-05-19T22:26:54Z</time>
      </trkpt>
      <trkpt lat="30.450319960090134" lon="114.43328529185067">
        <ele>0.0</ele>
        <time>2021-05-19T22:27:00Z</time>
      </trkpt>
      <trkpt lat="30.450295780199056" lon="114.43316902982572">
        <ele>0.0</ele>
        <time>2021-05-19T22:27:06Z</time>
      </trkpt>
      <trkpt lat="30.45026959178153" lon="114.43304675497838">
        <ele>0.0</ele>
        <time>2021-05-19T22:27:12Z</time>
      </trkpt>
      <trkpt lat="30.450261426599056" lon="114.43294151773023">
        <ele>0.0</ele>
        <time>2021-05-19T22:27:18Z</time>
      </trkpt>
      <trkpt lat="30.450253255527457" lon="114.4328322719528">
        <ele>0.0</ele>
        <time>2021-05-19T22:27:25Z</time>
      </trkpt>
      <trkpt lat="30.450236071333983" lon="114.43271300496626">
        <ele>0.0</ele>
        <time>2021-05-19T22:27:31Z</time>
      </trkpt>
      <trkpt lat="30.45020091101923" lon="114.43260576716675">
        <ele>0.0</ele>
        <time>2021-05-19T22:27:37Z</time>
      </trkpt>
      <trkpt lat="30.45017574244963" lon="114.43249452005463">
        <ele>0.0</ele>
        <time>2021-05-19T22:27:43Z</time>
      </trkpt>
      <trkpt lat="30.450150591622677" lon="114.4323942981318">
        <ele>0.0</ele>
        <time>2021-05-19T22:27:49Z</time>
      </trkpt>
      <trkpt lat="30.45011042611027" lon="114.43228205116544">
        <ele>0.0</ele>
        <time>2021-05-19T22:27:57Z</time>
      </trkpt>
      <trkpt lat="30.45008827386512" lon="114.43218082773187">
        <ele>0.0</ele>
        <time>2021-05-19T22:28:03Z</time>
      </trkpt>
      <trkpt lat="30.45006509276099" lon="114.43206056260681">
        <ele>0.0</ele>
        <time>2021-05-19T22:28:09Z</time>
      </trkpt>
      <trkpt lat="30.450037907032097" lon="114.43193628962393">
        <ele>0.0</ele>
        <time>2021-05-19T22:28:15Z</time>
      </trkpt>
      <trkpt lat="30.44999074842069" lon="114.43182605005477">
        <ele>0.0</ele>
        <time>2021-05-19T22:28:21Z</time>
      </trkpt>
      <trkpt lat="30.44996357927793" lon="114.4317118004843">
        <ele>0.0</ele>
        <time>2021-05-19T22:28:28Z</time>
      </trkpt>
      <trkpt lat="30.449959389727255" lon="114.43158752750743">
        <ele>0.0</ele>
        <time>2021-05-19T22:28:34Z</time>
      </trkpt>
      <trkpt lat="30.449952210718138" lon="114.43146926867861">
        <ele>0.0</ele>
        <time>2021-05-19T22:28:40Z</time>
      </trkpt>
      <trkpt lat="30.449942048260887" lon="114.43136103266279">
        <ele>0.0</ele>
        <time>2021-05-19T22:28:47Z</time>
      </trkpt>
      <trkpt lat="30.44992589383011" lon="114.43125680645308">
        <ele>0.0</ele>
        <time>2021-05-19T22:28:52Z</time>
      </trkpt>
      <trkpt lat="30.449913735842266" lon="114.43115057603784">
        <ele>0.0</ele>
        <time>2021-05-19T22:29:00Z</time>
      </trkpt>
      <trkpt lat="30.44988155750522" lon="114.43102731089198">
        <ele>0.0</ele>
        <time>2021-05-19T22:29:06Z</time>
      </trkpt>
      <trkpt lat="30.44986938094833" lon="114.43090805339683">
        <ele>0.0</ele>
        <time>2021-05-19T22:29:12Z</time>
      </trkpt>
      <trkpt lat="30.449845213907373" lon="114.43079280626009">
        <ele>0.0</ele>
        <time>2021-05-19T22:29:18Z</time>
      </trkpt>
      <trkpt lat="30.449813056846768" lon="114.43068257123045">
        <ele>0.0</ele>
        <time>2021-05-19T22:29:24Z</time>
      </trkpt>
      <trkpt lat="30.449807875817324" lon="114.43056030857989">
        <ele>0.0</ele>
        <time>2021-05-19T22:29:30Z</time>
      </trkpt>
      <trkpt lat="30.449830690077246" lon="114.43043904634645">
        <ele>0.0</ele>
        <time>2021-05-19T22:29:36Z</time>
      </trkpt>
      <trkpt lat="30.44988955546017" lon="114.43035786740485">
        <ele>0.0</ele>
        <time>2021-05-19T22:29:41Z</time>
      </trkpt>
      <trkpt lat="30.449977482146814" lon="114.43032278476073">
        <ele>0.0</ele>
        <time>2021-05-19T22:29:46Z</time>
      </trkpt>
      <trkpt lat="30.45007040025928" lon="114.43028269103684">
        <ele>0.0</ele>
        <time>2021-05-19T22:29:52Z</time>
      </trkpt>
      <trkpt lat="30.45016832755811" lon="114.43024961192656">
        <ele>0.0</ele>
        <time>2021-05-19T22:29:58Z</time>
      </trkpt>
      <trkpt lat="30.45026625193933" lon="114.43021452859227">
        <ele>0.0</ele>
        <time>2021-05-19T22:30:04Z</time>
      </trkpt>
      <trkpt lat="30.4503581866798" lon="114.43018545865095">
        <ele>0.0</ele>
        <time>2021-05-19T22:30:09Z</time>
      </trkpt>
      <trkpt lat="30.450457107944153" lon="114.43014837106601">
        <ele>0.0</ele>
        <time>2021-05-19T22:30:15Z</time>
      </trkpt>
      <trkpt lat="30.45055802582276" lon="114.43010927910666">
        <ele>0.0</ele>
        <time>2021-05-19T22:30:21Z</time>
      </trkpt>
      <trkpt lat="30.45066396312891" lon="114.43008421661895">
        <ele>0.0</ele>
        <time>2021-05-19T22:30:27Z</time>
      </trkpt>
      <trkpt lat="30.45076788623767" lon="114.4300491330347">
        <ele>0.0</ele>
        <time>2021-05-19T22:30:33Z</time>
      </trkpt>
      <trkpt lat="30.45086780155533" lon="114.43000803708722">
        <ele>0.0</ele>
        <time>2021-05-19T22:30:39Z</time>
      </trkpt>
      <trkpt lat="30.450971737957243" lon="114.4299819727645">
        <ele>0.0</ele>
        <time>2021-05-19T22:30:45Z</time>
      </trkpt>
      <trkpt lat="30.451072658987304" lon="114.42994488535786">
        <ele>0.0</ele>
        <time>2021-05-19T22:30:51Z</time>
      </trkpt>
      <trkpt lat="30.451176596901504" lon="114.42991982323541">
        <ele>0.0</ele>
        <time>2021-05-19T22:30:57Z</time>
      </trkpt>
      <trkpt lat="30.45128052312485" lon="114.4298867441641">
        <ele>0.0</ele>
        <time>2021-05-19T22:31:03Z</time>
      </trkpt>
      <trkpt lat="30.451370467433662" lon="114.42986368756532">
        <ele>0.0</ele>
        <time>2021-05-19T22:31:08Z</time>
      </trkpt>
      <trkpt lat="30.451458400558668" lon="114.42983261420689">
        <ele>0.0</ele>
        <time>2021-05-19T22:31:13Z</time>
      </trkpt>
      <trkpt lat="30.451545332502096" lon="114.42980053886221">
        <ele>0.0</ele>
        <time>2021-05-19T22:31:18Z</time>
      </trkpt>
      <trkpt lat="30.45163426982356" lon="114.42977247185867">
        <ele>0.0</ele>
        <time>2021-05-19T22:31:23Z</time>
      </trkpt>
      <trkpt lat="30.451734203013658" lon="114.42974340182272">
        <ele>0.0</ele>
        <time>2021-05-19T22:31:29Z</time>
      </trkpt>
      <trkpt lat="30.45184215173923" lon="114.42972635650382">
        <ele>0.0</ele>
        <time>2021-05-19T22:31:36Z</time>
      </trkpt>
      <trkpt lat="30.451938064124107" lon="114.42968225518464">
        <ele>0.0</ele>
        <time>2021-05-19T22:31:42Z</time>
      </trkpt>
      <trkpt lat="30.452032988450114" lon="114.429646170928">
        <ele>0.0</ele>
        <time>2021-05-19T22:31:48Z</time>
      </trkpt>
      <trkpt lat="30.452130920794385" lon="114.42961609912756">
        <ele>0.0</ele>
        <time>2021-05-19T22:31:54Z</time>
      </trkpt>
      <trkpt lat="30.452229852921178" lon="114.42958602728268">
        <ele>0.0</ele>
        <time>2021-05-19T22:32:00Z</time>
      </trkpt>
      <trkpt lat="30.45231879333345" lon="114.4295599647738">
        <ele>0.0</ele>
        <time>2021-05-19T22:32:05Z</time>
      </trkpt>
      <trkpt lat="30.45241872092223" lon="114.42952688660533">
        <ele>0.0</ele>
        <time>2021-05-19T22:32:11Z</time>
      </trkpt>
      <trkpt lat="30.45251365267127" lon="114.429495813129">
        <ele>0.0</ele>
        <time>2021-05-19T22:32:17Z</time>
      </trkpt>
      <trkpt lat="30.452611590940826" lon="114.42946974994962">
        <ele>0.0</ele>
        <time>2021-05-19T22:32:23Z</time>
      </trkpt>
      <trkpt lat="30.45270950756583" lon="114.42942865528812">
        <ele>0.0</ele>
        <time>2021-05-19T22:32:29Z</time>
      </trkpt>
      <trkpt lat="30.452808435544647" lon="114.42939557740966">
        <ele>0.0</ele>
        <time>2021-05-19T22:32:35Z</time>
      </trkpt>
      <trkpt lat="30.4529073606775" lon="114.42936049538761">
        <ele>0.0</ele>
        <time>2021-05-19T22:32:41Z</time>
      </trkpt>
      <trkpt lat="30.453008279601036" lon="114.42932140486731">
        <ele>0.0</ele>
        <time>2021-05-19T22:32:47Z</time>
      </trkpt>
      <trkpt lat="30.453112216532947" lon="114.4292953413804">
        <ele>0.0</ele>
        <time>2021-05-19T22:32:53Z</time>
      </trkpt>
      <trkpt lat="30.453205205088032" lon="114.42930335007105">
        <ele>0.0</ele>
        <time>2021-05-19T22:32:58Z</time>
      </trkpt>
      <trkpt lat="30.45330523509741" lon="114.42934142103071">
        <ele>0.0</ele>
        <time>2021-05-19T22:33:04Z</time>
      </trkpt>
      <trkpt lat="30.45337333798903" lon="114.42942458930389">
        <ele>0.0</ele>
        <time>2021-05-19T22:33:10Z</time>
      </trkpt>
      <trkpt lat="30.453461376922622" lon="114.42946666993078">
        <ele>0.0</ele>
        <time>2021-05-19T22:33:16Z</time>
      </trkpt>
      <trkpt lat="30.45355530889973" lon="114.42943559662778">
        <ele>0.0</ele>
        <time>2021-05-19T22:33:21Z</time>
      </trkpt>
      <trkpt lat="30.4536372164683" lon="114.4293854845295">
        <ele>0.0</ele>
        <time>2021-05-19T22:33:25Z</time>
      </trkpt>
      <trkpt lat="30.453696065067053" lon="114.42929028026248">
        <ele>0.0</ele>
        <time>2021-05-19T22:33:30Z</time>
      </trkpt>
      <trkpt lat="30.453733896297663" lon="114.42917904481556">
        <ele>0.0</ele>
        <time>2021-05-19T22:33:36Z</time>
      </trkpt>
      <trkpt lat="30.453816772665302" lon="114.42910688734382">
        <ele>0.0</ele>
        <time>2021-05-19T22:33:42Z</time>
      </trkpt>
      <trkpt lat="30.453916712168695" lon="114.42908182654992">
        <ele>0.0</ele>
        <time>2021-05-19T22:33:48Z</time>
      </trkpt>
      <trkpt lat="30.45400464751951" lon="114.4290517564115">
        <ele>0.0</ele>
        <time>2021-05-19T22:33:53Z</time>
      </trkpt>
      <trkpt lat="30.454104588489496" lon="114.42902769776408">
        <ele>0.0</ele>
        <time>2021-05-19T22:33:59Z</time>
      </trkpt>
      <trkpt lat="30.454206530404356" lon="114.4290046410509">
        <ele>0.0</ele>
        <time>2021-05-19T22:34:05Z</time>
      </trkpt>
      <trkpt lat="30.454306457153574" lon="114.42897056166424">
        <ele>0.0</ele>
        <time>2021-05-19T22:34:11Z</time>
      </trkpt>
      <trkpt lat="30.454406395328796" lon="114.4289444989528">
        <ele>0.0</ele>
        <time>2021-05-19T22:34:17Z</time>
      </trkpt>
      <trkpt lat="30.454509349850724" lon="114.42893046093494">
        <ele>0.0</ele>
        <time>2021-05-19T22:34:23Z</time>
      </trkpt>
      <trkpt lat="30.45459930190837" lon="114.4289124157484">
        <ele>0.0</ele>
        <time>2021-05-19T22:34:28Z</time>
      </trkpt>
      <trkpt lat="30.45470424598286" lon="114.42889136305008">
        <ele>0.0</ele>
        <time>2021-05-19T22:34:34Z</time>
      </trkpt>
      <trkpt lat="30.45480418988688" lon="114.42886930873196">
        <ele>0.0</ele>
        <time>2021-05-19T22:34:40Z</time>
      </trkpt>
      <trkpt lat="30.454903135469507" lon="114.42884825659661">
        <ele>0.0</ele>
        <time>2021-05-19T22:34:46Z</time>
      </trkpt>
      <trkpt lat="30.45500407347144" lon="114.42882219394794">
        <ele>0.0</ele>
        <time>2021-05-19T22:34:52Z</time>
      </trkpt>
      <trkpt lat="30.455103011989365" lon="114.42879613150468">
        <ele>0.0</ele>
        <time>2021-05-19T22:34:58Z</time>
      </trkpt>
      <trkpt lat="30.45519894277633" lon="114.42876405693717">
        <ele>0.0</ele>
        <time>2021-05-19T22:35:04Z</time>
      </trkpt>
      <trkpt lat="30.45530088625197" lon="114.42874200257737">
        <ele>0.0</ele>
        <time>2021-05-19T22:35:10Z</time>
      </trkpt>
      <trkpt lat="30.455401845544188" lon="114.42873097106892">
        <ele>0.0</ele>
        <time>2021-05-19T22:35:16Z</time>
      </trkpt>
      <trkpt lat="30.455499790026614" lon="114.4287089170903">
        <ele>0.0</ele>
        <time>2021-05-19T22:35:22Z</time>
      </trkpt>
      <trkpt lat="30.455594726792413" lon="114.42868085100196">
        <ele>0.0</ele>
        <time>2021-05-19T22:35:28Z</time>
      </trkpt>
      <trkpt lat="30.45569667312863" lon="114.42866080085697">
        <ele>0.0</ele>
        <time>2021-05-19T22:35:34Z</time>
      </trkpt>
      <trkpt lat="30.455794613416053" lon="114.42863574076127">
        <ele>0.0</ele>
        <time>2021-05-19T22:35:40Z</time>
      </trkpt>
      <trkpt lat="30.455887562015757" lon="114.42861569143948">
        <ele>0.0</ele>
        <time>2021-05-19T22:35:46Z</time>
      </trkpt>
      <trkpt lat="30.455989511195316" lon="114.42859764547855">
        <ele>0.0</ele>
        <time>2021-05-19T22:35:53Z</time>
      </trkpt>
      <trkpt lat="30.456086448955254" lon="114.42857058142367">
        <ele>0.0</ele>
        <time>2021-05-19T22:36:00Z</time>
      </trkpt>
      <trkpt lat="30.456181384423232" lon="114.42854151345921">
        <ele>0.0</ele>
        <time>2021-05-19T22:36:07Z</time>
      </trkpt>
      <trkpt lat="30.456276338190456" lon="114.42852547228428">
        <ele>0.0</ele>
        <time>2021-05-19T22:36:13Z</time>
      </trkpt>
      <trkpt lat="30.456368284279257" lon="114.42850341903919">
        <ele>0.0</ele>
        <time>2021-05-19T22:36:19Z</time>
      </trkpt>
      <trkpt lat="30.45645922922633" lon="114.42848036384787">
        <ele>0.0</ele>
        <time>2021-05-19T22:36:25Z</time>
      </trkpt>
      <trkpt lat="30.456558166574933" lon="114.42845329976892">
        <ele>0.0</ele>
        <time>2021-05-19T22:36:31Z</time>
      </trkpt>
      <trkpt lat="30.456654145361355" lon="114.42845529554992">
        <ele>0.0</ele>
        <time>2021-05-19T22:36:37Z</time>
      </trkpt>
      <trkpt lat="30.456727233832243" lon="114.42853144550864">
        <ele>0.0</ele>
        <time>2021-05-19T22:36:43Z</time>
      </trkpt>
      <trkpt lat="30.456778360476726" lon="114.4286306450863">
        <ele>0.0</ele>
        <time>2021-05-19T22:36:49Z</time>
      </trkpt>
      <trkpt lat="30.456792520851053" lon="114.42874688349639">
        <ele>0.0</ele>
        <time>2021-05-19T22:36:55Z</time>
      </trkpt>
      <trkpt lat="30.456816682130878" lon="114.42886512582538">
        <ele>0.0</ele>
        <time>2021-05-19T22:37:01Z</time>
      </trkpt>
      <trkpt lat="30.456835845251007" lon="114.42898336924809">
        <ele>0.0</ele>
        <time>2021-05-19T22:37:07Z</time>
      </trkpt>
      <trkpt lat="30.456855006098777" lon="114.42909960915979">
        <ele>0.0</ele>
        <time>2021-05-19T22:37:13Z</time>
      </trkpt>
      <trkpt lat="30.456886138685718" lon="114.42919781104342">
        <ele>0.0</ele>
        <time>2021-05-19T22:37:18Z</time>
      </trkpt>
      <trkpt lat="30.456909279434626" lon="114.4293000224532">
        <ele>0.0</ele>
        <time>2021-05-19T22:37:23Z</time>
      </trkpt>
      <trkpt lat="30.456931426643735" lon="114.42940624283945">
        <ele>0.0</ele>
        <time>2021-05-19T22:37:28Z</time>
      </trkpt>
      <trkpt lat="30.45694956953833" lon="114.42950845568502">
        <ele>0.0</ele>
        <time>2021-05-19T22:37:33Z</time>
      </trkpt>
      <trkpt lat="30.456965733697857" lon="114.42962469872893">
        <ele>0.0</ele>
        <time>2021-05-19T22:37:39Z</time>
      </trkpt>
      <trkpt lat="30.456981907166064" lon="114.42974695510017">
        <ele>0.0</ele>
        <time>2021-05-19T22:37:45Z</time>
      </trkpt>
      <trkpt lat="30.457005063421242" lon="114.42985818823279">
        <ele>0.0</ele>
        <time>2021-05-19T22:37:50Z</time>
      </trkpt>
      <trkpt lat="30.457027210178538" lon="114.4299624071504">
        <ele>0.0</ele>
        <time>2021-05-19T22:37:55Z</time>
      </trkpt>
      <trkpt lat="30.457044364525377" lon="114.43007063553321">
        <ele>0.0</ele>
        <time>2021-05-19T22:38:00Z</time>
      </trkpt>
      <trkpt lat="30.457072507752194" lon="114.43017285069543">
        <ele>0.0</ele>
        <time>2021-05-19T22:38:05Z</time>
      </trkpt>
      <trkpt lat="30.457086657882463" lon="114.43027707184106">
        <ele>0.0</ele>
        <time>2021-05-19T22:38:10Z</time>
      </trkpt>
      <trkpt lat="30.457117799752123" lon="114.43037828558394">
        <ele>0.0</ele>
        <time>2021-05-19T22:38:15Z</time>
      </trkpt>
      <trkpt lat="30.457133971109265" lon="114.43049653766212">
        <ele>0.0</ele>
        <time>2021-05-19T22:38:21Z</time>
      </trkpt>
      <trkpt lat="30.457152142546548" lon="114.4306147902189">
        <ele>0.0</ele>
        <time>2021-05-19T22:38:27Z</time>
      </trkpt>
      <trkpt lat="30.45717130981881" lon="114.43073003685515">
        <ele>0.0</ele>
        <time>2021-05-19T22:38:33Z</time>
      </trkpt>
      <trkpt lat="30.457191484907966" lon="114.4308502948587">
        <ele>0.0</ele>
        <time>2021-05-19T22:38:39Z</time>
      </trkpt>
      <trkpt lat="30.457223651554088" lon="114.4309665438031">
        <ele>0.0</ele>
        <time>2021-05-19T22:38:45Z</time>
      </trkpt>
      <trkpt lat="30.45724580765225" lon="114.43107377464129">
        <ele>0.0</ele>
        <time>2021-05-19T22:38:50Z</time>
      </trkpt>
      <trkpt lat="30.457262963963437" lon="114.43118000426402">
        <ele>0.0</ele>
        <time>2021-05-19T22:38:55Z</time>
      </trkpt>
      <trkpt lat="30.457286122279257" lon="114.43128823826514">
        <ele>0.0</ele>
        <time>2021-05-19T22:39:01Z</time>
      </trkpt>
      <trkpt lat="30.457318291030585" lon="114.4314044895717">
        <ele>0.0</ele>
        <time>2021-05-19T22:39:07Z</time>
      </trkpt>
      <trkpt lat="30.45733045923338" lon="114.43151673444437">
        <ele>0.0</ele>
        <time>2021-05-19T22:39:13Z</time>
      </trkpt>
      <trkpt lat="30.45739330580035" lon="114.43142653132803">
        <ele>0.0</ele>
        <time>2021-05-19T22:39:22Z</time>
      </trkpt>
      <trkpt lat="30.457357150130296" lon="114.4313182977603">
        <ele>0.0</ele>
        <time>2021-05-19T22:39:28Z</time>
      </trkpt>
      <trkpt lat="30.45734197752893" lon="114.43120204544392">
        <ele>0.0</ele>
        <time>2021-05-19T22:39:34Z</time>
      </trkpt>
      <trkpt lat="30.45731282110587" lon="114.43109381239543">
        <ele>0.0</ele>
        <time>2021-05-19T22:39:40Z</time>
      </trkpt>
      <trkpt lat="30.457288659386034" lon="114.43098257293656">
        <ele>0.0</ele>
        <time>2021-05-19T22:39:46Z</time>
      </trkpt>
      <trkpt lat="30.457259508459078" lon="114.43087734749645">
        <ele>0.0</ele>
        <time>2021-05-19T22:39:51Z</time>
      </trkpt>
      <trkpt lat="30.457241359732205" lon="114.43077512810846">
        <ele>0.0</ele>
        <time>2021-05-19T22:39:56Z</time>
      </trkpt>
      <trkpt lat="30.45723119597014" lon="114.43066388908372">
        <ele>0.0</ele>
        <time>2021-05-19T22:40:02Z</time>
      </trkpt>
      <trkpt lat="30.45720303127299" lon="114.43054864358272">
        <ele>0.0</ele>
        <time>2021-05-19T22:40:08Z</time>
      </trkpt>
      <trkpt lat="30.457180862650983" lon="114.430431393885">
        <ele>0.0</ele>
        <time>2021-05-19T22:40:14Z</time>
      </trkpt>
      <trkpt lat="30.457158685715402" lon="114.43030813197596">
        <ele>0.0</ele>
        <time>2021-05-19T22:40:20Z</time>
      </trkpt>
      <trkpt lat="30.457134527624465" lon="114.4301968965876">
        <ele>0.0</ele>
        <time>2021-05-19T22:40:26Z</time>
      </trkpt>
      <trkpt lat="30.45711438081938" lon="114.4300936784846">
        <ele>0.0</ele>
        <time>2021-05-19T22:40:31Z</time>
      </trkpt>
      <trkpt lat="30.45710422168025" lon="114.42998344512425">
        <ele>0.0</ele>
        <time>2021-05-19T22:40:37Z</time>
      </trkpt>
      <trkpt lat="30.457097049134955" lon="114.42986419298018">
        <ele>0.0</ele>
        <time>2021-05-19T22:40:44Z</time>
      </trkpt>
      <trkpt lat="30.45705588570662" lon="114.42974494445113">
        <ele>0.0</ele>
        <time>2021-05-19T22:40:50Z</time>
      </trkpt>
      <trkpt lat="30.457015724073297" lon="114.42962669861234">
        <ele>0.0</ele>
        <time>2021-05-19T22:40:55Z</time>
      </trkpt>
      <trkpt lat="30.456993577331936" lon="114.42952147923043">
        <ele>0.0</ele>
        <time>2021-05-19T22:41:00Z</time>
      </trkpt>
      <trkpt lat="30.456975406962663" lon="114.42940022642628">
        <ele>0.0</ele>
        <time>2021-05-19T22:41:06Z</time>
      </trkpt>
      <trkpt lat="30.456965248145863" lon="114.429287992464">
        <ele>0.0</ele>
        <time>2021-05-19T22:41:12Z</time>
      </trkpt>
      <trkpt lat="30.456937094367436" lon="114.42917576065575">
        <ele>0.0</ele>
        <time>2021-05-19T22:41:18Z</time>
      </trkpt>
      <trkpt lat="30.456915942221173" lon="114.4290655330006">
        <ele>0.0</ele>
        <time>2021-05-19T22:41:24Z</time>
      </trkpt>
      <trkpt lat="30.456896770152472" lon="114.42894127665252">
        <ele>0.0</ele>
        <time>2021-05-19T22:41:31Z</time>
      </trkpt>
      <trkpt lat="30.45688062777271" lon="114.42883806429091">
        <ele>0.0</ele>
        <time>2021-05-19T22:41:37Z</time>
      </trkpt>
      <trkpt lat="30.45685848310015" lon="114.42873184674919">
        <ele>0.0</ele>
        <time>2021-05-19T22:41:42Z</time>
      </trkpt>
      <trkpt lat="30.45683732173418" lon="114.42861360490433">
        <ele>0.0</ele>
        <time>2021-05-19T22:41:48Z</time>
      </trkpt>
      <trkpt lat="30.456862148033164" lon="114.42849435767349">
        <ele>0.0</ele>
        <time>2021-05-19T22:41:54Z</time>
      </trkpt>
      <trkpt lat="30.456870977539854" lon="114.42837411045261">
        <ele>0.0</ele>
        <time>2021-05-19T22:42:00Z</time>
      </trkpt>
      <trkpt lat="30.45692782073891" lon="114.42827189657177">
        <ele>0.0</ele>
        <time>2021-05-19T22:42:06Z</time>
      </trkpt>
      <trkpt lat="30.457018743560315" lon="114.42823280892041">
        <ele>0.0</ele>
        <time>2021-05-19T22:42:12Z</time>
      </trkpt>
      <trkpt lat="30.457106682502687" lon="114.42820474406923">
        <ele>0.0</ele>
        <time>2021-05-19T22:42:18Z</time>
      </trkpt>
      <trkpt lat="30.457198649689754" lon="114.42819772178912">
        <ele>0.0</ele>
        <time>2021-05-19T22:42:24Z</time>
      </trkpt>
      <trkpt lat="30.45729659171287" lon="114.42817366428162">
        <ele>0.0</ele>
        <time>2021-05-19T22:42:30Z</time>
      </trkpt>
      <trkpt lat="30.457395573826073" lon="114.4281786658995">
        <ele>0.0</ele>
        <time>2021-05-19T22:42:36Z</time>
      </trkpt>
      <trkpt lat="30.457453557876466" lon="114.42817765882586">
        <ele>0.0</ele>
        <time>2021-05-19T22:42:39Z</time>
      </trkpt>
    </trkseg>
  </trk>
</gpx>