<?xml version="1.0" encoding="UTF-8"?>
<gpx xmlns="http://www.topografix.com/GPX/1/1" xmlns:gpxtpx="http://www.garmin.com/xmlschemas/TrackPointExtension/v1" xmlns:xsi="http://www.w3.org/2001/XMLSchema-instance" xsi:schemaLocation="http://www.topografix.com/GPX/1/1 http://www.topografix.com/GPX/1/1/gpx.xsd" version="1.1" creator="gpx.py -- https://github.com/tkrajina/gpxpy">
  <trk>
    <name>gpx from keep</name>
    <type>Run</type>
    <trkseg>
      <trkpt lat="30.45688011263529" lon="114.42847231088001">
        <ele>0.0</ele>
        <time>2021-05-17T22:20:52Z</time>
      </trkpt>
      <trkpt lat="30.456816250937425" lon="114.42855949543812">
        <ele>0.0</ele>
        <time>2021-05-17T22:20:58Z</time>
      </trkpt>
      <trkpt lat="30.45676238564178" lon="114.42864567742427">
        <ele>0.0</ele>
        <time>2021-05-17T22:21:05Z</time>
      </trkpt>
      <trkpt lat="30.456814506851856" lon="114.42874086917793">
        <ele>0.0</ele>
        <time>2021-05-17T22:21:12Z</time>
      </trkpt>
      <trkpt lat="30.45682669809294" lon="114.42887815192493">
        <ele>0.0</ele>
        <time>2021-05-17T22:21:18Z</time>
      </trkpt>
      <trkpt lat="30.456843841822394" lon="114.4289823664745">
        <ele>0.0</ele>
        <time>2021-05-17T22:21:23Z</time>
      </trkpt>
      <trkpt lat="30.456865989045045" lon="114.42908958735644">
        <ele>0.0</ele>
        <time>2021-05-17T22:21:27Z</time>
      </trkpt>
      <trkpt lat="30.45688113850388" lon="114.42919680938735">
        <ele>0.0</ele>
        <time>2021-05-17T22:21:31Z</time>
      </trkpt>
      <trkpt lat="30.456914275305156" lon="114.4292980178304">
        <ele>0.0</ele>
        <time>2021-05-17T22:21:35Z</time>
      </trkpt>
      <trkpt lat="30.456923458959967" lon="114.42942728763576">
        <ele>0.0</ele>
        <time>2021-05-17T22:21:40Z</time>
      </trkpt>
      <trkpt lat="30.456926611495767" lon="114.42953351030542">
        <ele>0.0</ele>
        <time>2021-05-17T22:21:45Z</time>
      </trkpt>
      <trkpt lat="30.45695475969395" lon="114.42964073344744">
        <ele>0.0</ele>
        <time>2021-05-17T22:21:50Z</time>
      </trkpt>
      <trkpt lat="30.45697892978193" lon="114.42976198710042">
        <ele>0.0</ele>
        <time>2021-05-17T22:21:56Z</time>
      </trkpt>
      <trkpt lat="30.456997080047636" lon="114.42986821013771">
        <ele>0.0</ele>
        <time>2021-05-17T22:22:01Z</time>
      </trkpt>
      <trkpt lat="30.457015239586454" lon="114.42998044646252">
        <ele>0.0</ele>
        <time>2021-05-17T22:22:06Z</time>
      </trkpt>
      <trkpt lat="30.457035397678162" lon="114.43009168107176">
        <ele>0.0</ele>
        <time>2021-05-17T22:22:12Z</time>
      </trkpt>
      <trkpt lat="30.457042562497037" lon="114.43020492166127">
        <ele>0.0</ele>
        <time>2021-05-17T22:22:18Z</time>
      </trkpt>
      <trkpt lat="30.457066711741412" lon="114.43031014423786">
        <ele>0.0</ele>
        <time>2021-05-17T22:22:23Z</time>
      </trkpt>
      <trkpt lat="30.457082887221393" lon="114.43043140238294">
        <ele>0.0</ele>
        <time>2021-05-17T22:22:28Z</time>
      </trkpt>
      <trkpt lat="30.457104060568856" lon="114.430551658627">
        <ele>0.0</ele>
        <time>2021-05-17T22:22:34Z</time>
      </trkpt>
      <trkpt lat="30.457131207588006" lon="114.4306548783292">
        <ele>0.0</ele>
        <time>2021-05-17T22:22:39Z</time>
      </trkpt>
      <trkpt lat="30.457154362050698" lon="114.43076210752676">
        <ele>0.0</ele>
        <time>2021-05-17T22:22:44Z</time>
      </trkpt>
      <trkpt lat="30.457188524762056" lon="114.43087635148396">
        <ele>0.0</ele>
        <time>2021-05-17T22:22:50Z</time>
      </trkpt>
      <trkpt lat="30.457212705615948" lon="114.4310006186555">
        <ele>0.0</ele>
        <time>2021-05-17T22:22:56Z</time>
      </trkpt>
      <trkpt lat="30.45723587827225" lon="114.4311188735514">
        <ele>0.0</ele>
        <time>2021-05-17T22:23:02Z</time>
      </trkpt>
      <trkpt lat="30.457240039561714" lon="114.43122610670814">
        <ele>0.0</ele>
        <time>2021-05-17T22:23:08Z</time>
      </trkpt>
      <trkpt lat="30.457261206203995" lon="114.43133935206336">
        <ele>0.0</ele>
        <time>2021-05-17T22:23:13Z</time>
      </trkpt>
      <trkpt lat="30.457278366738166" lon="114.43144758738352">
        <ele>0.0</ele>
        <time>2021-05-17T22:23:18Z</time>
      </trkpt>
      <trkpt lat="30.457293546652267" lon="114.43156784982322">
        <ele>0.0</ele>
        <time>2021-05-17T22:23:24Z</time>
      </trkpt>
      <trkpt lat="30.4573226944339" lon="114.43166906980865">
        <ele>0.0</ele>
        <time>2021-05-17T22:23:29Z</time>
      </trkpt>
      <trkpt lat="30.45734387085599" lon="114.4317873285374">
        <ele>0.0</ele>
        <time>2021-05-17T22:23:35Z</time>
      </trkpt>
      <trkpt lat="30.45736705199324" lon="114.43190859438704">
        <ele>0.0</ele>
        <time>2021-05-17T22:23:41Z</time>
      </trkpt>
      <trkpt lat="30.457370217027588" lon="114.43201583154496">
        <ele>0.0</ele>
        <time>2021-05-17T22:23:46Z</time>
      </trkpt>
      <trkpt lat="30.457336379372432" lon="114.43211505463074">
        <ele>0.0</ele>
        <time>2021-05-17T22:23:51Z</time>
      </trkpt>
      <trkpt lat="30.457247456175487" lon="114.43215014028023">
        <ele>0.0</ele>
        <time>2021-05-17T22:23:56Z</time>
      </trkpt>
      <trkpt lat="30.45716053096121" lon="114.43218422358368">
        <ele>0.0</ele>
        <time>2021-05-17T22:24:01Z</time>
      </trkpt>
      <trkpt lat="30.45705757860666" lon="114.43219826372317">
        <ele>0.0</ele>
        <time>2021-05-17T22:24:07Z</time>
      </trkpt>
      <trkpt lat="30.456958651768606" lon="114.43222934144808">
        <ele>0.0</ele>
        <time>2021-05-17T22:24:13Z</time>
      </trkpt>
      <trkpt lat="30.456848726153726" lon="114.43225941793804">
        <ele>0.0</ele>
        <time>2021-05-17T22:24:19Z</time>
      </trkpt>
      <trkpt lat="30.456750760062608" lon="114.43226543982819">
        <ele>0.0</ele>
        <time>2021-05-17T22:24:25Z</time>
      </trkpt>
      <trkpt lat="30.456659857858142" lon="114.43231355494412">
        <ele>0.0</ele>
        <time>2021-05-17T22:24:30Z</time>
      </trkpt>
      <trkpt lat="30.45656393976936" lon="114.43235064599253">
        <ele>0.0</ele>
        <time>2021-05-17T22:24:35Z</time>
      </trkpt>
      <trkpt lat="30.45647397950144" lon="114.43236167839983">
        <ele>0.0</ele>
        <time>2021-05-17T22:24:40Z</time>
      </trkpt>
      <trkpt lat="30.456377052314675" lon="114.4323927561836">
        <ele>0.0</ele>
        <time>2021-05-17T22:24:45Z</time>
      </trkpt>
      <trkpt lat="30.456280126726636" lon="114.43242483625166">
        <ele>0.0</ele>
        <time>2021-05-17T22:24:50Z</time>
      </trkpt>
      <trkpt lat="30.456186184726562" lon="114.43244689369284">
        <ele>0.0</ele>
        <time>2021-05-17T22:24:55Z</time>
      </trkpt>
      <trkpt lat="30.456097249341013" lon="114.43247396193429">
        <ele>0.0</ele>
        <time>2021-05-17T22:25:01Z</time>
      </trkpt>
      <trkpt lat="30.455999311509583" lon="114.43249802425846">
        <ele>0.0</ele>
        <time>2021-05-17T22:25:07Z</time>
      </trkpt>
      <trkpt lat="30.455908353079547" lon="114.4325100590704">
        <ele>0.0</ele>
        <time>2021-05-17T22:25:13Z</time>
      </trkpt>
      <trkpt lat="30.45580641469015" lon="114.43253311953563">
        <ele>0.0</ele>
        <time>2021-05-17T22:25:20Z</time>
      </trkpt>
      <trkpt lat="30.45571148401081" lon="114.43256219289631">
        <ele>0.0</ele>
        <time>2021-05-17T22:25:26Z</time>
      </trkpt>
      <trkpt lat="30.45561853868291" lon="114.43258224589408">
        <ele>0.0</ele>
        <time>2021-05-17T22:25:31Z</time>
      </trkpt>
      <trkpt lat="30.455521603814557" lon="114.43260831274733">
        <ele>0.0</ele>
        <time>2021-05-17T22:25:36Z</time>
      </trkpt>
      <trkpt lat="30.455427660332923" lon="114.43262936812336">
        <ele>0.0</ele>
        <time>2021-05-17T22:25:42Z</time>
      </trkpt>
      <trkpt lat="30.455321704073054" lon="114.4326404020569">
        <ele>0.0</ele>
        <time>2021-05-17T22:25:48Z</time>
      </trkpt>
      <trkpt lat="30.455223763174043" lon="114.43266246006128">
        <ele>0.0</ele>
        <time>2021-05-17T22:25:54Z</time>
      </trkpt>
      <trkpt lat="30.45512981339553" lon="114.4326795064815">
        <ele>0.0</ele>
        <time>2021-05-17T22:26:00Z</time>
      </trkpt>
      <trkpt lat="30.455025880324605" lon="114.43270557405673">
        <ele>0.0</ele>
        <time>2021-05-17T22:26:06Z</time>
      </trkpt>
      <trkpt lat="30.454917926134616" lon="114.43271761045516">
        <ele>0.0</ele>
        <time>2021-05-17T22:26:12Z</time>
      </trkpt>
      <trkpt lat="30.454823979528555" lon="114.4327366614268">
        <ele>0.0</ele>
        <time>2021-05-17T22:26:18Z</time>
      </trkpt>
      <trkpt lat="30.45473604251358" lon="114.43276272768324">
        <ele>0.0</ele>
        <time>2021-05-17T22:26:23Z</time>
      </trkpt>
      <trkpt lat="30.454634085248546" lon="114.43277376133672">
        <ele>0.0</ele>
        <time>2021-05-17T22:26:29Z</time>
      </trkpt>
      <trkpt lat="30.454542147665467" lon="114.43279882572644">
        <ele>0.0</ele>
        <time>2021-05-17T22:26:35Z</time>
      </trkpt>
      <trkpt lat="30.454445197078517" lon="114.4328148702541">
        <ele>0.0</ele>
        <time>2021-05-17T22:26:41Z</time>
      </trkpt>
      <trkpt lat="30.45435715397761" lon="114.43277378534">
        <ele>0.0</ele>
        <time>2021-05-17T22:26:49Z</time>
      </trkpt>
      <trkpt lat="30.454279040511135" lon="114.43268960274713">
        <ele>0.0</ele>
        <time>2021-05-17T22:26:55Z</time>
      </trkpt>
      <trkpt lat="30.45422989650783" lon="114.43259038424519">
        <ele>0.0</ele>
        <time>2021-05-17T22:27:01Z</time>
      </trkpt>
      <trkpt lat="30.454201722567426" lon="114.43247512849028">
        <ele>0.0</ele>
        <time>2021-05-17T22:27:07Z</time>
      </trkpt>
      <trkpt lat="30.454184551141946" lon="114.43236287910301">
        <ele>0.0</ele>
        <time>2021-05-17T22:27:13Z</time>
      </trkpt>
      <trkpt lat="30.454168379984935" lon="114.4322506302076">
        <ele>0.0</ele>
        <time>2021-05-17T22:27:19Z</time>
      </trkpt>
      <trkpt lat="30.454152204674894" lon="114.43213537521076">
        <ele>0.0</ele>
        <time>2021-05-17T22:27:25Z</time>
      </trkpt>
      <trkpt lat="30.454136037669695" lon="114.43202513193285">
        <ele>0.0</ele>
        <time>2021-05-17T22:27:31Z</time>
      </trkpt>
      <trkpt lat="30.454120863179376" lon="114.43190987804554">
        <ele>0.0</ele>
        <time>2021-05-17T22:27:37Z</time>
      </trkpt>
      <trkpt lat="30.454101696396688" lon="114.43179863396168">
        <ele>0.0</ele>
        <time>2021-05-17T22:27:43Z</time>
      </trkpt>
      <trkpt lat="30.454084529627917" lon="114.43168739027541">
        <ele>0.0</ele>
        <time>2021-05-17T22:27:49Z</time>
      </trkpt>
      <trkpt lat="30.454067363369013" lon="114.43157614716063">
        <ele>0.0</ele>
        <time>2021-05-17T22:27:55Z</time>
      </trkpt>
      <trkpt lat="30.454049199397" lon="114.4314659069003">
        <ele>0.0</ele>
        <time>2021-05-17T22:28:01Z</time>
      </trkpt>
      <trkpt lat="30.45402602954367" lon="114.43135065668272">
        <ele>0.0</ele>
        <time>2021-05-17T22:28:07Z</time>
      </trkpt>
      <trkpt lat="30.45400285720024" lon="114.43123340271012">
        <ele>0.0</ele>
        <time>2021-05-17T22:28:13Z</time>
      </trkpt>
      <trkpt lat="30.453989687492367" lon="114.43111915504686">
        <ele>0.0</ele>
        <time>2021-05-17T22:28:19Z</time>
      </trkpt>
      <trkpt lat="30.4539725178055" lon="114.43100390616152">
        <ele>0.0</ele>
        <time>2021-05-17T22:28:25Z</time>
      </trkpt>
      <trkpt lat="30.45395734967868" lon="114.43088965988863">
        <ele>0.0</ele>
        <time>2021-05-17T22:28:31Z</time>
      </trkpt>
      <trkpt lat="30.45394219259588" lon="114.43078242936953">
        <ele>0.0</ele>
        <time>2021-05-17T22:28:37Z</time>
      </trkpt>
      <trkpt lat="30.453923036980502" lon="114.43067519973212">
        <ele>0.0</ele>
        <time>2021-05-17T22:28:43Z</time>
      </trkpt>
      <trkpt lat="30.453903881842564" lon="114.43056797063008">
        <ele>0.0</ele>
        <time>2021-05-17T22:28:49Z</time>
      </trkpt>
      <trkpt lat="30.453894721733025" lon="114.43045873689888">
        <ele>0.0</ele>
        <time>2021-05-17T22:28:55Z</time>
      </trkpt>
      <trkpt lat="30.45387956508766" lon="114.43035050638824">
        <ele>0.0</ele>
        <time>2021-05-17T22:29:01Z</time>
      </trkpt>
      <trkpt lat="30.453856410909996" lon="114.43024227711801">
        <ele>0.0</ele>
        <time>2021-05-17T22:29:07Z</time>
      </trkpt>
      <trkpt lat="30.453842240260045" lon="114.43012402627969">
        <ele>0.0</ele>
        <time>2021-05-17T22:29:14Z</time>
      </trkpt>
      <trkpt lat="30.45382009419972" lon="114.43002080871003">
        <ele>0.0</ele>
        <time>2021-05-17T22:29:20Z</time>
      </trkpt>
      <trkpt lat="30.453806918540142" lon="114.4298985505189">
        <ele>0.0</ele>
        <time>2021-05-17T22:29:27Z</time>
      </trkpt>
      <trkpt lat="30.453786772956533" lon="114.42979533386548">
        <ele>0.0</ele>
        <time>2021-05-17T22:29:33Z</time>
      </trkpt>
      <trkpt lat="30.453772626333734" lon="114.42969211719121">
        <ele>0.0</ele>
        <time>2021-05-17T22:29:39Z</time>
      </trkpt>
      <trkpt lat="30.453756471948317" lon="114.42958288854219">
        <ele>0.0</ele>
        <time>2021-05-17T22:29:45Z</time>
      </trkpt>
      <trkpt lat="30.45374732356042" lon="114.42947867036047">
        <ele>0.0</ele>
        <time>2021-05-17T22:29:50Z</time>
      </trkpt>
      <trkpt lat="30.453725162988043" lon="114.42936343074088">
        <ele>0.0</ele>
        <time>2021-05-17T22:29:56Z</time>
      </trkpt>
      <trkpt lat="30.45372899654124" lon="114.429248189491">
        <ele>0.0</ele>
        <time>2021-05-17T22:30:02Z</time>
      </trkpt>
      <trkpt lat="30.453778842181233" lon="114.42914897826914">
        <ele>0.0</ele>
        <time>2021-05-17T22:30:08Z</time>
      </trkpt>
      <trkpt lat="30.45387074070999" lon="114.42909385555384">
        <ele>0.0</ele>
        <time>2021-05-17T22:30:14Z</time>
      </trkpt>
      <trkpt lat="30.453971684260726" lon="114.42907180093965">
        <ele>0.0</ele>
        <time>2021-05-17T22:30:20Z</time>
      </trkpt>
      <trkpt lat="30.454067614782684" lon="114.42903972595688">
        <ele>0.0</ele>
        <time>2021-05-17T22:30:26Z</time>
      </trkpt>
      <trkpt lat="30.45415954632999" lon="114.42900765136937">
        <ele>0.0</ele>
        <time>2021-05-17T22:30:32Z</time>
      </trkpt>
      <trkpt lat="30.454251483611973" lon="114.4289795851475">
        <ele>0.0</ele>
        <time>2021-05-17T22:30:38Z</time>
      </trkpt>
      <trkpt lat="30.454341419990875" lon="114.42895051705803">
        <ele>0.0</ele>
        <time>2021-05-17T22:30:44Z</time>
      </trkpt>
      <trkpt lat="30.45443139197484" lon="114.42894650094006">
        <ele>0.0</ele>
        <time>2021-05-17T22:30:50Z</time>
      </trkpt>
      <trkpt lat="30.45452233666527" lon="114.42892344526877">
        <ele>0.0</ele>
        <time>2021-05-17T22:30:56Z</time>
      </trkpt>
      <trkpt lat="30.454614286808745" lon="114.42890439783882">
        <ele>0.0</ele>
        <time>2021-05-17T22:31:02Z</time>
      </trkpt>
      <trkpt lat="30.45470523862855" lon="114.42888635258761">
        <ele>0.0</ele>
        <time>2021-05-17T22:31:08Z</time>
      </trkpt>
      <trkpt lat="30.454793174158215" lon="114.42885628272515">
        <ele>0.0</ele>
        <time>2021-05-17T22:31:14Z</time>
      </trkpt>
      <trkpt lat="30.45488612124451" lon="114.42883523112316">
        <ele>0.0</ele>
        <time>2021-05-17T22:31:20Z</time>
      </trkpt>
      <trkpt lat="30.45497606908673" lon="114.42881417980216">
        <ele>0.0</ele>
        <time>2021-05-17T22:31:26Z</time>
      </trkpt>
      <trkpt lat="30.455069016193573" lon="114.42879312824175">
        <ele>0.0</ele>
        <time>2021-05-17T22:31:32Z</time>
      </trkpt>
      <trkpt lat="30.455162957397043" lon="114.42876806833725">
        <ele>0.0</ele>
        <time>2021-05-17T22:31:38Z</time>
      </trkpt>
      <trkpt lat="30.455260887718506" lon="114.42873599363863">
        <ele>0.0</ele>
        <time>2021-05-17T22:31:44Z</time>
      </trkpt>
      <trkpt lat="30.45535684826235" lon="114.42872496256702">
        <ele>0.0</ele>
        <time>2021-05-17T22:31:50Z</time>
      </trkpt>
      <trkpt lat="30.45545380007105" lon="114.42870791901386">
        <ele>0.0</ele>
        <time>2021-05-17T22:31:56Z</time>
      </trkpt>
      <trkpt lat="30.45555474523504" lon="114.42868686686452">
        <ele>0.0</ele>
        <time>2021-05-17T22:32:02Z</time>
      </trkpt>
      <trkpt lat="30.45564369481055" lon="114.42866681784157">
        <ele>0.0</ele>
        <time>2021-05-17T22:32:07Z</time>
      </trkpt>
      <trkpt lat="30.455747633600634" lon="114.42864175721833">
        <ele>0.0</ele>
        <time>2021-05-17T22:32:13Z</time>
      </trkpt>
      <trkpt lat="30.45584357440215" lon="114.42861669731859">
        <ele>0.0</ele>
        <time>2021-05-17T22:32:19Z</time>
      </trkpt>
      <trkpt lat="30.45594252433401" lon="114.42859865161707">
        <ele>0.0</ele>
        <time>2021-05-17T22:32:25Z</time>
      </trkpt>
      <trkpt lat="30.456044462256894" lon="114.4285725891874">
        <ele>0.0</ele>
        <time>2021-05-17T22:32:31Z</time>
      </trkpt>
      <trkpt lat="30.45613139972424" lon="114.42854352191421">
        <ele>0.0</ele>
        <time>2021-05-17T22:32:37Z</time>
      </trkpt>
      <trkpt lat="30.456220349370316" lon="114.42852347302637">
        <ele>0.0</ele>
        <time>2021-05-17T22:32:43Z</time>
      </trkpt>
      <trkpt lat="30.456309294810975" lon="114.42850041798685">
        <ele>0.0</ele>
        <time>2021-05-17T22:32:49Z</time>
      </trkpt>
      <trkpt lat="30.456407242227897" lon="114.42848036835892">
        <ele>0.0</ele>
        <time>2021-05-17T22:32:55Z</time>
      </trkpt>
      <trkpt lat="30.456499199572242" lon="114.42846633160062">
        <ele>0.0</ele>
        <time>2021-05-17T22:33:01Z</time>
      </trkpt>
      <trkpt lat="30.456593148000405" lon="114.4284462823518">
        <ele>0.0</ele>
        <time>2021-05-17T22:33:07Z</time>
      </trkpt>
      <trkpt lat="30.456689154843147" lon="114.42846831922823">
        <ele>0.0</ele>
        <time>2021-05-17T22:33:13Z</time>
      </trkpt>
      <trkpt lat="30.456755254953485" lon="114.4285514842546">
        <ele>0.0</ele>
        <time>2021-05-17T22:33:19Z</time>
      </trkpt>
      <trkpt lat="30.456784390011325" lon="114.42865268996277">
        <ele>0.0</ele>
        <time>2021-05-17T22:33:25Z</time>
      </trkpt>
      <trkpt lat="30.45680155399103" lon="114.42877193444251">
        <ele>0.0</ele>
        <time>2021-05-17T22:33:32Z</time>
      </trkpt>
      <trkpt lat="30.456824692911106" lon="114.42887414380004">
        <ele>0.0</ele>
        <time>2021-05-17T22:33:38Z</time>
      </trkpt>
      <trkpt lat="30.45684484869822" lon="114.42898737678645">
        <ele>0.0</ele>
        <time>2021-05-17T22:33:44Z</time>
      </trkpt>
      <trkpt lat="30.45687200613151" lon="114.42910261394088">
        <ele>0.0</ele>
        <time>2021-05-17T22:33:50Z</time>
      </trkpt>
      <trkpt lat="30.456893164190205" lon="114.42921685015084">
        <ele>0.0</ele>
        <time>2021-05-17T22:33:56Z</time>
      </trkpt>
      <trkpt lat="30.456911317789142" lon="114.42932707885153">
        <ele>0.0</ele>
        <time>2021-05-17T22:34:02Z</time>
      </trkpt>
      <trkpt lat="30.456935471838914" lon="114.42943830970454">
        <ele>0.0</ele>
        <time>2021-05-17T22:34:08Z</time>
      </trkpt>
      <trkpt lat="30.456952619467497" lon="114.4295435291089">
        <ele>0.0</ele>
        <time>2021-05-17T22:34:14Z</time>
      </trkpt>
      <trkpt lat="30.45695078249344" lon="114.42965576545951">
        <ele>0.0</ele>
        <time>2021-05-17T22:34:20Z</time>
      </trkpt>
      <trkpt lat="30.45696394812169" lon="114.42977200956726">
        <ele>0.0</ele>
        <time>2021-05-17T22:34:26Z</time>
      </trkpt>
      <trkpt lat="30.457001098059738" lon="114.42988123737229">
        <ele>0.0</ele>
        <time>2021-05-17T22:34:32Z</time>
      </trkpt>
      <trkpt lat="30.457017268435187" lon="114.43000048883076">
        <ele>0.0</ele>
        <time>2021-05-17T22:34:38Z</time>
      </trkpt>
      <trkpt lat="30.457047425586225" lon="114.4301127248099">
        <ele>0.0</ele>
        <time>2021-05-17T22:34:44Z</time>
      </trkpt>
      <trkpt lat="30.45705459050443" lon="114.43022596551084">
        <ele>0.0</ele>
        <time>2021-05-17T22:34:50Z</time>
      </trkpt>
      <trkpt lat="30.457082741801713" lon="114.43033319213022">
        <ele>0.0</ele>
        <time>2021-05-17T22:34:56Z</time>
      </trkpt>
      <trkpt lat="30.45710590523585" lon="114.43044743475824">
        <ele>0.0</ele>
        <time>2021-05-17T22:35:02Z</time>
      </trkpt>
      <trkpt lat="30.457125068724263" lon="114.43056067618814">
        <ele>0.0</ele>
        <time>2021-05-17T22:35:08Z</time>
      </trkpt>
      <trkpt lat="30.457145232494938" lon="114.43067391812896">
        <ele>0.0</ele>
        <time>2021-05-17T22:35:14Z</time>
      </trkpt>
      <trkpt lat="30.457167403800856" lon="114.43079217131577">
        <ele>0.0</ele>
        <time>2021-05-17T22:35:20Z</time>
      </trkpt>
      <trkpt lat="30.45718556765547" lon="114.43090441248027">
        <ele>0.0</ele>
        <time>2021-05-17T22:35:26Z</time>
      </trkpt>
      <trkpt lat="30.45720172800325" lon="114.43101364787884">
        <ele>0.0</ele>
        <time>2021-05-17T22:35:32Z</time>
      </trkpt>
      <trkpt lat="30.457218885565204" lon="114.43112087938495">
        <ele>0.0</ele>
        <time>2021-05-17T22:35:38Z</time>
      </trkpt>
      <trkpt lat="30.457246035018873" lon="114.4312241018185">
        <ele>0.0</ele>
        <time>2021-05-17T22:35:44Z</time>
      </trkpt>
      <trkpt lat="30.45726319199093" lon="114.43133033218162">
        <ele>0.0</ele>
        <time>2021-05-17T22:35:50Z</time>
      </trkpt>
      <trkpt lat="30.45728134612307" lon="114.43143455859173">
        <ele>0.0</ele>
        <time>2021-05-17T22:35:56Z</time>
      </trkpt>
      <trkpt lat="30.457302499950973" lon="114.43153878524454">
        <ele>0.0</ele>
        <time>2021-05-17T22:36:02Z</time>
      </trkpt>
      <trkpt lat="30.457330660152145" lon="114.4316480228139">
        <ele>0.0</ele>
        <time>2021-05-17T22:36:08Z</time>
      </trkpt>
      <trkpt lat="30.457341831274658" lon="114.43176127124617">
        <ele>0.0</ele>
        <time>2021-05-17T22:36:14Z</time>
      </trkpt>
      <trkpt lat="30.45736099473507" lon="114.431870510718">
        <ele>0.0</ele>
        <time>2021-05-17T22:36:20Z</time>
      </trkpt>
      <trkpt lat="30.45737616279054" lon="114.43198175552621">
        <ele>0.0</ele>
        <time>2021-05-17T22:36:26Z</time>
      </trkpt>
      <trkpt lat="30.457355326397604" lon="114.43208398400282">
        <ele>0.0</ele>
        <time>2021-05-17T22:36:31Z</time>
      </trkpt>
      <trkpt lat="30.457281444532413" lon="114.43214813287823">
        <ele>0.0</ele>
        <time>2021-05-17T22:36:36Z</time>
      </trkpt>
      <trkpt lat="30.45719254631981" lon="114.43219925425166">
        <ele>0.0</ele>
        <time>2021-05-17T22:36:42Z</time>
      </trkpt>
      <trkpt lat="30.45709862292434" lon="114.43223333823862">
        <ele>0.0</ele>
        <time>2021-05-17T22:36:48Z</time>
      </trkpt>
      <trkpt lat="30.457002696945125" lon="114.43226541798639">
        <ele>0.0</ele>
        <time>2021-05-17T22:36:54Z</time>
      </trkpt>
      <trkpt lat="30.4569027532454" lon="114.43228547131959">
        <ele>0.0</ele>
        <time>2021-05-17T22:37:00Z</time>
      </trkpt>
      <trkpt lat="30.45680181136626" lon="114.4323065269925">
        <ele>0.0</ele>
        <time>2021-05-17T22:37:06Z</time>
      </trkpt>
      <trkpt lat="30.45670685235102" lon="114.43231755981105">
        <ele>0.0</ele>
        <time>2021-05-17T22:37:12Z</time>
      </trkpt>
      <trkpt lat="30.45661895575919" lon="114.43236968373208">
        <ele>0.0</ele>
        <time>2021-05-17T22:37:18Z</time>
      </trkpt>
      <trkpt lat="30.456520997505713" lon="114.43238071684237">
        <ele>0.0</ele>
        <time>2021-05-17T22:37:24Z</time>
      </trkpt>
      <trkpt lat="30.45641905121843" lon="114.43239876597637">
        <ele>0.0</ele>
        <time>2021-05-17T22:37:30Z</time>
      </trkpt>
      <trkpt lat="30.45632613091772" lon="114.43243485466871">
        <ele>0.0</ele>
        <time>2021-05-17T22:37:36Z</time>
      </trkpt>
      <trkpt lat="30.456228202489687" lon="114.43246493040117">
        <ele>0.0</ele>
        <time>2021-05-17T22:37:42Z</time>
      </trkpt>
      <trkpt lat="30.456129244491194" lon="114.43247596364586">
        <ele>0.0</ele>
        <time>2021-05-17T22:37:48Z</time>
      </trkpt>
      <trkpt lat="30.456039295239282" lon="114.43249401181818">
        <ele>0.0</ele>
        <time>2021-05-17T22:37:54Z</time>
      </trkpt>
      <trkpt lat="30.455946356174262" lon="114.43251807373105">
        <ele>0.0</ele>
        <time>2021-05-17T22:38:00Z</time>
      </trkpt>
      <trkpt lat="30.455849403964567" lon="114.43253311580908">
        <ele>0.0</ele>
        <time>2021-05-17T22:38:06Z</time>
      </trkpt>
      <trkpt lat="30.455751458298572" lon="114.43255216696762">
        <ele>0.0</ele>
        <time>2021-05-17T22:38:12Z</time>
      </trkpt>
      <trkpt lat="30.45564552407945" lon="114.43257723231794">
        <ele>0.0</ele>
        <time>2021-05-17T22:38:18Z</time>
      </trkpt>
      <trkpt lat="30.45554058805011" lon="114.43260129536196">
        <ele>0.0</ele>
        <time>2021-05-17T22:38:24Z</time>
      </trkpt>
      <trkpt lat="30.455448644066077" lon="114.43262235055793">
        <ele>0.0</ele>
        <time>2021-05-17T22:38:30Z</time>
      </trkpt>
      <trkpt lat="30.455352694778384" lon="114.43263939712044">
        <ele>0.0</ele>
        <time>2021-05-17T22:38:36Z</time>
      </trkpt>
      <trkpt lat="30.455260757122876" lon="114.43266446135705">
        <ele>0.0</ele>
        <time>2021-05-17T22:38:42Z</time>
      </trkpt>
      <trkpt lat="30.4551598264618" lon="114.43269253315925">
        <ele>0.0</ele>
        <time>2021-05-17T22:38:49Z</time>
      </trkpt>
      <trkpt lat="30.455066892252894" lon="114.43271960205041">
        <ele>0.0</ele>
        <time>2021-05-17T22:38:55Z</time>
      </trkpt>
      <trkpt lat="30.45496694873504" lon="114.4327396557984">
        <ele>0.0</ele>
        <time>2021-05-17T22:39:01Z</time>
      </trkpt>
      <trkpt lat="30.45486499622842" lon="114.43275369620586">
        <ele>0.0</ele>
        <time>2021-05-17T22:39:07Z</time>
      </trkpt>
      <trkpt lat="30.454761053712122" lon="114.4327737503315">
        <ele>0.0</ele>
        <time>2021-05-17T22:39:13Z</time>
      </trkpt>
      <trkpt lat="30.454658122039312" lon="114.4328008201892">
        <ele>0.0</ele>
        <time>2021-05-17T22:39:19Z</time>
      </trkpt>
      <trkpt lat="30.4545591798842" lon="114.43282187618277">
        <ele>0.0</ele>
        <time>2021-05-17T22:39:25Z</time>
      </trkpt>
      <trkpt lat="30.454455181923628" lon="114.43280685132498">
        <ele>0.0</ele>
        <time>2021-05-17T22:39:31Z</time>
      </trkpt>
      <trkpt lat="30.45435912341681" lon="114.43275474230869">
        <ele>0.0</ele>
        <time>2021-05-17T22:39:37Z</time>
      </trkpt>
      <trkpt lat="30.45428001973578" lon="114.43267657338501">
        <ele>0.0</ele>
        <time>2021-05-17T22:39:43Z</time>
      </trkpt>
      <trkpt lat="30.4542258691517" lon="114.43257234414064">
        <ele>0.0</ele>
        <time>2021-05-17T22:39:49Z</time>
      </trkpt>
      <trkpt lat="30.45420369223959" lon="114.43245608571955">
        <ele>0.0</ele>
        <time>2021-05-17T22:39:55Z</time>
      </trkpt>
      <trkpt lat="30.45418651620659" lon="114.43234082972147">
        <ele>0.0</ele>
        <time>2021-05-17T22:40:01Z</time>
      </trkpt>
      <trkpt lat="30.454170338909968" lon="114.43222457201587">
        <ele>0.0</ele>
        <time>2021-05-17T22:40:07Z</time>
      </trkpt>
      <trkpt lat="30.454154168389856" lon="114.43211232383405">
        <ele>0.0</ele>
        <time>2021-05-17T22:40:13Z</time>
      </trkpt>
      <trkpt lat="30.454133002727943" lon="114.43200208110643">
        <ele>0.0</ele>
        <time>2021-05-17T22:40:19Z</time>
      </trkpt>
      <trkpt lat="30.45411584121406" lon="114.4318948452387">
        <ele>0.0</ele>
        <time>2021-05-17T22:40:25Z</time>
      </trkpt>
      <trkpt lat="30.454097680420876" lon="114.43178760998777">
        <ele>0.0</ele>
        <time>2021-05-17T22:40:31Z</time>
      </trkpt>
      <trkpt lat="30.454086513753914" lon="114.43167736804364">
        <ele>0.0</ele>
        <time>2021-05-17T22:40:37Z</time>
      </trkpt>
      <trkpt lat="30.454071350111814" lon="114.43156812920802">
        <ele>0.0</ele>
        <time>2021-05-17T22:40:43Z</time>
      </trkpt>
      <trkpt lat="30.45405218183851" lon="114.43145488248912">
        <ele>0.0</ele>
        <time>2021-05-17T22:40:49Z</time>
      </trkpt>
      <trkpt lat="30.45403401841833" lon="114.43134464284728">
        <ele>0.0</ele>
        <time>2021-05-17T22:40:55Z</time>
      </trkpt>
      <trkpt lat="30.454016850694796" lon="114.43123139712655">
        <ele>0.0</ele>
        <time>2021-05-17T22:41:01Z</time>
      </trkpt>
      <trkpt lat="30.453998682234744" lon="114.43111714990732">
        <ele>0.0</ele>
        <time>2021-05-17T22:41:07Z</time>
      </trkpt>
      <trkpt lat="30.453982519858833" lon="114.4310069118179">
        <ele>0.0</ele>
        <time>2021-05-17T22:41:13Z</time>
      </trkpt>
      <trkpt lat="30.453966357986356" lon="114.43089667429278">
        <ele>0.0</ele>
        <time>2021-05-17T22:41:19Z</time>
      </trkpt>
      <trkpt lat="30.45394519035263" lon="114.43078142694543">
        <ele>0.0</ele>
        <time>2021-05-17T22:41:25Z</time>
      </trkpt>
      <trkpt lat="30.453924021774256" lon="114.43066517805738">
        <ele>0.0</ele>
        <time>2021-05-17T22:41:31Z</time>
      </trkpt>
      <trkpt lat="30.453900864688855" lon="114.43055594504516">
        <ele>0.0</ele>
        <time>2021-05-17T22:41:37Z</time>
      </trkpt>
      <trkpt lat="30.45388969918311" lon="114.43044270295552">
        <ele>0.0</ele>
        <time>2021-05-17T22:41:43Z</time>
      </trkpt>
      <trkpt lat="30.453862544098126" lon="114.4303334714232">
        <ele>0.0</ele>
        <time>2021-05-17T22:41:49Z</time>
      </trkpt>
      <trkpt lat="30.45384738358536" lon="114.43022223513168">
        <ele>0.0</ele>
        <time>2021-05-17T22:41:55Z</time>
      </trkpt>
      <trkpt lat="30.453826229490875" lon="114.43011400633671">
        <ele>0.0</ele>
        <time>2021-05-17T22:42:01Z</time>
      </trkpt>
      <trkpt lat="30.45381806679578" lon="114.43000176845179">
        <ele>0.0</ele>
        <time>2021-05-17T22:42:07Z</time>
      </trkpt>
      <trkpt lat="30.45379790759602" lon="114.42988953219701">
        <ele>0.0</ele>
        <time>2021-05-17T22:42:13Z</time>
      </trkpt>
      <trkpt lat="30.453779755720916" lon="114.42978230694449">
        <ele>0.0</ele>
        <time>2021-05-17T22:42:19Z</time>
      </trkpt>
      <trkpt lat="30.453755604356576" lon="114.42967408063913">
        <ele>0.0</ele>
        <time>2021-05-17T22:42:25Z</time>
      </trkpt>
      <trkpt lat="30.453726460517963" lon="114.42956986374561">
        <ele>0.0</ele>
        <time>2021-05-17T22:42:31Z</time>
      </trkpt>
      <trkpt lat="30.453725301535723" lon="114.42945963232076">
        <ele>0.0</ele>
        <time>2021-05-17T22:42:37Z</time>
      </trkpt>
      <trkpt lat="30.45372113660261" lon="114.42934439124335">
        <ele>0.0</ele>
        <time>2021-05-17T22:42:43Z</time>
      </trkpt>
      <trkpt lat="30.4537319656454" lon="114.42922714530731">
        <ele>0.0</ele>
        <time>2021-05-17T22:42:49Z</time>
      </trkpt>
      <trkpt lat="30.453792818671236" lon="114.42913494783579">
        <ele>0.0</ele>
        <time>2021-05-17T22:42:55Z</time>
      </trkpt>
      <trkpt lat="30.453886733890194" lon="114.42909184999664">
        <ele>0.0</ele>
        <time>2021-05-17T22:43:01Z</time>
      </trkpt>
      <trkpt lat="30.45398569365605" lon="114.4290808184813">
        <ele>0.0</ele>
        <time>2021-05-17T22:43:07Z</time>
      </trkpt>
      <trkpt lat="30.454075631362873" lon="114.42905275233643">
        <ele>0.0</ele>
        <time>2021-05-17T22:43:12Z</time>
      </trkpt>
      <trkpt lat="30.4541615543924" lon="114.42901366368125">
        <ele>0.0</ele>
        <time>2021-05-17T22:43:17Z</time>
      </trkpt>
      <trkpt lat="30.454264488940343" lon="114.42898559649737">
        <ele>0.0</ele>
        <time>2021-05-17T22:43:23Z</time>
      </trkpt>
      <trkpt lat="30.454356429087117" lon="114.42895953446141">
        <ele>0.0</ele>
        <time>2021-05-17T22:43:29Z</time>
      </trkpt>
      <trkpt lat="30.45444537426777" lon="114.4289364789495">
        <ele>0.0</ele>
        <time>2021-05-17T22:43:35Z</time>
      </trkpt>
      <trkpt lat="30.45453432088524" lon="114.42891442553886">
        <ele>0.0</ele>
        <time>2021-05-17T22:43:41Z</time>
      </trkpt>
      <trkpt lat="30.454630267198993" lon="114.42889337361923">
        <ele>0.0</ele>
        <time>2021-05-17T22:43:47Z</time>
      </trkpt>
      <trkpt lat="30.45472120766207" lon="114.42886731178282">
        <ele>0.0</ele>
        <time>2021-05-17T22:43:52Z</time>
      </trkpt>
      <trkpt lat="30.45480913753872" lon="114.42883323365687">
        <ele>0.0</ele>
        <time>2021-05-17T22:43:57Z</time>
      </trkpt>
      <trkpt lat="30.454915099850208" lon="114.42882520788395">
        <ele>0.0</ele>
        <time>2021-05-17T22:44:02Z</time>
      </trkpt>
      <trkpt lat="30.4550090509573" lon="114.42880716243957">
        <ele>0.0</ele>
        <time>2021-05-17T22:44:07Z</time>
      </trkpt>
      <trkpt lat="30.455096997894078" lon="114.42878510924952">
        <ele>0.0</ele>
        <time>2021-05-17T22:44:12Z</time>
      </trkpt>
      <trkpt lat="30.45520292479294" lon="114.42875203176256">
        <ele>0.0</ele>
        <time>2021-05-17T22:44:18Z</time>
      </trkpt>
      <trkpt lat="30.45529287268081" lon="114.42873098052382">
        <ele>0.0</ele>
        <time>2021-05-17T22:44:23Z</time>
      </trkpt>
      <trkpt lat="30.45539783522531" lon="114.42872295487585">
        <ele>0.0</ele>
        <time>2021-05-17T22:44:29Z</time>
      </trkpt>
      <trkpt lat="30.45550377630945" lon="114.42869989814538">
        <ele>0.0</ele>
        <time>2021-05-17T22:44:35Z</time>
      </trkpt>
      <trkpt lat="30.45560871482972" lon="114.42867483739643">
        <ele>0.0</ele>
        <time>2021-05-17T22:44:41Z</time>
      </trkpt>
      <trkpt lat="30.45571367030191" lon="114.42866180144671">
        <ele>0.0</ele>
        <time>2021-05-17T22:44:47Z</time>
      </trkpt>
      <trkpt lat="30.455814611248957" lon="114.42863774315285">
        <ele>0.0</ele>
        <time>2021-05-17T22:44:53Z</time>
      </trkpt>
      <trkpt lat="30.45590255686362" lon="114.42861468807607">
        <ele>0.0</ele>
        <time>2021-05-17T22:44:58Z</time>
      </trkpt>
      <trkpt lat="30.45600149552172" lon="114.42858862588695">
        <ele>0.0</ele>
        <time>2021-05-17T22:45:04Z</time>
      </trkpt>
      <trkpt lat="30.456101443802083" lon="114.42856957806235">
        <ele>0.0</ele>
        <time>2021-05-17T22:45:10Z</time>
      </trkpt>
      <trkpt lat="30.456192385895353" lon="114.42854451868139">
        <ele>0.0</ele>
        <time>2021-05-17T22:45:16Z</time>
      </trkpt>
      <trkpt lat="30.45628633428582" lon="114.42852446935882">
        <ele>0.0</ele>
        <time>2021-05-17T22:45:22Z</time>
      </trkpt>
      <trkpt lat="30.456385273005623" lon="114.42849840728033">
        <ele>0.0</ele>
        <time>2021-05-17T22:45:29Z</time>
      </trkpt>
      <trkpt lat="30.456485196057255" lon="114.42846132253983">
        <ele>0.0</ele>
        <time>2021-05-17T22:45:35Z</time>
      </trkpt>
      <trkpt lat="30.45658413342508" lon="114.42843425848521">
        <ele>0.0</ele>
        <time>2021-05-17T22:45:41Z</time>
      </trkpt>
      <trkpt lat="30.456680143063416" lon="114.42845829945857">
        <ele>0.0</ele>
        <time>2021-05-17T22:45:47Z</time>
      </trkpt>
      <trkpt lat="30.456749228324966" lon="114.42853144360011">
        <ele>0.0</ele>
        <time>2021-05-17T22:45:53Z</time>
      </trkpt>
      <trkpt lat="30.456786358473728" lon="114.4286306443923">
        <ele>0.0</ele>
        <time>2021-05-17T22:45:59Z</time>
      </trkpt>
      <trkpt lat="30.45681049512058" lon="114.42873185091305">
        <ele>0.0</ele>
        <time>2021-05-17T22:46:04Z</time>
      </trkpt>
      <trkpt lat="30.456834654905556" lon="114.42884909108483">
        <ele>0.0</ele>
        <time>2021-05-17T22:46:10Z</time>
      </trkpt>
      <trkpt lat="30.45683682932606" lon="114.42897234628788">
        <ele>0.0</ele>
        <time>2021-05-17T22:46:16Z</time>
      </trkpt>
      <trkpt lat="30.456859974824006" lon="114.42907856494821">
        <ele>0.0</ele>
        <time>2021-05-17T22:46:21Z</time>
      </trkpt>
      <trkpt lat="30.45689413237939" lon="114.42919480408034">
        <ele>0.0</ele>
        <time>2021-05-17T22:46:27Z</time>
      </trkpt>
      <trkpt lat="30.45691527793161" lon="114.42930002193279">
        <ele>0.0</ele>
        <time>2021-05-17T22:46:32Z</time>
      </trkpt>
      <trkpt lat="30.456935428527707" lon="114.42940824669185">
        <ele>0.0</ele>
        <time>2021-05-17T22:46:37Z</time>
      </trkpt>
      <trkpt lat="30.456959593090858" lon="114.42952649270515">
        <ele>0.0</ele>
        <time>2021-05-17T22:46:43Z</time>
      </trkpt>
      <trkpt lat="30.456962764954287" lon="114.42964574330747">
        <ele>0.0</ele>
        <time>2021-05-17T22:46:49Z</time>
      </trkpt>
      <trkpt lat="30.456971935909845" lon="114.42976499405678">
        <ele>0.0</ele>
        <time>2021-05-17T22:46:55Z</time>
      </trkpt>
      <trkpt lat="30.45699309128764" lon="114.42987522533518">
        <ele>0.0</ele>
        <time>2021-05-17T22:47:01Z</time>
      </trkpt>
      <trkpt lat="30.457020247136644" lon="114.42998645878944">
        <ele>0.0</ele>
        <time>2021-05-17T22:47:07Z</time>
      </trkpt>
      <trkpt lat="30.457022403879733" lon="114.43009368646288">
        <ele>0.0</ele>
        <time>2021-05-17T22:47:12Z</time>
      </trkpt>
      <trkpt lat="30.457042565450053" lon="114.43020692593565">
        <ele>0.0</ele>
        <time>2021-05-17T22:47:18Z</time>
      </trkpt>
      <trkpt lat="30.457071726780143" lon="114.4303211673698">
        <ele>0.0</ele>
        <time>2021-05-17T22:47:24Z</time>
      </trkpt>
      <trkpt lat="30.457101889888623" lon="114.43043641147463">
        <ele>0.0</ele>
        <time>2021-05-17T22:47:30Z</time>
      </trkpt>
      <trkpt lat="30.457101889888623" lon="114.43043641147463">
        <ele>0.0</ele>
        <time>2021-05-17T22:47:33Z</time>
      </trkpt>
    </trkseg>
  </trk>
</gpx>