<?xml version="1.0" encoding="UTF-8"?>
<gpx xmlns="http://www.topografix.com/GPX/1/1" xmlns:gpxtpx="http://www.garmin.com/xmlschemas/TrackPointExtension/v1" xmlns:xsi="http://www.w3.org/2001/XMLSchema-instance" xsi:schemaLocation="http://www.topografix.com/GPX/1/1 http://www.topografix.com/GPX/1/1/gpx.xsd" version="1.1" creator="gpx.py -- https://github.com/tkrajina/gpxpy">
  <trk>
    <name>gpx from keep</name>
    <type>Run</type>
    <trkseg>
      <trkpt lat="30.456828252154526" lon="114.42856250057613">
        <ele>0.0</ele>
        <time>2021-05-20T22:21:04Z</time>
      </trkpt>
      <trkpt lat="30.456810424444715" lon="114.42868174758387">
        <ele>0.0</ele>
        <time>2021-05-20T22:21:13Z</time>
      </trkpt>
      <trkpt lat="30.456804605670722" lon="114.4288090107924">
        <ele>0.0</ele>
        <time>2021-05-20T22:21:18Z</time>
      </trkpt>
      <trkpt lat="30.456832760567014" lon="114.42892324481359">
        <ele>0.0</ele>
        <time>2021-05-20T22:21:23Z</time>
      </trkpt>
      <trkpt lat="30.456851909701776" lon="114.42903146773872">
        <ele>0.0</ele>
        <time>2021-05-20T22:21:27Z</time>
      </trkpt>
      <trkpt lat="30.456865067990943" lon="114.42914470217235">
        <ele>0.0</ele>
        <time>2021-05-20T22:21:31Z</time>
      </trkpt>
      <trkpt lat="30.456887215944775" lon="114.42925192387442">
        <ele>0.0</ele>
        <time>2021-05-20T22:21:35Z</time>
      </trkpt>
      <trkpt lat="30.45692734834503" lon="114.4293511277787">
        <ele>0.0</ele>
        <time>2021-05-20T22:21:39Z</time>
      </trkpt>
      <trkpt lat="30.45694550834611" lon="114.42946536558492">
        <ele>0.0</ele>
        <time>2021-05-20T22:21:44Z</time>
      </trkpt>
      <trkpt lat="30.456957671847654" lon="114.42958060663265">
        <ele>0.0</ele>
        <time>2021-05-20T22:21:49Z</time>
      </trkpt>
      <trkpt lat="30.45697183394919" lon="114.42969484601726">
        <ele>0.0</ele>
        <time>2021-05-20T22:21:54Z</time>
      </trkpt>
      <trkpt lat="30.45700699279446" lon="114.42981008631148">
        <ele>0.0</ele>
        <time>2021-05-20T22:21:59Z</time>
      </trkpt>
      <trkpt lat="30.457025169639184" lon="114.42993434782079">
        <ele>0.0</ele>
        <time>2021-05-20T22:22:04Z</time>
      </trkpt>
      <trkpt lat="30.457037345691962" lon="114.43005660631304">
        <ele>0.0</ele>
        <time>2021-05-20T22:22:09Z</time>
      </trkpt>
      <trkpt lat="30.457058517162178" lon="114.4301768604524">
        <ele>0.0</ele>
        <time>2021-05-20T22:22:14Z</time>
      </trkpt>
      <trkpt lat="30.4570846776206" lon="114.43029009984515">
        <ele>0.0</ele>
        <time>2021-05-20T22:22:19Z</time>
      </trkpt>
      <trkpt lat="30.457107852729333" lon="114.43041235941664">
        <ele>0.0</ele>
        <time>2021-05-20T22:22:24Z</time>
      </trkpt>
      <trkpt lat="30.457123017055274" lon="114.43052560100817">
        <ele>0.0</ele>
        <time>2021-05-20T22:22:29Z</time>
      </trkpt>
      <trkpt lat="30.45714817342923" lon="114.43063483370109">
        <ele>0.0</ele>
        <time>2021-05-20T22:22:34Z</time>
      </trkpt>
      <trkpt lat="30.457170331050815" lon="114.43074406720991">
        <ele>0.0</ele>
        <time>2021-05-20T22:22:39Z</time>
      </trkpt>
      <trkpt lat="30.457194482652277" lon="114.43084929243132">
        <ele>0.0</ele>
        <time>2021-05-20T22:22:44Z</time>
      </trkpt>
      <trkpt lat="30.457214637223593" lon="114.43095552068658">
        <ele>0.0</ele>
        <time>2021-05-20T22:22:49Z</time>
      </trkpt>
      <trkpt lat="30.457238798820452" lon="114.4310667600055">
        <ele>0.0</ele>
        <time>2021-05-20T22:22:54Z</time>
      </trkpt>
      <trkpt lat="30.45727793744929" lon="114.4311649702294">
        <ele>0.0</ele>
        <time>2021-05-20T22:22:59Z</time>
      </trkpt>
      <trkpt lat="30.45728712050685" lon="114.43128723599081">
        <ele>0.0</ele>
        <time>2021-05-20T22:23:04Z</time>
      </trkpt>
      <trkpt lat="30.457299283587908" lon="114.43139647367599">
        <ele>0.0</ele>
        <time>2021-05-20T22:23:09Z</time>
      </trkpt>
      <trkpt lat="30.457317454840616" lon="114.43151172458067">
        <ele>0.0</ele>
        <time>2021-05-20T22:23:14Z</time>
      </trkpt>
      <trkpt lat="30.457336627926026" lon="114.43162797821638">
        <ele>0.0</ele>
        <time>2021-05-20T22:23:19Z</time>
      </trkpt>
      <trkpt lat="30.457365791357482" lon="114.43173922056629">
        <ele>0.0</ele>
        <time>2021-05-20T22:23:24Z</time>
      </trkpt>
      <trkpt lat="30.45738395496921" lon="114.43184846001373">
        <ele>0.0</ele>
        <time>2021-05-20T22:23:29Z</time>
      </trkpt>
      <trkpt lat="30.45739911517737" lon="114.43195469361582">
        <ele>0.0</ele>
        <time>2021-05-20T22:23:34Z</time>
      </trkpt>
      <trkpt lat="30.457376304031445" lon="114.43207295771607">
        <ele>0.0</ele>
        <time>2021-05-20T22:23:40Z</time>
      </trkpt>
      <trkpt lat="30.45731945368664" lon="114.43216015631702">
        <ele>0.0</ele>
        <time>2021-05-20T22:23:45Z</time>
      </trkpt>
      <trkpt lat="30.45723255032216" lon="114.43220827085457">
        <ele>0.0</ele>
        <time>2021-05-20T22:23:50Z</time>
      </trkpt>
      <trkpt lat="30.45714965385043" lon="114.43226139631427">
        <ele>0.0</ele>
        <time>2021-05-20T22:23:55Z</time>
      </trkpt>
      <trkpt lat="30.45705074742445" lon="114.43230550317621">
        <ele>0.0</ele>
        <time>2021-05-20T22:24:01Z</time>
      </trkpt>
      <trkpt lat="30.456949808706252" lon="114.43232856333995">
        <ele>0.0</ele>
        <time>2021-05-20T22:24:07Z</time>
      </trkpt>
      <trkpt lat="30.456861874571715" lon="114.43235663358578">
        <ele>0.0</ele>
        <time>2021-05-20T22:24:12Z</time>
      </trkpt>
      <trkpt lat="30.456769924230997" lon="114.43237367959564">
        <ele>0.0</ele>
        <time>2021-05-20T22:24:17Z</time>
      </trkpt>
      <trkpt lat="30.456666992319263" lon="114.4324007489603">
        <ele>0.0</ele>
        <time>2021-05-20T22:24:23Z</time>
      </trkpt>
      <trkpt lat="30.456577013271176" lon="114.43239975452158">
        <ele>0.0</ele>
        <time>2021-05-20T22:24:28Z</time>
      </trkpt>
      <trkpt lat="30.456484064752928" lon="114.43241780289132">
        <ele>0.0</ele>
        <time>2021-05-20T22:24:33Z</time>
      </trkpt>
      <trkpt lat="30.456379125515202" lon="114.43243986127894">
        <ele>0.0</ele>
        <time>2021-05-20T22:24:39Z</time>
      </trkpt>
      <trkpt lat="30.45627818528703" lon="114.43246191934203">
        <ele>0.0</ele>
        <time>2021-05-20T22:24:45Z</time>
      </trkpt>
      <trkpt lat="30.456174233252383" lon="114.43247595974586">
        <ele>0.0</ele>
        <time>2021-05-20T22:24:51Z</time>
      </trkpt>
      <trkpt lat="30.456070281215144" lon="114.43249000015862">
        <ele>0.0</ele>
        <time>2021-05-20T22:24:57Z</time>
      </trkpt>
      <trkpt lat="30.45596833810709" lon="114.43251005387047">
        <ele>0.0</ele>
        <time>2021-05-20T22:25:03Z</time>
      </trkpt>
      <trkpt lat="30.455867393183023" lon="114.43252910526903">
        <ele>0.0</ele>
        <time>2021-05-20T22:25:09Z</time>
      </trkpt>
      <trkpt lat="30.455768460354374" lon="114.43255617447865">
        <ele>0.0</ele>
        <time>2021-05-20T22:25:15Z</time>
      </trkpt>
      <trkpt lat="30.455675518176157" lon="114.43257823196522">
        <ele>0.0</ele>
        <time>2021-05-20T22:25:21Z</time>
      </trkpt>
      <trkpt lat="30.455580571780953" lon="114.4325972829029">
        <ele>0.0</ele>
        <time>2021-05-20T22:25:27Z</time>
      </trkpt>
      <trkpt lat="30.455473628380766" lon="114.43261633489702">
        <ele>0.0</ele>
        <time>2021-05-20T22:25:33Z</time>
      </trkpt>
      <trkpt lat="30.45538468681104" lon="114.4326393943473">
        <ele>0.0</ele>
        <time>2021-05-20T22:25:38Z</time>
      </trkpt>
      <trkpt lat="30.455292746001966" lon="114.43266245408178">
        <ele>0.0</ele>
        <time>2021-05-20T22:25:43Z</time>
      </trkpt>
      <trkpt lat="30.45520280786701" lon="114.43268751817143">
        <ele>0.0</ele>
        <time>2021-05-20T22:25:48Z</time>
      </trkpt>
      <trkpt lat="30.455107872573645" lon="114.43271358497634">
        <ele>0.0</ele>
        <time>2021-05-20T22:25:54Z</time>
      </trkpt>
      <trkpt lat="30.4550099364637" lon="114.43273864981761">
        <ele>0.0</ele>
        <time>2021-05-20T22:26:00Z</time>
      </trkpt>
      <trkpt lat="30.454918989136935" lon="114.43275770054765">
        <ele>0.0</ele>
        <time>2021-05-20T22:26:05Z</time>
      </trkpt>
      <trkpt lat="30.454829046317187" lon="114.43277975797655">
        <ele>0.0</ele>
        <time>2021-05-20T22:26:10Z</time>
      </trkpt>
      <trkpt lat="30.454726105154034" lon="114.43280081429668">
        <ele>0.0</ele>
        <time>2021-05-20T22:26:16Z</time>
      </trkpt>
      <trkpt lat="30.454621174004078" lon="114.43282788436106">
        <ele>0.0</ele>
        <time>2021-05-20T22:26:22Z</time>
      </trkpt>
      <trkpt lat="30.454516219086695" lon="114.43283992056627">
        <ele>0.0</ele>
        <time>2021-05-20T22:26:28Z</time>
      </trkpt>
      <trkpt lat="30.45442621605321" lon="114.43282389222443">
        <ele>0.0</ele>
        <time>2021-05-20T22:26:33Z</time>
      </trkpt>
      <trkpt lat="30.454338269582113" lon="114.43284394502744">
        <ele>0.0</ele>
        <time>2021-05-20T22:26:38Z</time>
      </trkpt>
      <trkpt lat="30.454241353913254" lon="114.43288203932056">
        <ele>0.0</ele>
        <time>2021-05-20T22:26:44Z</time>
      </trkpt>
      <trkpt lat="30.454141396156686" lon="114.43289307286028">
        <ele>0.0</ele>
        <time>2021-05-20T22:26:50Z</time>
      </trkpt>
      <trkpt lat="30.454037450503495" lon="114.4329111225878">
        <ele>0.0</ele>
        <time>2021-05-20T22:26:56Z</time>
      </trkpt>
      <trkpt lat="30.453937516576836" lon="114.43293719009077">
        <ele>0.0</ele>
        <time>2021-05-20T22:27:02Z</time>
      </trkpt>
      <trkpt lat="30.453834581819976" lon="114.43296225561978">
        <ele>0.0</ele>
        <time>2021-05-20T22:27:08Z</time>
      </trkpt>
      <trkpt lat="30.453757686816658" lon="114.43301638465448">
        <ele>0.0</ele>
        <time>2021-05-20T22:27:14Z</time>
      </trkpt>
      <trkpt lat="30.45367080237498" lon="114.43307552603815">
        <ele>0.0</ele>
        <time>2021-05-20T22:27:20Z</time>
      </trkpt>
      <trkpt lat="30.453570884550434" lon="114.43311161644932">
        <ele>0.0</ele>
        <time>2021-05-20T22:27:26Z</time>
      </trkpt>
      <trkpt lat="30.453494994405883" lon="114.43316875258783">
        <ele>0.0</ele>
        <time>2021-05-20T22:27:32Z</time>
      </trkpt>
      <trkpt lat="30.453398090364836" lon="114.43321386337627">
        <ele>0.0</ele>
        <time>2021-05-20T22:27:38Z</time>
      </trkpt>
      <trkpt lat="30.45330016261028" lon="114.43324394017459">
        <ele>0.0</ele>
        <time>2021-05-20T22:27:44Z</time>
      </trkpt>
      <trkpt lat="30.453205235745735" lon="114.43327501903302">
        <ele>0.0</ele>
        <time>2021-05-20T22:27:50Z</time>
      </trkpt>
      <trkpt lat="30.45310332026654" lon="114.43331211222515">
        <ele>0.0</ele>
        <time>2021-05-20T22:27:56Z</time>
      </trkpt>
      <trkpt lat="30.453008393469723" lon="114.43334319117966">
        <ele>0.0</ele>
        <time>2021-05-20T22:28:02Z</time>
      </trkpt>
      <trkpt lat="30.45291546299569" lon="114.43337226543767">
        <ele>0.0</ele>
        <time>2021-05-20T22:28:08Z</time>
      </trkpt>
      <trkpt lat="30.452821545662257" lon="114.43340935810025">
        <ele>0.0</ele>
        <time>2021-05-20T22:28:14Z</time>
      </trkpt>
      <trkpt lat="30.452733634949283" lon="114.4334514617401">
        <ele>0.0</ele>
        <time>2021-05-20T22:28:20Z</time>
      </trkpt>
      <trkpt lat="30.45264172206169" lon="114.43349156122902">
        <ele>0.0</ele>
        <time>2021-05-20T22:28:26Z</time>
      </trkpt>
      <trkpt lat="30.45255178453806" lon="114.43351662626209">
        <ele>0.0</ele>
        <time>2021-05-20T22:28:32Z</time>
      </trkpt>
      <trkpt lat="30.452458863913186" lon="114.43355171449736">
        <ele>0.0</ele>
        <time>2021-05-20T22:28:38Z</time>
      </trkpt>
      <trkpt lat="30.45236694954773" lon="114.4335908118749">
        <ele>0.0</ele>
        <time>2021-05-20T22:28:44Z</time>
      </trkpt>
      <trkpt lat="30.452282036749807" lon="114.43363191330565">
        <ele>0.0</ele>
        <time>2021-05-20T22:28:50Z</time>
      </trkpt>
      <trkpt lat="30.452178099541353" lon="114.4336549751179">
        <ele>0.0</ele>
        <time>2021-05-20T22:28:56Z</time>
      </trkpt>
      <trkpt lat="30.45208417608471" lon="114.43368805906367">
        <ele>0.0</ele>
        <time>2021-05-20T22:29:02Z</time>
      </trkpt>
      <trkpt lat="30.45199927153415" lon="114.43373417217416">
        <ele>0.0</ele>
        <time>2021-05-20T22:29:08Z</time>
      </trkpt>
      <trkpt lat="30.451912343201673" lon="114.43376525102929">
        <ele>0.0</ele>
        <time>2021-05-20T22:29:14Z</time>
      </trkpt>
      <trkpt lat="30.45181041695871" lon="114.43379532892466">
        <ele>0.0</ele>
        <time>2021-05-20T22:29:21Z</time>
      </trkpt>
      <trkpt lat="30.451716500159353" lon="114.43383242229727">
        <ele>0.0</ele>
        <time>2021-05-20T22:29:28Z</time>
      </trkpt>
      <trkpt lat="30.451619585770274" lon="114.43387051829792">
        <ele>0.0</ele>
        <time>2021-05-20T22:29:35Z</time>
      </trkpt>
      <trkpt lat="30.451535664985176" lon="114.43390660862252">
        <ele>0.0</ele>
        <time>2021-05-20T22:29:41Z</time>
      </trkpt>
      <trkpt lat="30.451434741891642" lon="114.43393869124132">
        <ele>0.0</ele>
        <time>2021-05-20T22:29:48Z</time>
      </trkpt>
      <trkpt lat="30.45134683522545" lon="114.4339828005113">
        <ele>0.0</ele>
        <time>2021-05-20T22:29:54Z</time>
      </trkpt>
      <trkpt lat="30.451257914172878" lon="114.434017889139">
        <ele>0.0</ele>
        <time>2021-05-20T22:30:00Z</time>
      </trkpt>
      <trkpt lat="30.45116100166064" lon="114.43405698777286">
        <ele>0.0</ele>
        <time>2021-05-20T22:30:07Z</time>
      </trkpt>
      <trkpt lat="30.451064076109578" lon="114.43408806794667">
        <ele>0.0</ele>
        <time>2021-05-20T22:30:15Z</time>
      </trkpt>
      <trkpt lat="30.450977172708953" lon="114.43413418206308">
        <ele>0.0</ele>
        <time>2021-05-20T22:30:20Z</time>
      </trkpt>
      <trkpt lat="30.450880250516025" lon="114.43416726698383">
        <ele>0.0</ele>
        <time>2021-05-20T22:30:26Z</time>
      </trkpt>
      <trkpt lat="30.450786321061752" lon="114.4341963424103">
        <ele>0.0</ele>
        <time>2021-05-20T22:30:32Z</time>
      </trkpt>
      <trkpt lat="30.450692299755243" lon="114.43416928790576">
        <ele>0.0</ele>
        <time>2021-05-20T22:30:38Z</time>
      </trkpt>
      <trkpt lat="30.45060027142758" lon="114.43413822398801">
        <ele>0.0</ele>
        <time>2021-05-20T22:30:45Z</time>
      </trkpt>
      <trkpt lat="30.45055312745436" lon="114.43404300803505">
        <ele>0.0</ele>
        <time>2021-05-20T22:30:51Z</time>
      </trkpt>
      <trkpt lat="30.450526968934298" lon="114.4339417768168">
        <ele>0.0</ele>
        <time>2021-05-20T22:30:56Z</time>
      </trkpt>
      <trkpt lat="30.45048080595498" lon="114.4338345339675">
        <ele>0.0</ele>
        <time>2021-05-20T22:31:02Z</time>
      </trkpt>
      <trkpt lat="30.450436665657595" lon="114.4337413236644">
        <ele>0.0</ele>
        <time>2021-05-20T22:31:07Z</time>
      </trkpt>
      <trkpt lat="30.450404503363288" lon="114.43363608516796">
        <ele>0.0</ele>
        <time>2021-05-20T22:31:13Z</time>
      </trkpt>
      <trkpt lat="30.450385312531175" lon="114.43351480940436">
        <ele>0.0</ele>
        <time>2021-05-20T22:31:19Z</time>
      </trkpt>
      <trkpt lat="30.45034614647621" lon="114.43340556345724">
        <ele>0.0</ele>
        <time>2021-05-20T22:31:25Z</time>
      </trkpt>
      <trkpt lat="30.45034497804872" lon="114.4333003238813">
        <ele>0.0</ele>
        <time>2021-05-20T22:31:30Z</time>
      </trkpt>
      <trkpt lat="30.450322794400137" lon="114.4331820570539">
        <ele>0.0</ele>
        <time>2021-05-20T22:31:36Z</time>
      </trkpt>
      <trkpt lat="30.450286617925595" lon="114.43306579661565">
        <ele>0.0</ele>
        <time>2021-05-20T22:31:42Z</time>
      </trkpt>
      <trkpt lat="30.450266436507494" lon="114.43294853314407">
        <ele>0.0</ele>
        <time>2021-05-20T22:31:49Z</time>
      </trkpt>
      <trkpt lat="30.450240263454262" lon="114.43283527985541">
        <ele>0.0</ele>
        <time>2021-05-20T22:31:56Z</time>
      </trkpt>
      <trkpt lat="30.4502231061182" lon="114.43273305116632">
        <ele>0.0</ele>
        <time>2021-05-20T22:32:04Z</time>
      </trkpt>
      <trkpt lat="30.45019588545509" lon="114.43258872938544">
        <ele>0.0</ele>
        <time>2021-05-20T22:32:12Z</time>
      </trkpt>
      <trkpt lat="30.45017373193934" lon="114.43248750452669">
        <ele>0.0</ele>
        <time>2021-05-20T22:32:17Z</time>
      </trkpt>
      <trkpt lat="30.450164531817087" lon="114.4323582163595">
        <ele>0.0</ele>
        <time>2021-05-20T22:32:24Z</time>
      </trkpt>
      <trkpt lat="30.450134381207445" lon="114.43225699326476">
        <ele>0.0</ele>
        <time>2021-05-20T22:32:29Z</time>
      </trkpt>
      <trkpt lat="30.45011922268832" lon="114.43215276265856">
        <ele>0.0</ele>
        <time>2021-05-20T22:32:35Z</time>
      </trkpt>
      <trkpt lat="30.45007505926262" lon="114.43204051728529">
        <ele>0.0</ele>
        <time>2021-05-20T22:32:41Z</time>
      </trkpt>
      <trkpt lat="30.450045886505244" lon="114.43192426232432">
        <ele>0.0</ele>
        <time>2021-05-20T22:32:47Z</time>
      </trkpt>
      <trkpt lat="30.450019725917585" lon="114.43181602542013">
        <ele>0.0</ele>
        <time>2021-05-20T22:32:53Z</time>
      </trkpt>
      <trkpt lat="30.450031545779474" lon="114.431700770316">
        <ele>0.0</ele>
        <time>2021-05-20T22:32:59Z</time>
      </trkpt>
      <trkpt lat="30.450019368970644" lon="114.43158351350255">
        <ele>0.0</ele>
        <time>2021-05-20T22:33:05Z</time>
      </trkpt>
      <trkpt lat="30.449988201946073" lon="114.43146926555859">
        <ele>0.0</ele>
        <time>2021-05-20T22:33:11Z</time>
      </trkpt>
      <trkpt lat="30.44996802668244" lon="114.43135100850326">
        <ele>0.0</ele>
        <time>2021-05-20T22:33:17Z</time>
      </trkpt>
      <trkpt lat="30.449945860080476" lon="114.43123776319388">
        <ele>0.0</ele>
        <time>2021-05-20T22:33:23Z</time>
      </trkpt>
      <trkpt lat="30.44993368702829" lon="114.43112151107283">
        <ele>0.0</ele>
        <time>2021-05-20T22:33:29Z</time>
      </trkpt>
      <trkpt lat="30.449914529830767" lon="114.43101427975617">
        <ele>0.0</ele>
        <time>2021-05-20T22:33:35Z</time>
      </trkpt>
      <trkpt lat="30.449882379287615" lon="114.43090905443982">
        <ele>0.0</ele>
        <time>2021-05-20T22:33:41Z</time>
      </trkpt>
      <trkpt lat="30.44984520640308" lon="114.43078779543858">
        <ele>0.0</ele>
        <time>2021-05-20T22:33:47Z</time>
      </trkpt>
      <trkpt lat="30.449837052498534" lon="114.43068357130936">
        <ele>0.0</ele>
        <time>2021-05-20T22:33:52Z</time>
      </trkpt>
      <trkpt lat="30.449832874203313" lon="114.43056331287367">
        <ele>0.0</ele>
        <time>2021-05-20T22:33:58Z</time>
      </trkpt>
      <trkpt lat="30.44982568980869" lon="114.43043804463201">
        <ele>0.0</ele>
        <time>2021-05-20T22:34:03Z</time>
      </trkpt>
      <trkpt lat="30.4498245060871" lon="114.43031377874412">
        <ele>0.0</ele>
        <time>2021-05-20T22:34:08Z</time>
      </trkpt>
      <trkpt lat="30.449797366248458" lon="114.43021456925165">
        <ele>0.0</ele>
        <time>2021-05-20T22:34:12Z</time>
      </trkpt>
      <trkpt lat="30.449740232650583" lon="114.43011436068724">
        <ele>0.0</ele>
        <time>2021-05-20T22:34:17Z</time>
      </trkpt>
      <trkpt lat="30.449719083364194" lon="114.43000913883206">
        <ele>0.0</ele>
        <time>2021-05-20T22:34:23Z</time>
      </trkpt>
      <trkpt lat="30.449693928194616" lon="114.42989890722822">
        <ele>0.0</ele>
        <time>2021-05-20T22:34:28Z</time>
      </trkpt>
      <trkpt lat="30.449668776450437" lon="114.42979068042855">
        <ele>0.0</ele>
        <time>2021-05-20T22:34:33Z</time>
      </trkpt>
      <trkpt lat="30.449634623022188" lon="114.42967944862121">
        <ele>0.0</ele>
        <time>2021-05-20T22:34:39Z</time>
      </trkpt>
      <trkpt lat="30.449613461148946" lon="114.42956420783942">
        <ele>0.0</ele>
        <time>2021-05-20T22:34:45Z</time>
      </trkpt>
      <trkpt lat="30.449598298371914" lon="114.429448967161">
        <ele>0.0</ele>
        <time>2021-05-20T22:34:51Z</time>
      </trkpt>
      <trkpt lat="30.449576136414663" lon="114.4293327256177">
        <ele>0.0</ele>
        <time>2021-05-20T22:34:58Z</time>
      </trkpt>
      <trkpt lat="30.44954999034908" lon="114.42922650596417">
        <ele>0.0</ele>
        <time>2021-05-20T22:35:04Z</time>
      </trkpt>
      <trkpt lat="30.449532831121438" lon="114.42911226937528">
        <ele>0.0</ele>
        <time>2021-05-20T22:35:10Z</time>
      </trkpt>
      <trkpt lat="30.4495006760903" lon="114.42899803470198">
        <ele>0.0</ele>
        <time>2021-05-20T22:35:16Z</time>
      </trkpt>
      <trkpt lat="30.449478519175326" lon="114.4288837997769">
        <ele>0.0</ele>
        <time>2021-05-20T22:35:22Z</time>
      </trkpt>
      <trkpt lat="30.449454373209715" lon="114.42877658012794">
        <ele>0.0</ele>
        <time>2021-05-20T22:35:28Z</time>
      </trkpt>
      <trkpt lat="30.449435210983687" lon="114.42865833788026">
        <ele>0.0</ele>
        <time>2021-05-20T22:35:34Z</time>
      </trkpt>
      <trkpt lat="30.449422042262626" lon="114.42853608753948">
        <ele>0.0</ele>
        <time>2021-05-20T22:35:40Z</time>
      </trkpt>
      <trkpt lat="30.449386887927925" lon="114.4284198521297">
        <ele>0.0</ele>
        <time>2021-05-20T22:35:46Z</time>
      </trkpt>
      <trkpt lat="30.449363734038844" lon="114.42830562041362">
        <ele>0.0</ele>
        <time>2021-05-20T22:35:52Z</time>
      </trkpt>
      <trkpt lat="30.449341579066104" lon="114.42819038718724">
        <ele>0.0</ele>
        <time>2021-05-20T22:35:58Z</time>
      </trkpt>
      <trkpt lat="30.449322443344318" lon="114.42808918284516">
        <ele>0.0</ele>
        <time>2021-05-20T22:36:03Z</time>
      </trkpt>
      <trkpt lat="30.44929129299566" lon="114.42797495361431">
        <ele>0.0</ele>
        <time>2021-05-20T22:36:09Z</time>
      </trkpt>
      <trkpt lat="30.449281132585917" lon="114.42785671507723">
        <ele>0.0</ele>
        <time>2021-05-20T22:36:15Z</time>
      </trkpt>
      <trkpt lat="30.449268993846474" lon="114.42775350768953">
        <ele>0.0</ele>
        <time>2021-05-20T22:36:20Z</time>
      </trkpt>
      <trkpt lat="30.449252836004767" lon="114.42763527091782">
        <ele>0.0</ele>
        <time>2021-05-20T22:36:26Z</time>
      </trkpt>
      <trkpt lat="30.449234692874803" lon="114.4275270550859">
        <ele>0.0</ele>
        <time>2021-05-20T22:36:32Z</time>
      </trkpt>
      <trkpt lat="30.449204546363404" lon="114.42741383082766">
        <ele>0.0</ele>
        <time>2021-05-20T22:36:38Z</time>
      </trkpt>
      <trkpt lat="30.449173404700744" lon="114.42730361326613">
        <ele>0.0</ele>
        <time>2021-05-20T22:36:44Z</time>
      </trkpt>
      <trkpt lat="30.449161258939572" lon="114.42719339463595">
        <ele>0.0</ele>
        <time>2021-05-20T22:36:50Z</time>
      </trkpt>
      <trkpt lat="30.449149112350977" lon="114.42708217459668">
        <ele>0.0</ele>
        <time>2021-05-20T22:36:56Z</time>
      </trkpt>
      <trkpt lat="30.449203964755885" lon="114.42698197115966">
        <ele>0.0</ele>
        <time>2021-05-20T22:37:03Z</time>
      </trkpt>
      <trkpt lat="30.44928387033409" lon="114.42692585317603">
        <ele>0.0</ele>
        <time>2021-05-20T22:37:10Z</time>
      </trkpt>
      <trkpt lat="30.449379829613882" lon="114.42691281909099">
        <ele>0.0</ele>
        <time>2021-05-20T22:37:16Z</time>
      </trkpt>
      <trkpt lat="30.44947877479735" lon="114.42688976495285">
        <ele>0.0</ele>
        <time>2021-05-20T22:37:22Z</time>
      </trkpt>
      <trkpt lat="30.449581724362236" lon="114.4268707184083">
        <ele>0.0</ele>
        <time>2021-05-20T22:37:28Z</time>
      </trkpt>
      <trkpt lat="30.44967266484262" lon="114.42684265512183">
        <ele>0.0</ele>
        <time>2021-05-20T22:37:33Z</time>
      </trkpt>
      <trkpt lat="30.449763616014394" lon="114.42682260768443">
        <ele>0.0</ele>
        <time>2021-05-20T22:37:38Z</time>
      </trkpt>
      <trkpt lat="30.449861548170666" lon="114.4267895339791">
        <ele>0.0</ele>
        <time>2021-05-20T22:37:44Z</time>
      </trkpt>
      <trkpt lat="30.449961474554875" lon="114.42675245225895">
        <ele>0.0</ele>
        <time>2021-05-20T22:37:50Z</time>
      </trkpt>
      <trkpt lat="30.450056431451266" lon="114.4267374144228">
        <ele>0.0</ele>
        <time>2021-05-20T22:37:56Z</time>
      </trkpt>
      <trkpt lat="30.45015737359623" lon="114.42671235636082">
        <ele>0.0</ele>
        <time>2021-05-20T22:38:02Z</time>
      </trkpt>
      <trkpt lat="30.45026330790061" lon="114.4266822880448">
        <ele>0.0</ele>
        <time>2021-05-20T22:38:08Z</time>
      </trkpt>
      <trkpt lat="30.45035125193035" lon="114.42665622920794">
        <ele>0.0</ele>
        <time>2021-05-20T22:38:13Z</time>
      </trkpt>
      <trkpt lat="30.450457200864275" lon="114.42663718261477">
        <ele>0.0</ele>
        <time>2021-05-20T22:38:19Z</time>
      </trkpt>
      <trkpt lat="30.4505461446832" lon="114.42661112374718">
        <ele>0.0</ele>
        <time>2021-05-20T22:38:24Z</time>
      </trkpt>
      <trkpt lat="30.450637097298493" lon="114.42659207849643">
        <ele>0.0</ele>
        <time>2021-05-20T22:38:29Z</time>
      </trkpt>
      <trkpt lat="30.450727047520175" lon="114.42657102942044">
        <ele>0.0</ele>
        <time>2021-05-20T22:38:34Z</time>
      </trkpt>
      <trkpt lat="30.450826967560534" lon="114.42652893827344">
        <ele>0.0</ele>
        <time>2021-05-20T22:38:40Z</time>
      </trkpt>
      <trkpt lat="30.450918913373364" lon="114.42650488320288">
        <ele>0.0</ele>
        <time>2021-05-20T22:38:45Z</time>
      </trkpt>
      <trkpt lat="30.45102285758503" lon="114.42648182907898">
        <ele>0.0</ele>
        <time>2021-05-20T22:38:51Z</time>
      </trkpt>
      <trkpt lat="30.451112810507684" lon="114.42646278403241">
        <ele>0.0</ele>
        <time>2021-05-20T22:38:57Z</time>
      </trkpt>
      <trkpt lat="30.45120475109509" lon="114.42643472120523">
        <ele>0.0</ele>
        <time>2021-05-20T22:39:03Z</time>
      </trkpt>
      <trkpt lat="30.451305700029284" lon="114.42641467328983">
        <ele>0.0</ele>
        <time>2021-05-20T22:39:09Z</time>
      </trkpt>
      <trkpt lat="30.451393639007847" lon="114.42638460696284">
        <ele>0.0</ele>
        <time>2021-05-20T22:39:14Z</time>
      </trkpt>
      <trkpt lat="30.451485591486538" lon="114.42636556183106">
        <ele>0.0</ele>
        <time>2021-05-20T22:39:19Z</time>
      </trkpt>
      <trkpt lat="30.4515895252761" lon="114.42633449223297">
        <ele>0.0</ele>
        <time>2021-05-20T22:39:25Z</time>
      </trkpt>
      <trkpt lat="30.45169045983242" lon="114.42630342294137">
        <ele>0.0</ele>
        <time>2021-05-20T22:39:31Z</time>
      </trkpt>
      <trkpt lat="30.451791400969803" lon="114.42627736344778">
        <ele>0.0</ele>
        <time>2021-05-20T22:39:37Z</time>
      </trkpt>
      <trkpt lat="30.451896343761952" lon="114.4262533075381">
        <ele>0.0</ele>
        <time>2021-05-20T22:39:44Z</time>
      </trkpt>
      <trkpt lat="30.451998275534766" lon="114.42622023438473">
        <ele>0.0</ele>
        <time>2021-05-20T22:39:50Z</time>
      </trkpt>
      <trkpt lat="30.452099223267368" lon="114.42619918472785">
        <ele>0.0</ele>
        <time>2021-05-20T22:39:56Z</time>
      </trkpt>
      <trkpt lat="30.452187175510854" lon="114.42617913816603">
        <ele>0.0</ele>
        <time>2021-05-20T22:40:01Z</time>
      </trkpt>
      <trkpt lat="30.45227912025578" lon="114.42615408155282">
        <ele>0.0</ele>
        <time>2021-05-20T22:40:06Z</time>
      </trkpt>
      <trkpt lat="30.452372050435166" lon="114.42611800350878">
        <ele>0.0</ele>
        <time>2021-05-20T22:40:11Z</time>
      </trkpt>
      <trkpt lat="30.452462987662976" lon="114.42608693540676">
        <ele>0.0</ele>
        <time>2021-05-20T22:40:16Z</time>
      </trkpt>
      <trkpt lat="30.452565931074357" lon="114.4260628798897">
        <ele>0.0</ele>
        <time>2021-05-20T22:40:22Z</time>
      </trkpt>
      <trkpt lat="30.452668874500098" lon="114.4260388244003">
        <ele>0.0</ele>
        <time>2021-05-20T22:40:28Z</time>
      </trkpt>
      <trkpt lat="30.452764849548743" lon="114.4260378141299">
        <ele>0.0</ele>
        <time>2021-05-20T22:40:34Z</time>
      </trkpt>
      <trkpt lat="30.45285488199596" lon="114.42607988779905">
        <ele>0.0</ele>
        <time>2021-05-20T22:40:40Z</time>
      </trkpt>
      <trkpt lat="30.452905005267375" lon="114.42618408558596">
        <ele>0.0</ele>
        <time>2021-05-20T22:40:46Z</time>
      </trkpt>
      <trkpt lat="30.452922135828405" lon="114.42628728480749">
        <ele>0.0</ele>
        <time>2021-05-20T22:40:51Z</time>
      </trkpt>
      <trkpt lat="30.452952282052472" lon="114.42640451080048">
        <ele>0.0</ele>
        <time>2021-05-20T22:40:57Z</time>
      </trkpt>
      <trkpt lat="30.452979425642084" lon="114.42651873182669">
        <ele>0.0</ele>
        <time>2021-05-20T22:41:03Z</time>
      </trkpt>
      <trkpt lat="30.452996581533505" lon="114.42663996812075">
        <ele>0.0</ele>
        <time>2021-05-20T22:41:09Z</time>
      </trkpt>
      <trkpt lat="30.45302072435056" lon="114.42675218674974">
        <ele>0.0</ele>
        <time>2021-05-20T22:41:15Z</time>
      </trkpt>
      <trkpt lat="30.453043858606012" lon="114.42685739221871">
        <ele>0.0</ele>
        <time>2021-05-20T22:41:22Z</time>
      </trkpt>
      <trkpt lat="30.453052005071008" lon="114.42696861142021">
        <ele>0.0</ele>
        <time>2021-05-20T22:41:29Z</time>
      </trkpt>
      <trkpt lat="30.45306914446566" lon="114.42707582247648">
        <ele>0.0</ele>
        <time>2021-05-20T22:41:36Z</time>
      </trkpt>
      <trkpt lat="30.453090290107458" lon="114.42718804370537">
        <ele>0.0</ele>
        <time>2021-05-20T22:41:43Z</time>
      </trkpt>
      <trkpt lat="30.453112429269762" lon="114.42729525545153">
        <ele>0.0</ele>
        <time>2021-05-20T22:41:49Z</time>
      </trkpt>
      <trkpt lat="30.453125567067357" lon="114.42739946251382">
        <ele>0.0</ele>
        <time>2021-05-20T22:41:54Z</time>
      </trkpt>
      <trkpt lat="30.453132728612403" lon="114.42751970276927">
        <ele>0.0</ele>
        <time>2021-05-20T22:42:00Z</time>
      </trkpt>
      <trkpt lat="30.45313289113092" lon="114.427638942305">
        <ele>0.0</ele>
        <time>2021-05-20T22:42:06Z</time>
      </trkpt>
      <trkpt lat="30.45314505266499" lon="114.42775918349788">
        <ele>0.0</ele>
        <time>2021-05-20T22:42:12Z</time>
      </trkpt>
      <trkpt lat="30.453152213289446" lon="114.42787742175787">
        <ele>0.0</ele>
        <time>2021-05-20T22:42:18Z</time>
      </trkpt>
      <trkpt lat="30.45316835845335" lon="114.42798563957648">
        <ele>0.0</ele>
        <time>2021-05-20T22:42:24Z</time>
      </trkpt>
      <trkpt lat="30.453175513272875" lon="114.42809886891966">
        <ele>0.0</ele>
        <time>2021-05-20T22:42:30Z</time>
      </trkpt>
      <trkpt lat="30.453196655432347" lon="114.42820508335673">
        <ele>0.0</ele>
        <time>2021-05-20T22:42:36Z</time>
      </trkpt>
      <trkpt lat="30.453212817464603" lon="114.42832432538724">
        <ele>0.0</ele>
        <time>2021-05-20T22:42:42Z</time>
      </trkpt>
      <trkpt lat="30.453218972750633" lon="114.42843655458186">
        <ele>0.0</ele>
        <time>2021-05-20T22:42:48Z</time>
      </trkpt>
      <trkpt lat="30.453240119238416" lon="114.428544774836">
        <ele>0.0</ele>
        <time>2021-05-20T22:42:54Z</time>
      </trkpt>
      <trkpt lat="30.453273268902354" lon="114.42865700285958">
        <ele>0.0</ele>
        <time>2021-05-20T22:43:00Z</time>
      </trkpt>
      <trkpt lat="30.453284437276032" lon="114.42877825201381">
        <ele>0.0</ele>
        <time>2021-05-20T22:43:06Z</time>
      </trkpt>
      <trkpt lat="30.45338540524916" lon="114.4287732329048">
        <ele>0.0</ele>
        <time>2021-05-20T22:43:12Z</time>
      </trkpt>
      <trkpt lat="30.453489337082583" lon="114.42874316181629">
        <ele>0.0</ele>
        <time>2021-05-20T22:43:18Z</time>
      </trkpt>
      <trkpt lat="30.453587301540118" lon="114.42873513677188">
        <ele>0.0</ele>
        <time>2021-05-20T22:43:24Z</time>
      </trkpt>
      <trkpt lat="30.453663380463503" lon="114.42880427297439">
        <ele>0.0</ele>
        <time>2021-05-20T22:43:30Z</time>
      </trkpt>
      <trkpt lat="30.4537185059908" lon="114.42890247140154">
        <ele>0.0</ele>
        <time>2021-05-20T22:43:36Z</time>
      </trkpt>
      <trkpt lat="30.453801545208485" lon="114.42894455142671">
        <ele>0.0</ele>
        <time>2021-05-20T22:43:41Z</time>
      </trkpt>
      <trkpt lat="30.45389649892621" lon="114.428928509949">
        <ele>0.0</ele>
        <time>2021-05-20T22:43:47Z</time>
      </trkpt>
      <trkpt lat="30.453994443370604" lon="114.4289064557665">
        <ele>0.0</ele>
        <time>2021-05-20T22:43:54Z</time>
      </trkpt>
      <trkpt lat="30.454091373865765" lon="114.4288743809467">
        <ele>0.0</ele>
        <time>2021-05-20T22:44:00Z</time>
      </trkpt>
      <trkpt lat="30.454198333150075" lon="114.42886435092389">
        <ele>0.0</ele>
        <time>2021-05-20T22:44:06Z</time>
      </trkpt>
      <trkpt lat="30.45428927936032" lon="114.42884229741489">
        <ele>0.0</ele>
        <time>2021-05-20T22:44:12Z</time>
      </trkpt>
      <trkpt lat="30.454384217499875" lon="114.42881523322289">
        <ele>0.0</ele>
        <time>2021-05-20T22:44:18Z</time>
      </trkpt>
      <trkpt lat="30.45448815909653" lon="114.42879217656657">
        <ele>0.0</ele>
        <time>2021-05-20T22:44:24Z</time>
      </trkpt>
      <trkpt lat="30.45458609936199" lon="114.42876711631678">
        <ele>0.0</ele>
        <time>2021-05-20T22:44:30Z</time>
      </trkpt>
      <trkpt lat="30.45468104321945" lon="114.42874406049319">
        <ele>0.0</ele>
        <time>2021-05-20T22:44:36Z</time>
      </trkpt>
      <trkpt lat="30.454782979695494" lon="114.42871699581897">
        <ele>0.0</ele>
        <time>2021-05-20T22:44:42Z</time>
      </trkpt>
      <trkpt lat="30.454880924250695" lon="114.42869494185543">
        <ele>0.0</ele>
        <time>2021-05-20T22:44:48Z</time>
      </trkpt>
      <trkpt lat="30.45497887022903" lon="114.42867388997968">
        <ele>0.0</ele>
        <time>2021-05-20T22:44:54Z</time>
      </trkpt>
      <trkpt lat="30.45507581787653" lon="114.42865384027549">
        <ele>0.0</ele>
        <time>2021-05-20T22:45:00Z</time>
      </trkpt>
      <trkpt lat="30.45517075756747" lon="114.42862777838602">
        <ele>0.0</ele>
        <time>2021-05-20T22:45:06Z</time>
      </trkpt>
      <trkpt lat="30.45527170142149" lon="114.42860572425468">
        <ele>0.0</ele>
        <time>2021-05-20T22:45:12Z</time>
      </trkpt>
      <trkpt lat="30.455374632114918" lon="114.42857465142818">
        <ele>0.0</ele>
        <time>2021-05-20T22:45:18Z</time>
      </trkpt>
      <trkpt lat="30.455469594379558" lon="114.42856462258682">
        <ele>0.0</ele>
        <time>2021-05-20T22:45:24Z</time>
      </trkpt>
      <trkpt lat="30.4555665448859" lon="114.42854657710338">
        <ele>0.0</ele>
        <time>2021-05-20T22:45:30Z</time>
      </trkpt>
      <trkpt lat="30.455664492335565" lon="114.42852652743238">
        <ele>0.0</ele>
        <time>2021-05-20T22:45:36Z</time>
      </trkpt>
      <trkpt lat="30.455761425993735" lon="114.42849645729872">
        <ele>0.0</ele>
        <time>2021-05-20T22:45:42Z</time>
      </trkpt>
      <trkpt lat="30.4558593790824" lon="114.42848041589794">
        <ele>0.0</ele>
        <time>2021-05-20T22:45:49Z</time>
      </trkpt>
      <trkpt lat="30.455950339532766" lon="114.42846838333715">
        <ele>0.0</ele>
        <time>2021-05-20T22:45:54Z</time>
      </trkpt>
      <trkpt lat="30.45605427289199" lon="114.42843931473239">
        <ele>0.0</ele>
        <time>2021-05-20T22:46:00Z</time>
      </trkpt>
      <trkpt lat="30.456144227989032" lon="114.42842327406866">
        <ele>0.0</ele>
        <time>2021-05-20T22:46:06Z</time>
      </trkpt>
      <trkpt lat="30.456236160181124" lon="114.42839120041164">
        <ele>0.0</ele>
        <time>2021-05-20T22:46:12Z</time>
      </trkpt>
      <trkpt lat="30.45633011709397" lon="114.428377163539">
        <ele>0.0</ele>
        <time>2021-05-20T22:46:18Z</time>
      </trkpt>
      <trkpt lat="30.456421056573294" lon="114.42835010028622">
        <ele>0.0</ele>
        <time>2021-05-20T22:46:24Z</time>
      </trkpt>
      <trkpt lat="30.456518004356766" lon="114.42833005088727">
        <ele>0.0</ele>
        <time>2021-05-20T22:46:30Z</time>
      </trkpt>
      <trkpt lat="30.45661793324336" lon="114.42829697463006">
        <ele>0.0</ele>
        <time>2021-05-20T22:46:36Z</time>
      </trkpt>
      <trkpt lat="30.456690817346544" lon="114.42822682511309">
        <ele>0.0</ele>
        <time>2021-05-20T22:46:41Z</time>
      </trkpt>
      <trkpt lat="30.4567476903681" lon="114.42814565477481">
        <ele>0.0</ele>
        <time>2021-05-20T22:46:47Z</time>
      </trkpt>
      <trkpt lat="30.45684370943414" lon="114.42817670970771">
        <ele>0.0</ele>
        <time>2021-05-20T22:46:54Z</time>
      </trkpt>
      <trkpt lat="30.456932753962565" lon="114.42822480003024">
        <ele>0.0</ele>
        <time>2021-05-20T22:47:01Z</time>
      </trkpt>
      <trkpt lat="30.457025733446017" lon="114.4282267960493">
        <ele>0.0</ele>
        <time>2021-05-20T22:47:07Z</time>
      </trkpt>
      <trkpt lat="30.457129679521092" lon="114.42820674615943">
        <ele>0.0</ele>
        <time>2021-05-20T22:47:14Z</time>
      </trkpt>
      <trkpt lat="30.45722363367702" lon="114.42819070532416">
        <ele>0.0</ele>
        <time>2021-05-20T22:47:20Z</time>
      </trkpt>
      <trkpt lat="30.457315602249043" lon="114.42818468509043">
        <ele>0.0</ele>
        <time>2021-05-20T22:47:26Z</time>
      </trkpt>
      <trkpt lat="30.457315602249043" lon="114.42818468509043">
        <ele>0.0</ele>
        <time>2021-05-20T22:47:28Z</time>
      </trkpt>
    </trkseg>
  </trk>
</gpx>