<?xml version="1.0" encoding="UTF-8"?>
<gpx xmlns="http://www.topografix.com/GPX/1/1" xmlns:gpxtpx="http://www.garmin.com/xmlschemas/TrackPointExtension/v1" xmlns:xsi="http://www.w3.org/2001/XMLSchema-instance" xsi:schemaLocation="http://www.topografix.com/GPX/1/1 http://www.topografix.com/GPX/1/1/gpx.xsd" version="1.1" creator="gpx.py -- https://github.com/tkrajina/gpxpy">
  <trk>
    <name>gpx from keep</name>
    <type>Run</type>
    <trkseg>
      <trkpt lat="30.858096682477115" lon="114.80318441296896">
        <ele>31.42623519897461</ele>
        <time>2026-04-25T22:42:51Z</time>
      </trkpt>
      <trkpt lat="30.858035353696966" lon="114.80345196842717">
        <ele>26.93001956678927</ele>
        <time>2026-04-25T22:43:03Z</time>
      </trkpt>
      <trkpt lat="30.858074917198916" lon="114.80350545133363">
        <ele>26.976833689957857</ele>
        <time>2026-04-25T22:43:06Z</time>
      </trkpt>
      <trkpt lat="30.858354875319108" lon="114.80361456949291">
        <ele>32.394741642288864</ele>
        <time>2026-04-25T22:43:18Z</time>
      </trkpt>
      <trkpt lat="30.858649544575094" lon="114.80363606836225">
        <ele>32.325931870378554</ele>
        <time>2026-04-25T22:43:33Z</time>
      </trkpt>
      <trkpt lat="30.8586931955871" lon="114.80365370877027">
        <ele>29.95947678387165</ele>
        <time>2026-04-25T22:43:36Z</time>
      </trkpt>
      <trkpt lat="30.85887830883649" lon="114.80362637591217">
        <ele>31.984530837275088</ele>
        <time>2026-04-25T22:43:42Z</time>
      </trkpt>
      <trkpt lat="30.85918698193448" lon="114.80368561967484">
        <ele>28.598393250256777</ele>
        <time>2026-04-25T22:43:57Z</time>
      </trkpt>
      <trkpt lat="30.859269146195157" lon="114.8037801236734">
        <ele>30.981745488010347</ele>
        <time>2026-04-25T22:44:03Z</time>
      </trkpt>
      <trkpt lat="30.859342209789403" lon="114.80398210991233">
        <ele>30.662857849150896</ele>
        <time>2026-04-25T22:44:12Z</time>
      </trkpt>
      <trkpt lat="30.859354074067" lon="114.80412234608357">
        <ele>29.488435360603034</ele>
        <time>2026-04-25T22:44:18Z</time>
      </trkpt>
      <trkpt lat="30.859338929697863" lon="114.80419128484981">
        <ele>29.95640605315566</ele>
        <time>2026-04-25T22:44:21Z</time>
      </trkpt>
      <trkpt lat="30.85932040844257" lon="114.80456327973008">
        <ele>30.737358742393553</ele>
        <time>2026-04-25T22:44:36Z</time>
      </trkpt>
      <trkpt lat="30.859327409384132" lon="114.80465241998652">
        <ele>30.856364840641618</ele>
        <time>2026-04-25T22:44:39Z</time>
      </trkpt>
      <trkpt lat="30.85931495963879" lon="114.80505573038167">
        <ele>30.06738220900297</ele>
        <time>2026-04-25T22:44:54Z</time>
      </trkpt>
      <trkpt lat="30.85927938772498" lon="114.80543884016525">
        <ele>30.021219122223556</ele>
        <time>2026-04-25T22:45:09Z</time>
      </trkpt>
      <trkpt lat="30.859272291402117" lon="114.80576281538792">
        <ele>28.140891092829406</ele>
        <time>2026-04-25T22:45:25Z</time>
      </trkpt>
      <trkpt lat="30.85926979003804" lon="114.80610464677186">
        <ele>27.686028915457428</ele>
        <time>2026-04-25T22:45:41Z</time>
      </trkpt>
      <trkpt lat="30.859265210810605" lon="114.80643386071105">
        <ele>26.648697609081864</ele>
        <time>2026-04-25T22:45:57Z</time>
      </trkpt>
      <trkpt lat="30.85925488824869" lon="114.80678226901081">
        <ele>30.322520018555224</ele>
        <time>2026-04-25T22:46:11Z</time>
      </trkpt>
      <trkpt lat="30.859244774263576" lon="114.80711079196631">
        <ele>30.399964950047433</ele>
        <time>2026-04-25T22:46:26Z</time>
      </trkpt>
      <trkpt lat="30.859229197069048" lon="114.80743858583067">
        <ele>29.04076738655567</ele>
        <time>2026-04-25T22:46:41Z</time>
      </trkpt>
      <trkpt lat="30.859232951921058" lon="114.80750255820718">
        <ele>29.776600592769682</ele>
        <time>2026-04-25T22:46:44Z</time>
      </trkpt>
      <trkpt lat="30.859145070684704" lon="114.8076762287284">
        <ele>29.61882507801056</ele>
        <time>2026-04-25T22:46:53Z</time>
      </trkpt>
      <trkpt lat="30.858983175861226" lon="114.807754975948">
        <ele>28.257653220556676</ele>
        <time>2026-04-25T22:47:02Z</time>
      </trkpt>
      <trkpt lat="30.85865972926787" lon="114.8077798738926">
        <ele>29.611787213012576</ele>
        <time>2026-04-25T22:47:18Z</time>
      </trkpt>
      <trkpt lat="30.858311944210417" lon="114.80777231187406">
        <ele>30.45768426451832</ele>
        <time>2026-04-25T22:47:34Z</time>
      </trkpt>
      <trkpt lat="30.85807110335203" lon="114.80776423788173">
        <ele>30.120056963525712</ele>
        <time>2026-04-25T22:47:46Z</time>
      </trkpt>
      <trkpt lat="30.85793874548375" lon="114.8077904060463">
        <ele>28.455543065443635</ele>
        <time>2026-04-25T22:47:54Z</time>
      </trkpt>
      <trkpt lat="30.857654374485715" lon="114.80777502731793">
        <ele>28.87130371015519</ele>
        <time>2026-04-25T22:48:08Z</time>
      </trkpt>
      <trkpt lat="30.8573225555033" lon="114.80775846514798">
        <ele>30.61734555568546</ele>
        <time>2026-04-25T22:48:25Z</time>
      </trkpt>
      <trkpt lat="30.857055607181795" lon="114.80773110218566">
        <ele>28.890935260802507</ele>
        <time>2026-04-25T22:48:40Z</time>
      </trkpt>
      <trkpt lat="30.857007896122543" lon="114.8077110270446">
        <ele>26.747343928553164</ele>
        <time>2026-04-25T22:48:43Z</time>
      </trkpt>
      <trkpt lat="30.856706904491126" lon="114.80770949727767">
        <ele>30.52762112673372</ele>
        <time>2026-04-25T22:48:56Z</time>
      </trkpt>
      <trkpt lat="30.85636336216203" lon="114.80768747436186">
        <ele>31.028379102237523</ele>
        <time>2026-04-25T22:49:12Z</time>
      </trkpt>
      <trkpt lat="30.85611983779888" lon="114.80767819275509">
        <ele>29.081537306308746</ele>
        <time>2026-04-25T22:49:23Z</time>
      </trkpt>
      <trkpt lat="30.855879951844635" lon="114.80765571250856">
        <ele>30.604981185868382</ele>
        <time>2026-04-25T22:49:35Z</time>
      </trkpt>
      <trkpt lat="30.85581347067077" lon="114.80767081313107">
        <ele>30.827171966433525</ele>
        <time>2026-04-25T22:49:38Z</time>
      </trkpt>
      <trkpt lat="30.855601358590583" lon="114.80765898519371">
        <ele>30.247038688510656</ele>
        <time>2026-04-25T22:49:48Z</time>
      </trkpt>
      <trkpt lat="30.855466448642066" lon="114.80766601991182">
        <ele>29.37342195957899</ele>
        <time>2026-04-25T22:49:54Z</time>
      </trkpt>
      <trkpt lat="30.855287121427327" lon="114.80766254559573">
        <ele>31.32035298086703</ele>
        <time>2026-04-25T22:50:03Z</time>
      </trkpt>
      <trkpt lat="30.85504601142552" lon="114.80763740480631">
        <ele>30.959080702625215</ele>
        <time>2026-04-25T22:50:15Z</time>
      </trkpt>
      <trkpt lat="30.85498941258859" lon="114.80761839920515">
        <ele>30.40596774686128</ele>
        <time>2026-04-25T22:50:18Z</time>
      </trkpt>
      <trkpt lat="30.854737448844556" lon="114.80762674374209">
        <ele>31.01537994388491</ele>
        <time>2026-04-25T22:50:30Z</time>
      </trkpt>
      <trkpt lat="30.854659572534683" lon="114.80761211038788">
        <ele>31.172621730715036</ele>
        <time>2026-04-25T22:50:34Z</time>
      </trkpt>
      <trkpt lat="30.854356364148067" lon="114.80761984661471">
        <ele>30.067605854012072</ele>
        <time>2026-04-25T22:50:49Z</time>
      </trkpt>
      <trkpt lat="30.85406971776272" lon="114.80759995451083">
        <ele>30.177442031912506</ele>
        <time>2026-04-25T22:51:04Z</time>
      </trkpt>
      <trkpt lat="30.85376987770071" lon="114.80758178320298">
        <ele>29.958969245664775</ele>
        <time>2026-04-25T22:51:20Z</time>
      </trkpt>
      <trkpt lat="30.853706005968725" lon="114.80758304241249">
        <ele>30.714182001538575</ele>
        <time>2026-04-25T22:51:23Z</time>
      </trkpt>
      <trkpt lat="30.853583227665695" lon="114.80755267170106">
        <ele>29.92233199533075</ele>
        <time>2026-04-25T22:51:29Z</time>
      </trkpt>
      <trkpt lat="30.85324985601868" lon="114.80758019400724">
        <ele>31.377631209790707</ele>
        <time>2026-04-25T22:51:44Z</time>
      </trkpt>
      <trkpt lat="30.8529265140498" lon="114.80755182094173">
        <ele>30.99760310538113</ele>
        <time>2026-04-25T22:51:59Z</time>
      </trkpt>
      <trkpt lat="30.8526060834441" lon="114.80755839537066">
        <ele>30.355629817582667</ele>
        <time>2026-04-25T22:52:15Z</time>
      </trkpt>
      <trkpt lat="30.85230554687663" lon="114.80753268996281">
        <ele>30.091369316913188</ele>
        <time>2026-04-25T22:52:31Z</time>
      </trkpt>
      <trkpt lat="30.85209807359863" lon="114.80753914061945">
        <ele>31.64885945338756</ele>
        <time>2026-04-25T22:52:40Z</time>
      </trkpt>
      <trkpt lat="30.852045484825904" lon="114.80752718821871">
        <ele>31.370999855920672</ele>
        <time>2026-04-25T22:52:43Z</time>
      </trkpt>
      <trkpt lat="30.851719147707886" lon="114.80753212682242">
        <ele>32.781539731658995</ele>
        <time>2026-04-25T22:53:00Z</time>
      </trkpt>
      <trkpt lat="30.851600422167664" lon="114.8075004695953">
        <ele>28.471153690479696</ele>
        <time>2026-04-25T22:53:07Z</time>
      </trkpt>
      <trkpt lat="30.851396957295844" lon="114.80752627845827">
        <ele>32.53949612006545</ele>
        <time>2026-04-25T22:53:16Z</time>
      </trkpt>
      <trkpt lat="30.851276968724548" lon="114.8075075157492">
        <ele>28.5004024207592</ele>
        <time>2026-04-25T22:53:23Z</time>
      </trkpt>
      <trkpt lat="30.851143156569716" lon="114.80751822150745">
        <ele>32.20418948214501</ele>
        <time>2026-04-25T22:53:29Z</time>
      </trkpt>
      <trkpt lat="30.850983527805713" lon="114.80748301166243">
        <ele>31.723124345764518</ele>
        <time>2026-04-25T22:53:38Z</time>
      </trkpt>
      <trkpt lat="30.850903748941626" lon="114.807501943345">
        <ele>32.872396459802985</ele>
        <time>2026-04-25T22:53:41Z</time>
      </trkpt>
      <trkpt lat="30.85083806913379" lon="114.8074880510011">
        <ele>34.2967753848061</ele>
        <time>2026-04-25T22:53:44Z</time>
      </trkpt>
      <trkpt lat="30.850700194526592" lon="114.80750445271089">
        <ele>33.88513567391783</ele>
        <time>2026-04-25T22:53:50Z</time>
      </trkpt>
      <trkpt lat="30.850387625245272" lon="114.8074831714307">
        <ele>34.14828808512539</ele>
        <time>2026-04-25T22:54:05Z</time>
      </trkpt>
      <trkpt lat="30.85014731605684" lon="114.80748753197004">
        <ele>34.279146797955036</ele>
        <time>2026-04-25T22:54:17Z</time>
      </trkpt>
      <trkpt lat="30.849910929441425" lon="114.80745489730488">
        <ele>33.06377824302763</ele>
        <time>2026-04-25T22:54:29Z</time>
      </trkpt>
      <trkpt lat="30.849753226279194" lon="114.80747658215934">
        <ele>34.24077303241938</ele>
        <time>2026-04-25T22:54:36Z</time>
      </trkpt>
      <trkpt lat="30.849481720484697" lon="114.80742891969996">
        <ele>33.42507464904338</ele>
        <time>2026-04-25T22:54:49Z</time>
      </trkpt>
      <trkpt lat="30.849412845173383" lon="114.807413721744">
        <ele>32.68108433391899</ele>
        <time>2026-04-25T22:54:52Z</time>
      </trkpt>
      <trkpt lat="30.849348613144237" lon="114.80742739092157">
        <ele>33.498829239048064</ele>
        <time>2026-04-25T22:54:55Z</time>
      </trkpt>
      <trkpt lat="30.84901009265754" lon="114.80742203418146">
        <ele>34.53296676464379</ele>
        <time>2026-04-25T22:55:10Z</time>
      </trkpt>
      <trkpt lat="30.848732089630897" lon="114.80743817874394">
        <ele>33.804388497024775</ele>
        <time>2026-04-25T22:55:22Z</time>
      </trkpt>
      <trkpt lat="30.84867147731125" lon="114.80741618494037">
        <ele>33.92304198630154</ele>
        <time>2026-04-25T22:55:25Z</time>
      </trkpt>
      <trkpt lat="30.848507420081578" lon="114.80743917194422">
        <ele>32.952964862808585</ele>
        <time>2026-04-25T22:55:33Z</time>
      </trkpt>
      <trkpt lat="30.848285303191027" lon="114.80739735199461">
        <ele>31.668717975728214</ele>
        <time>2026-04-25T22:55:45Z</time>
      </trkpt>
      <trkpt lat="30.848190791986244" lon="114.80741115051376">
        <ele>33.70880989637226</ele>
        <time>2026-04-25T22:55:49Z</time>
      </trkpt>
      <trkpt lat="30.847968643581243" lon="114.80736798110084">
        <ele>32.25488824211061</ele>
        <time>2026-04-25T22:56:01Z</time>
      </trkpt>
      <trkpt lat="30.847650054009254" lon="114.80737467779404">
        <ele>33.55605932511389</ele>
        <time>2026-04-25T22:56:15Z</time>
      </trkpt>
      <trkpt lat="30.84733443915025" lon="114.80735318239377">
        <ele>31.91499531827867</ele>
        <time>2026-04-25T22:56:30Z</time>
      </trkpt>
      <trkpt lat="30.84707454008719" lon="114.80736085445615">
        <ele>31.745449783280492</ele>
        <time>2026-04-25T22:56:42Z</time>
      </trkpt>
      <trkpt lat="30.846890829306034" lon="114.80732662102348">
        <ele>31.917489427141845</ele>
        <time>2026-04-25T22:56:51Z</time>
      </trkpt>
      <trkpt lat="30.84674829823703" lon="114.8073434018405">
        <ele>32.48071038722992</ele>
        <time>2026-04-25T22:56:57Z</time>
      </trkpt>
      <trkpt lat="30.846613081181" lon="114.80732945704602">
        <ele>33.57802236545831</ele>
        <time>2026-04-25T22:57:03Z</time>
      </trkpt>
      <trkpt lat="30.846540504094126" lon="114.80734677406876">
        <ele>33.070977228693664</ele>
        <time>2026-04-25T22:57:06Z</time>
      </trkpt>
      <trkpt lat="30.846420578275445" lon="114.80731793821711">
        <ele>33.69679673667997</ele>
        <time>2026-04-25T22:57:12Z</time>
      </trkpt>
      <trkpt lat="30.84637649933995" lon="114.80726250227194">
        <ele>33.40093087311834</ele>
        <time>2026-04-25T22:57:15Z</time>
      </trkpt>
      <trkpt lat="30.84633065399324" lon="114.80723618700905">
        <ele>33.09594397805631</ele>
        <time>2026-04-25T22:57:18Z</time>
      </trkpt>
      <trkpt lat="30.846239615372728" lon="114.80722357442846">
        <ele>34.292234444990754</ele>
        <time>2026-04-25T22:57:28Z</time>
      </trkpt>
      <trkpt lat="30.84601870027795" lon="114.80728620309735">
        <ele>32.792684180662036</ele>
        <time>2026-04-25T22:57:38Z</time>
      </trkpt>
      <trkpt lat="30.845740740665264" lon="114.80727546018304">
        <ele>32.29896411765367</ele>
        <time>2026-04-25T22:57:51Z</time>
      </trkpt>
      <trkpt lat="30.845550358661097" lon="114.80727664621736">
        <ele>33.45248954184353</ele>
        <time>2026-04-25T22:57:59Z</time>
      </trkpt>
      <trkpt lat="30.84545466713542" lon="114.80730130893656">
        <ele>32.873022282496095</ele>
        <time>2026-04-25T22:58:03Z</time>
      </trkpt>
      <trkpt lat="30.84512669218828" lon="114.8072778785473">
        <ele>32.47788300551474</ele>
        <time>2026-04-25T22:58:20Z</time>
      </trkpt>
      <trkpt lat="30.844853968544108" lon="114.8072852013038">
        <ele>33.46008098870516</ele>
        <time>2026-04-25T22:58:33Z</time>
      </trkpt>
      <trkpt lat="30.844812378238792" lon="114.80724012444995">
        <ele>28.84697383735329</ele>
        <time>2026-04-25T22:58:37Z</time>
      </trkpt>
      <trkpt lat="30.844567329012033" lon="114.80724456743002">
        <ele>29.063131808303297</ele>
        <time>2026-04-25T22:58:49Z</time>
      </trkpt>
      <trkpt lat="30.844362646530335" lon="114.80725704668376">
        <ele>29.832042711786926</ele>
        <time>2026-04-25T22:58:58Z</time>
      </trkpt>
      <trkpt lat="30.844078989330416" lon="114.80724992898578">
        <ele>29.217738856561482</ele>
        <time>2026-04-25T22:59:13Z</time>
      </trkpt>
      <trkpt lat="30.84381422729267" lon="114.80725351502917">
        <ele>31.73959239386022</ele>
        <time>2026-04-25T22:59:25Z</time>
      </trkpt>
      <trkpt lat="30.84369885786139" lon="114.80722918133655">
        <ele>27.503756389021873</ele>
        <time>2026-04-25T22:59:31Z</time>
      </trkpt>
      <trkpt lat="30.843563408984302" lon="114.80724218711781">
        <ele>30.641436501406133</ele>
        <time>2026-04-25T22:59:37Z</time>
      </trkpt>
      <trkpt lat="30.843280385603954" lon="114.80720905296991">
        <ele>30.56458013318479</ele>
        <time>2026-04-25T22:59:50Z</time>
      </trkpt>
      <trkpt lat="30.843100877536287" lon="114.80723863378537">
        <ele>31.206260358914733</ele>
        <time>2026-04-25T22:59:59Z</time>
      </trkpt>
      <trkpt lat="30.84299203002346" lon="114.80720745547069">
        <ele>29.979801643639803</ele>
        <time>2026-04-25T23:00:05Z</time>
      </trkpt>
      <trkpt lat="30.84281267120455" lon="114.80720475568214">
        <ele>30.486945850774646</ele>
        <time>2026-04-25T23:00:14Z</time>
      </trkpt>
      <trkpt lat="30.842653955097155" lon="114.80715951503043">
        <ele>29.969273247756064</ele>
        <time>2026-04-25T23:00:23Z</time>
      </trkpt>
      <trkpt lat="30.842338063585494" lon="114.80718260965047">
        <ele>31.30225733947009</ele>
        <time>2026-04-25T23:00:38Z</time>
      </trkpt>
      <trkpt lat="30.842050709677594" lon="114.80716272648507">
        <ele>31.19630009587854</ele>
        <time>2026-04-25T23:00:53Z</time>
      </trkpt>
      <trkpt lat="30.84196182497119" lon="114.80713430007049">
        <ele>29.18788651470095</ele>
        <time>2026-04-25T23:00:59Z</time>
      </trkpt>
      <trkpt lat="30.841851568764827" lon="114.8071427757647">
        <ele>29.04097211919725</ele>
        <time>2026-04-25T23:01:05Z</time>
      </trkpt>
      <trkpt lat="30.841801055701715" lon="114.80712650645647">
        <ele>31.01507077086717</ele>
        <time>2026-04-25T23:01:08Z</time>
      </trkpt>
      <trkpt lat="30.84147288902609" lon="114.80715509585853">
        <ele>32.37034057080746</ele>
        <time>2026-04-25T23:01:23Z</time>
      </trkpt>
      <trkpt lat="30.841358083185526" lon="114.80714312029023">
        <ele>32.41591175273061</ele>
        <time>2026-04-25T23:01:29Z</time>
      </trkpt>
      <trkpt lat="30.841304956532476" lon="114.80710562638968">
        <ele>32.350362109951675</ele>
        <time>2026-04-25T23:01:32Z</time>
      </trkpt>
      <trkpt lat="30.8412506211924" lon="114.80698855814884">
        <ele>31.282046136446297</ele>
        <time>2026-04-25T23:01:38Z</time>
      </trkpt>
      <trkpt lat="30.841228092073337" lon="114.80687947010742">
        <ele>29.903717439621687</ele>
        <time>2026-04-25T23:01:44Z</time>
      </trkpt>
      <trkpt lat="30.84124296436313" lon="114.8066325362479">
        <ele>31.859796724282205</ele>
        <time>2026-04-25T23:01:56Z</time>
      </trkpt>
      <trkpt lat="30.841223046491457" lon="114.8064942985653">
        <ele>31.73221555352211</ele>
        <time>2026-04-25T23:02:00Z</time>
      </trkpt>
      <trkpt lat="30.84123192509337" lon="114.80638065565115">
        <ele>31.100261078216136</ele>
        <time>2026-04-25T23:02:04Z</time>
      </trkpt>
      <trkpt lat="30.841212394644298" lon="114.8063170861442">
        <ele>32.350919054821134</ele>
        <time>2026-04-25T23:02:08Z</time>
      </trkpt>
      <trkpt lat="30.841228519514505" lon="114.80603107103887">
        <ele>32.852005664259195</ele>
        <time>2026-04-25T23:02:19Z</time>
      </trkpt>
      <trkpt lat="30.841250262824406" lon="114.80596369328411">
        <ele>30.865432677790523</ele>
        <time>2026-04-25T23:02:23Z</time>
      </trkpt>
      <trkpt lat="30.841243976935342" lon="114.80579318772908">
        <ele>30.78054695110768</ele>
        <time>2026-04-25T23:02:30Z</time>
      </trkpt>
      <trkpt lat="30.841257759806588" lon="114.80560942995774">
        <ele>30.866655299440026</ele>
        <time>2026-04-25T23:02:37Z</time>
      </trkpt>
      <trkpt lat="30.841290433000186" lon="114.8055633067424">
        <ele>33.63583697658032</ele>
        <time>2026-04-25T23:02:40Z</time>
      </trkpt>
      <trkpt lat="30.84131140678919" lon="114.8054085029106">
        <ele>33.663638084195554</ele>
        <time>2026-04-25T23:02:46Z</time>
      </trkpt>
      <trkpt lat="30.841281918665793" lon="114.8052188810698">
        <ele>31.709028743207455</ele>
        <time>2026-04-25T23:02:53Z</time>
      </trkpt>
      <trkpt lat="30.84136964649582" lon="114.80486192967099">
        <ele>31.85156221035868</ele>
        <time>2026-04-25T23:03:08Z</time>
      </trkpt>
      <trkpt lat="30.84138107784461" lon="114.804803610969">
        <ele>32.039924861863256</ele>
        <time>2026-04-25T23:03:11Z</time>
      </trkpt>
      <trkpt lat="30.841346712011383" lon="114.80465183424735">
        <ele>32.11201672721654</ele>
        <time>2026-04-25T23:03:17Z</time>
      </trkpt>
      <trkpt lat="30.84136698591514" lon="114.80455032540443">
        <ele>31.264981637708843</ele>
        <time>2026-04-25T23:03:21Z</time>
      </trkpt>
      <trkpt lat="30.841362019512655" lon="114.80424947156278">
        <ele>33.78697870951146</ele>
        <time>2026-04-25T23:03:33Z</time>
      </trkpt>
      <trkpt lat="30.84138426005766" lon="114.80408578071443">
        <ele>28.394472257234156</ele>
        <time>2026-04-25T23:03:42Z</time>
      </trkpt>
      <trkpt lat="30.841370108569794" lon="114.80399198336136">
        <ele>26.934344203211367</ele>
        <time>2026-04-25T23:03:46Z</time>
      </trkpt>
      <trkpt lat="30.84140297107467" lon="114.80382734601854">
        <ele>29.89435433037579</ele>
        <time>2026-04-25T23:03:53Z</time>
      </trkpt>
      <trkpt lat="30.841413133950827" lon="114.8036768307736">
        <ele>30.85905187483877</ele>
        <time>2026-04-25T23:03:59Z</time>
      </trkpt>
      <trkpt lat="30.841438059432434" lon="114.80353122957096">
        <ele>32.602723594754934</ele>
        <time>2026-04-25T23:04:06Z</time>
      </trkpt>
      <trkpt lat="30.841427688451805" lon="114.80321482511089">
        <ele>32.49715577159077</ele>
        <time>2026-04-25T23:04:18Z</time>
      </trkpt>
      <trkpt lat="30.841425140865795" lon="114.80301905307651">
        <ele>33.471896718256176</ele>
        <time>2026-04-25T23:04:25Z</time>
      </trkpt>
      <trkpt lat="30.84144020726435" lon="114.80296653596689">
        <ele>31.44283026084304</ele>
        <time>2026-04-25T23:04:28Z</time>
      </trkpt>
      <trkpt lat="30.841491345850503" lon="114.8029231340197">
        <ele>30.8359467824921</ele>
        <time>2026-04-25T23:04:31Z</time>
      </trkpt>
      <trkpt lat="30.841524619628952" lon="114.80286741738878">
        <ele>29.806788815185428</ele>
        <time>2026-04-25T23:04:34Z</time>
      </trkpt>
      <trkpt lat="30.841501747023578" lon="114.8027091736795">
        <ele>31.08711484912783</ele>
        <time>2026-04-25T23:04:43Z</time>
      </trkpt>
      <trkpt lat="30.84146627051356" lon="114.80264878292101">
        <ele>29.76473547052592</ele>
        <time>2026-04-25T23:04:49Z</time>
      </trkpt>
      <trkpt lat="30.84145906726205" lon="114.80257645579128">
        <ele>32.16461784020066</ele>
        <time>2026-04-25T23:04:52Z</time>
      </trkpt>
      <trkpt lat="30.84147000293295" lon="114.80251546979979">
        <ele>31.509555185213685</ele>
        <time>2026-04-25T23:04:55Z</time>
      </trkpt>
      <trkpt lat="30.841455435752632" lon="114.80227418915261">
        <ele>32.39395586308092</ele>
        <time>2026-04-25T23:05:04Z</time>
      </trkpt>
      <trkpt lat="30.84143492661374" lon="114.80220526690219">
        <ele>33.306286316365004</ele>
        <time>2026-04-25T23:05:07Z</time>
      </trkpt>
      <trkpt lat="30.841419967928747" lon="114.80202818177958">
        <ele>33.138746205717325</ele>
        <time>2026-04-25T23:05:14Z</time>
      </trkpt>
      <trkpt lat="30.841465004021543" lon="114.80186822821277">
        <ele>33.78203410003334</ele>
        <time>2026-04-25T23:05:21Z</time>
      </trkpt>
      <trkpt lat="30.841437697253927" lon="114.80152008106279">
        <ele>33.83225664496422</ele>
        <time>2026-04-25T23:05:34Z</time>
      </trkpt>
      <trkpt lat="30.84142999307593" lon="114.80145110437611">
        <ele>32.86554058268666</ele>
        <time>2026-04-25T23:05:37Z</time>
      </trkpt>
      <trkpt lat="30.84147170840326" lon="114.80131070028241">
        <ele>32.98889495432377</ele>
        <time>2026-04-25T23:05:44Z</time>
      </trkpt>
      <trkpt lat="30.841461699282696" lon="114.80112371948245">
        <ele>29.745739929378033</ele>
        <time>2026-04-25T23:05:53Z</time>
      </trkpt>
      <trkpt lat="30.841539212023783" lon="114.80076169535">
        <ele>34.324519778601825</ele>
        <time>2026-04-25T23:06:10Z</time>
      </trkpt>
      <trkpt lat="30.84153511745004" lon="114.80065046647394">
        <ele>33.395936626940966</ele>
        <time>2026-04-25T23:06:16Z</time>
      </trkpt>
      <trkpt lat="30.84157212662373" lon="114.80055626031483">
        <ele>33.09387774486095</ele>
        <time>2026-04-25T23:06:19Z</time>
      </trkpt>
      <trkpt lat="30.84157838044101" lon="114.80028536320542">
        <ele>33.253318548202515</ele>
        <time>2026-04-25T23:06:28Z</time>
      </trkpt>
      <trkpt lat="30.841595818626477" lon="114.80020379784051">
        <ele>33.903239647857845</ele>
        <time>2026-04-25T23:06:32Z</time>
      </trkpt>
      <trkpt lat="30.841605233598738" lon="114.79982514515594">
        <ele>33.61149859894067</ele>
        <time>2026-04-25T23:06:47Z</time>
      </trkpt>
      <trkpt lat="30.841595801093888" lon="114.79967112010182">
        <ele>35.54038951359689</ele>
        <time>2026-04-25T23:06:54Z</time>
      </trkpt>
      <trkpt lat="30.841599450602793" lon="114.79937046610712">
        <ele>34.68726517818868</ele>
        <time>2026-04-25T23:07:06Z</time>
      </trkpt>
      <trkpt lat="30.841618926627916" lon="114.79925466096716">
        <ele>34.588295807130635</ele>
        <time>2026-04-25T23:07:13Z</time>
      </trkpt>
      <trkpt lat="30.841610612207678" lon="114.79914658191254">
        <ele>33.575157784856856</ele>
        <time>2026-04-25T23:07:17Z</time>
      </trkpt>
      <trkpt lat="30.841646764032934" lon="114.79889980732392">
        <ele>34.28026712406427</ele>
        <time>2026-04-25T23:07:26Z</time>
      </trkpt>
      <trkpt lat="30.84162566847297" lon="114.79882377154728">
        <ele>33.661540515720844</ele>
        <time>2026-04-25T23:07:29Z</time>
      </trkpt>
      <trkpt lat="30.841665022242193" lon="114.79875956276226">
        <ele>34.581569692119956</ele>
        <time>2026-04-25T23:07:32Z</time>
      </trkpt>
      <trkpt lat="30.84183866751065" lon="114.79870448606329">
        <ele>33.349569622427225</ele>
        <time>2026-04-25T23:07:38Z</time>
      </trkpt>
      <trkpt lat="30.841963763401566" lon="114.79872845263179">
        <ele>34.739026858471334</ele>
        <time>2026-04-25T23:07:45Z</time>
      </trkpt>
      <trkpt lat="30.842012575751774" lon="114.79875361951287">
        <ele>33.49507893528789</ele>
        <time>2026-04-25T23:07:48Z</time>
      </trkpt>
      <trkpt lat="30.84227313300131" lon="114.79876986286739">
        <ele>33.769360000267625</ele>
        <time>2026-04-25T23:08:01Z</time>
      </trkpt>
      <trkpt lat="30.84252328959849" lon="114.7987585621575">
        <ele>32.504930103197694</ele>
        <time>2026-04-25T23:08:13Z</time>
      </trkpt>
      <trkpt lat="30.8428011339804" lon="114.79879222329612">
        <ele>32.64178426377475</ele>
        <time>2026-04-25T23:08:24Z</time>
      </trkpt>
      <trkpt lat="30.84297447008482" lon="114.79883948761344">
        <ele>34.185043677687645</ele>
        <time>2026-04-25T23:08:33Z</time>
      </trkpt>
      <trkpt lat="30.84310982551443" lon="114.79885706222247">
        <ele>34.645151894539595</ele>
        <time>2026-04-25T23:08:39Z</time>
      </trkpt>
      <trkpt lat="30.84331791826672" lon="114.79887130777324">
        <ele>34.38449633400887</ele>
        <time>2026-04-25T23:08:48Z</time>
      </trkpt>
      <trkpt lat="30.84341573510897" lon="114.79890654466352">
        <ele>33.162580729462206</ele>
        <time>2026-04-25T23:08:52Z</time>
      </trkpt>
      <trkpt lat="30.84346299987225" lon="114.798954337372">
        <ele>31.757809297181666</ele>
        <time>2026-04-25T23:08:55Z</time>
      </trkpt>
      <trkpt lat="30.843735564896186" lon="114.79901598992119">
        <ele>34.03139596898109</ele>
        <time>2026-04-25T23:09:14Z</time>
      </trkpt>
      <trkpt lat="30.8439236653098" lon="114.79904869285461">
        <ele>32.640312165021896</ele>
        <time>2026-04-25T23:09:23Z</time>
      </trkpt>
      <trkpt lat="30.844038380785907" lon="114.7989798877325">
        <ele>35.19338839966804</ele>
        <time>2026-04-25T23:09:30Z</time>
      </trkpt>
      <trkpt lat="30.844306029165853" lon="114.79903960771503">
        <ele>33.84109969250858</ele>
        <time>2026-04-25T23:09:42Z</time>
      </trkpt>
      <trkpt lat="30.844348596642114" lon="114.79900345393324">
        <ele>30.09274223074317</ele>
        <time>2026-04-25T23:09:45Z</time>
      </trkpt>
      <trkpt lat="30.84449277863454" lon="114.79894163507667">
        <ele>31.972836576402187</ele>
        <time>2026-04-25T23:09:51Z</time>
      </trkpt>
      <trkpt lat="30.844665074498646" lon="114.79890646122674">
        <ele>33.68852377869189</ele>
        <time>2026-04-25T23:09:57Z</time>
      </trkpt>
      <trkpt lat="30.84474647546919" lon="114.79893273118414">
        <ele>34.82208236772567</ele>
        <time>2026-04-25T23:10:00Z</time>
      </trkpt>
      <trkpt lat="30.844996728224533" lon="114.79891497433027">
        <ele>35.24606141168624</ele>
        <time>2026-04-25T23:10:14Z</time>
      </trkpt>
      <trkpt lat="30.845086849690677" lon="114.7988822081845">
        <ele>35.98117336910218</ele>
        <time>2026-04-25T23:10:18Z</time>
      </trkpt>
      <trkpt lat="30.84525188864589" lon="114.79891416392863">
        <ele>35.30315929278731</ele>
        <time>2026-04-25T23:10:26Z</time>
      </trkpt>
      <trkpt lat="30.845345905183724" lon="114.79895532372512">
        <ele>36.01610048953444</ele>
        <time>2026-04-25T23:10:30Z</time>
      </trkpt>
      <trkpt lat="30.845627227345016" lon="114.79898716229683">
        <ele>33.787569869309664</ele>
        <time>2026-04-25T23:10:46Z</time>
      </trkpt>
      <trkpt lat="30.845758701344913" lon="114.79898113306028">
        <ele>33.28911702428013</ele>
        <time>2026-04-25T23:10:53Z</time>
      </trkpt>
      <trkpt lat="30.84596769959747" lon="114.79889618249273">
        <ele>36.450360061600804</ele>
        <time>2026-04-25T23:11:02Z</time>
      </trkpt>
      <trkpt lat="30.846093527699058" lon="114.79888683528655">
        <ele>35.69929014518857</ele>
        <time>2026-04-25T23:11:08Z</time>
      </trkpt>
      <trkpt lat="30.84621015160993" lon="114.79884921113684">
        <ele>35.551611262373626</ele>
        <time>2026-04-25T23:11:14Z</time>
      </trkpt>
      <trkpt lat="30.84626596757043" lon="114.79885563913716">
        <ele>33.38320275768638</ele>
        <time>2026-04-25T23:11:17Z</time>
      </trkpt>
      <trkpt lat="30.846515781616077" lon="114.79897774312444">
        <ele>33.317219843156636</ele>
        <time>2026-04-25T23:11:29Z</time>
      </trkpt>
      <trkpt lat="30.84658289660582" lon="114.79900136046037">
        <ele>33.25821646396071</ele>
        <time>2026-04-25T23:11:32Z</time>
      </trkpt>
      <trkpt lat="30.846640705745838" lon="114.79898053312476">
        <ele>34.67193561512977</ele>
        <time>2026-04-25T23:11:35Z</time>
      </trkpt>
      <trkpt lat="30.846942803308732" lon="114.7990089877227">
        <ele>34.43822281900793</ele>
        <time>2026-04-25T23:11:51Z</time>
      </trkpt>
      <trkpt lat="30.847079524218753" lon="114.79897706009449">
        <ele>36.36163620091975</ele>
        <time>2026-04-25T23:11:57Z</time>
      </trkpt>
      <trkpt lat="30.84720236533461" lon="114.79900157853783">
        <ele>35.013884879648685</ele>
        <time>2026-04-25T23:12:03Z</time>
      </trkpt>
      <trkpt lat="30.847279009707858" lon="114.79899120612777">
        <ele>33.318198243156075</ele>
        <time>2026-04-25T23:12:06Z</time>
      </trkpt>
      <trkpt lat="30.84742897058184" lon="114.79900535844537">
        <ele>32.56513558793813</ele>
        <time>2026-04-25T23:12:15Z</time>
      </trkpt>
      <trkpt lat="30.84750572269425" lon="114.79897425709015">
        <ele>34.613241320475936</ele>
        <time>2026-04-25T23:12:19Z</time>
      </trkpt>
      <trkpt lat="30.847647748255245" lon="114.79897238576956">
        <ele>33.69291384797543</ele>
        <time>2026-04-25T23:12:26Z</time>
      </trkpt>
      <trkpt lat="30.84777195285423" lon="114.79902483372778">
        <ele>32.84629535023123</ele>
        <time>2026-04-25T23:12:32Z</time>
      </trkpt>
      <trkpt lat="30.848074889744275" lon="114.79901819960763">
        <ele>32.63584864605218</ele>
        <time>2026-04-25T23:12:51Z</time>
      </trkpt>
      <trkpt lat="30.84832450301617" lon="114.79897182843703">
        <ele>34.7791769169271</ele>
        <time>2026-04-25T23:13:02Z</time>
      </trkpt>
      <trkpt lat="30.848393146962483" lon="114.79897773085011">
        <ele>35.89879398513585</ele>
        <time>2026-04-25T23:13:05Z</time>
      </trkpt>
      <trkpt lat="30.848436719389326" lon="114.79895268683575">
        <ele>32.79415658302605</ele>
        <time>2026-04-25T23:13:08Z</time>
      </trkpt>
      <trkpt lat="30.848740388194578" lon="114.79893147197667">
        <ele>35.178517162799835</ele>
        <time>2026-04-25T23:13:20Z</time>
      </trkpt>
      <trkpt lat="30.848885574380418" lon="114.79893359721689">
        <ele>36.19841792527586</ele>
        <time>2026-04-25T23:13:26Z</time>
      </trkpt>
      <trkpt lat="30.849181979093768" lon="114.79899276797964">
        <ele>35.37267527077347</ele>
        <time>2026-04-25T23:13:41Z</time>
      </trkpt>
      <trkpt lat="30.84929767427392" lon="114.7990064324857">
        <ele>36.08052919246256</ele>
        <time>2026-04-25T23:13:50Z</time>
      </trkpt>
      <trkpt lat="30.84942975094048" lon="114.79894140445678">
        <ele>36.329560896381736</ele>
        <time>2026-04-25T23:14:02Z</time>
      </trkpt>
      <trkpt lat="30.849487175568566" lon="114.79892923888373">
        <ele>37.613146155141294</ele>
        <time>2026-04-25T23:14:05Z</time>
      </trkpt>
      <trkpt lat="30.8495808859642" lon="114.7989405472554">
        <ele>36.83866836130619</ele>
        <time>2026-04-25T23:14:11Z</time>
      </trkpt>
      <trkpt lat="30.849647683254236" lon="114.79898706090162">
        <ele>36.50846795551479</ele>
        <time>2026-04-25T23:14:15Z</time>
      </trkpt>
      <trkpt lat="30.849702933331407" lon="114.79899885427169">
        <ele>36.49529259093106</ele>
        <time>2026-04-25T23:14:18Z</time>
      </trkpt>
      <trkpt lat="30.849760050981274" lon="114.79898298625957">
        <ele>36.40631529595703</ele>
        <time>2026-04-25T23:14:21Z</time>
      </trkpt>
      <trkpt lat="30.84997717140889" lon="114.7990179831172">
        <ele>36.355291325598955</ele>
        <time>2026-04-25T23:14:32Z</time>
      </trkpt>
      <trkpt lat="30.8498458507076" lon="114.79905621876549">
        <ele>35.52485998068005</ele>
        <time>2026-04-25T23:14:41Z</time>
      </trkpt>
      <trkpt lat="30.849783290048947" lon="114.7990180194285">
        <ele>36.29399649519473</ele>
        <time>2026-04-25T23:14:44Z</time>
      </trkpt>
      <trkpt lat="30.849456759114315" lon="114.79900493683648">
        <ele>36.33645295538008</ele>
        <time>2026-04-25T23:15:02Z</time>
      </trkpt>
      <trkpt lat="30.849392158645333" lon="114.79897168618561">
        <ele>35.71933213993907</ele>
        <time>2026-04-25T23:15:05Z</time>
      </trkpt>
      <trkpt lat="30.849251900179716" lon="114.79897103113595">
        <ele>34.428131385706365</ele>
        <time>2026-04-25T23:15:11Z</time>
      </trkpt>
      <trkpt lat="30.84920103676319" lon="114.79900199619577">
        <ele>32.02300772443414</ele>
        <time>2026-04-25T23:15:14Z</time>
      </trkpt>
      <trkpt lat="30.849106700694573" lon="114.79899979182342">
        <ele>32.708745886571705</ele>
        <time>2026-04-25T23:15:20Z</time>
      </trkpt>
      <trkpt lat="30.84899571743358" lon="114.79902960553724">
        <ele>32.30732630845159</ele>
        <time>2026-04-25T23:15:26Z</time>
      </trkpt>
      <trkpt lat="30.848922612195608" lon="114.79902110431912">
        <ele>36.368767350912094</ele>
        <time>2026-04-25T23:15:29Z</time>
      </trkpt>
      <trkpt lat="30.848821483002464" lon="114.79904984243788">
        <ele>40.687751037068665</ele>
        <time>2026-04-25T23:15:35Z</time>
      </trkpt>
      <trkpt lat="30.84869549399165" lon="114.79893446126253">
        <ele>31.32215528190136</ele>
        <time>2026-04-25T23:15:41Z</time>
      </trkpt>
      <trkpt lat="30.848554931003203" lon="114.79890505409062">
        <ele>31.92133476305753</ele>
        <time>2026-04-25T23:15:47Z</time>
      </trkpt>
      <trkpt lat="30.848486462265118" lon="114.79891421857447">
        <ele>34.5799675937742</ele>
        <time>2026-04-25T23:15:50Z</time>
      </trkpt>
      <trkpt lat="30.84842650455694" lon="114.79895787613894">
        <ele>34.219069140963256</ele>
        <time>2026-04-25T23:15:53Z</time>
      </trkpt>
      <trkpt lat="30.848378292540367" lon="114.79902852236955">
        <ele>34.318680772557855</ele>
        <time>2026-04-25T23:15:56Z</time>
      </trkpt>
      <trkpt lat="30.84831052196159" lon="114.79897842117396">
        <ele>33.97697186283767</ele>
        <time>2026-04-25T23:15:59Z</time>
      </trkpt>
      <trkpt lat="30.848254440137904" lon="114.79898588613146">
        <ele>33.29296995140612</ele>
        <time>2026-04-25T23:16:02Z</time>
      </trkpt>
      <trkpt lat="30.848117117706224" lon="114.79894598054877">
        <ele>34.22880507726222</ele>
        <time>2026-04-25T23:16:08Z</time>
      </trkpt>
      <trkpt lat="30.84793239059841" lon="114.79900218434378">
        <ele>33.34603392984718</ele>
        <time>2026-04-25T23:16:17Z</time>
      </trkpt>
      <trkpt lat="30.84759557259926" lon="114.79898598511566">
        <ele>32.320138913579285</ele>
        <time>2026-04-25T23:16:34Z</time>
      </trkpt>
      <trkpt lat="30.847507749931335" lon="114.79896706502905">
        <ele>34.05543178971857</ele>
        <time>2026-04-25T23:16:38Z</time>
      </trkpt>
      <trkpt lat="30.84741909224656" lon="114.79896956457188">
        <ele>32.95297403726727</ele>
        <time>2026-04-25T23:16:41Z</time>
      </trkpt>
      <trkpt lat="30.847333190969785" lon="114.79894431047431">
        <ele>33.8361324025318</ele>
        <time>2026-04-25T23:16:44Z</time>
      </trkpt>
      <trkpt lat="30.84723082119604" lon="114.79903784000007">
        <ele>33.01290177833289</ele>
        <time>2026-04-25T23:16:50Z</time>
      </trkpt>
      <trkpt lat="30.847128548956977" lon="114.79905489345181">
        <ele>32.65801004413515</ele>
        <time>2026-04-25T23:16:56Z</time>
      </trkpt>
      <trkpt lat="30.847005060100344" lon="114.79898913673227">
        <ele>32.779539096169174</ele>
        <time>2026-04-25T23:17:02Z</time>
      </trkpt>
      <trkpt lat="30.84685237977083" lon="114.79897730583704">
        <ele>29.210857702419162</ele>
        <time>2026-04-25T23:17:11Z</time>
      </trkpt>
      <trkpt lat="30.846789653617467" lon="114.79893692480546">
        <ele>27.06649110559374</ele>
        <time>2026-04-25T23:17:14Z</time>
      </trkpt>
      <trkpt lat="30.84660279507678" lon="114.79891276792031">
        <ele>30.748861241154373</ele>
        <time>2026-04-25T23:17:20Z</time>
      </trkpt>
      <trkpt lat="30.84655884311263" lon="114.79901166028073">
        <ele>33.21923143044114</ele>
        <time>2026-04-25T23:17:23Z</time>
      </trkpt>
      <trkpt lat="30.846562081333676" lon="114.799066395339">
        <ele>33.84779658727348</ele>
        <time>2026-04-25T23:17:26Z</time>
      </trkpt>
      <trkpt lat="30.846392653279075" lon="114.79904088555676">
        <ele>36.46754073537886</ele>
        <time>2026-04-25T23:17:48Z</time>
      </trkpt>
      <trkpt lat="30.846223761291018" lon="114.79894446507109">
        <ele>34.50448623113334</ele>
        <time>2026-04-25T23:17:54Z</time>
      </trkpt>
      <trkpt lat="30.846148971475422" lon="114.79891973226425">
        <ele>33.13830517139286</ele>
        <time>2026-04-25T23:17:57Z</time>
      </trkpt>
      <trkpt lat="30.845922791649105" lon="114.79894636792017">
        <ele>33.2854039222002</ele>
        <time>2026-04-25T23:18:06Z</time>
      </trkpt>
      <trkpt lat="30.845888408663114" lon="114.79888979525926">
        <ele>35.02342731598765</ele>
        <time>2026-04-25T23:18:09Z</time>
      </trkpt>
      <trkpt lat="30.845761256736143" lon="114.79885229930028">
        <ele>33.623595762997866</ele>
        <time>2026-04-25T23:18:15Z</time>
      </trkpt>
      <trkpt lat="30.845641033537632" lon="114.79885050555397">
        <ele>32.60164753161371</ele>
        <time>2026-04-25T23:18:18Z</time>
      </trkpt>
      <trkpt lat="30.845547682322294" lon="114.79886804385866">
        <ele>32.9553818712011</ele>
        <time>2026-04-25T23:18:21Z</time>
      </trkpt>
      <trkpt lat="30.845500116044835" lon="114.79894466999234">
        <ele>34.17755845654756</ele>
        <time>2026-04-25T23:18:24Z</time>
      </trkpt>
      <trkpt lat="30.84545142659939" lon="114.79892899715882">
        <ele>33.011202902533114</ele>
        <time>2026-04-25T23:18:27Z</time>
      </trkpt>
      <trkpt lat="30.845464712834854" lon="114.79903703555664">
        <ele>33.084909739904106</ele>
        <time>2026-04-25T23:18:30Z</time>
      </trkpt>
      <trkpt lat="30.845264068955036" lon="114.79912637615152">
        <ele>27.455486680381</ele>
        <time>2026-04-25T23:18:41Z</time>
      </trkpt>
      <trkpt lat="30.84507387860286" lon="114.79904209027606">
        <ele>32.99080337025225</ele>
        <time>2026-04-25T23:18:49Z</time>
      </trkpt>
      <trkpt lat="30.845013857240488" lon="114.798986079411">
        <ele>32.11330466438085</ele>
        <time>2026-04-25T23:18:52Z</time>
      </trkpt>
      <trkpt lat="30.84489889158335" lon="114.79895377316974">
        <ele>33.803811475634575</ele>
        <time>2026-04-25T23:18:58Z</time>
      </trkpt>
      <trkpt lat="30.84479143229815" lon="114.79897425597038">
        <ele>33.100318227894604</ele>
        <time>2026-04-25T23:19:04Z</time>
      </trkpt>
      <trkpt lat="30.84469195049287" lon="114.7989585286822">
        <ele>37.62206710409373</ele>
        <time>2026-04-25T23:19:10Z</time>
      </trkpt>
      <trkpt lat="30.84462619303633" lon="114.7990042486042">
        <ele>38.46049923077226</ele>
        <time>2026-04-25T23:19:13Z</time>
      </trkpt>
      <trkpt lat="30.844379073449666" lon="114.79897030845977">
        <ele>34.666104927659035</ele>
        <time>2026-04-25T23:19:22Z</time>
      </trkpt>
      <trkpt lat="30.844286169782727" lon="114.79906974262713">
        <ele>30.374846048653126</ele>
        <time>2026-04-25T23:19:28Z</time>
      </trkpt>
      <trkpt lat="30.844236872867064" lon="114.79909928442035">
        <ele>29.66850976832211</ele>
        <time>2026-04-25T23:19:33Z</time>
      </trkpt>
    </trkseg>
  </trk>
</gpx>