<?xml version="1.0" encoding="UTF-8"?>
<gpx xmlns="http://www.topografix.com/GPX/1/1" xmlns:gpxtpx="http://www.garmin.com/xmlschemas/TrackPointExtension/v1" xmlns:xsi="http://www.w3.org/2001/XMLSchema-instance" xsi:schemaLocation="http://www.topografix.com/GPX/1/1 http://www.topografix.com/GPX/1/1/gpx.xsd" version="1.1" creator="gpx.py -- https://github.com/tkrajina/gpxpy">
  <trk>
    <name>gpx from keep</name>
    <type>Run</type>
    <trkseg>
      <trkpt lat="30.456869175784597" lon="114.42851540026359">
        <ele>0.0</ele>
        <time>2021-05-18T22:27:21Z</time>
      </trkpt>
      <trkpt lat="30.456807308107663" lon="114.42859857657962">
        <ele>0.0</ele>
        <time>2021-05-18T22:27:27Z</time>
      </trkpt>
      <trkpt lat="30.456761463557598" lon="114.42870079108565">
        <ele>0.0</ele>
        <time>2021-05-18T22:27:35Z</time>
      </trkpt>
      <trkpt lat="30.45676363578995" lon="114.4288230433535">
        <ele>0.0</ele>
        <time>2021-05-18T22:27:41Z</time>
      </trkpt>
      <trkpt lat="30.456764797514857" lon="114.42893727979231">
        <ele>0.0</ele>
        <time>2021-05-18T22:27:46Z</time>
      </trkpt>
      <trkpt lat="30.45682292552826" lon="114.42903748274672">
        <ele>0.0</ele>
        <time>2021-05-18T22:27:52Z</time>
      </trkpt>
      <trkpt lat="30.45684809803115" lon="114.42916274122572">
        <ele>0.0</ele>
        <time>2021-05-18T22:27:58Z</time>
      </trkpt>
      <trkpt lat="30.45687325106458" lon="114.42927397113174">
        <ele>0.0</ele>
        <time>2021-05-18T22:28:03Z</time>
      </trkpt>
      <trkpt lat="30.456911386941478" lon="114.42937517950861">
        <ele>0.0</ele>
        <time>2021-05-18T22:28:08Z</time>
      </trkpt>
      <trkpt lat="30.456935544108486" lon="114.42948841482003">
        <ele>0.0</ele>
        <time>2021-05-18T22:28:13Z</time>
      </trkpt>
      <trkpt lat="30.456951699463417" lon="114.42959864510159">
        <ele>0.0</ele>
        <time>2021-05-18T22:28:18Z</time>
      </trkpt>
      <trkpt lat="30.45697886712998" lon="114.42971889614057">
        <ele>0.0</ele>
        <time>2021-05-18T22:28:24Z</time>
      </trkpt>
      <trkpt lat="30.45699502354801" lon="114.42982912761443">
        <ele>0.0</ele>
        <time>2021-05-18T22:28:29Z</time>
      </trkpt>
      <trkpt lat="30.457009182440512" lon="114.42994036195591">
        <ele>0.0</ele>
        <time>2021-05-18T22:28:34Z</time>
      </trkpt>
      <trkpt lat="30.457025354580793" lon="114.43006061587482">
        <ele>0.0</ele>
        <time>2021-05-18T22:28:40Z</time>
      </trkpt>
      <trkpt lat="30.45705450341391" lon="114.43016683944342">
        <ele>0.0</ele>
        <time>2021-05-18T22:28:45Z</time>
      </trkpt>
      <trkpt lat="30.457087669468976" lon="114.43028508887997">
        <ele>0.0</ele>
        <time>2021-05-18T22:28:51Z</time>
      </trkpt>
      <trkpt lat="30.457105830958493" lon="114.43039732739271">
        <ele>0.0</ele>
        <time>2021-05-18T22:28:57Z</time>
      </trkpt>
      <trkpt lat="30.45712099074612" lon="114.43050756245076">
        <ele>0.0</ele>
        <time>2021-05-18T22:29:03Z</time>
      </trkpt>
      <trkpt lat="30.457139142819006" lon="114.43061278703362">
        <ele>0.0</ele>
        <time>2021-05-18T22:29:08Z</time>
      </trkpt>
      <trkpt lat="30.457151314833762" lon="114.4307300385893">
        <ele>0.0</ele>
        <time>2021-05-18T22:29:14Z</time>
      </trkpt>
      <trkpt lat="30.45717547539161" lon="114.43084127674231">
        <ele>0.0</ele>
        <time>2021-05-18T22:29:20Z</time>
      </trkpt>
      <trkpt lat="30.45718464173174" lon="114.43095351894338">
        <ele>0.0</ele>
        <time>2021-05-18T22:29:26Z</time>
      </trkpt>
      <trkpt lat="30.457188815897695" lon="114.43106977087284">
        <ele>0.0</ele>
        <time>2021-05-18T22:29:33Z</time>
      </trkpt>
      <trkpt lat="30.45720898054198" lon="114.43118201331109">
        <ele>0.0</ele>
        <time>2021-05-18T22:29:39Z</time>
      </trkpt>
      <trkpt lat="30.457227146208965" lon="114.43129425650696">
        <ele>0.0</ele>
        <time>2021-05-18T22:29:45Z</time>
      </trkpt>
      <trkpt lat="30.45724931597285" lon="114.4314095065194">
        <ele>0.0</ele>
        <time>2021-05-18T22:29:51Z</time>
      </trkpt>
      <trkpt lat="30.45726248394885" lon="114.43152175133123">
        <ele>0.0</ele>
        <time>2021-05-18T22:29:57Z</time>
      </trkpt>
      <trkpt lat="30.45729364639328" lon="114.43163299296161">
        <ele>0.0</ele>
        <time>2021-05-18T22:30:03Z</time>
      </trkpt>
      <trkpt lat="30.457308825686216" lon="114.43175225422254">
        <ele>0.0</ele>
        <time>2021-05-18T22:30:09Z</time>
      </trkpt>
      <trkpt lat="30.457334990440874" lon="114.43186349747056">
        <ele>0.0</ele>
        <time>2021-05-18T22:30:15Z</time>
      </trkpt>
      <trkpt lat="30.457350153815014" lon="114.43197173558464">
        <ele>0.0</ele>
        <time>2021-05-18T22:30:20Z</time>
      </trkpt>
      <trkpt lat="30.457331337083318" lon="114.43208699275675">
        <ele>0.0</ele>
        <time>2021-05-18T22:30:26Z</time>
      </trkpt>
      <trkpt lat="30.457254468435696" lon="114.4321591597231">
        <ele>0.0</ele>
        <time>2021-05-18T22:30:32Z</time>
      </trkpt>
      <trkpt lat="30.457171554704356" lon="114.43220126053151">
        <ele>0.0</ele>
        <time>2021-05-18T22:30:37Z</time>
      </trkpt>
      <trkpt lat="30.457076612835465" lon="114.43222331783423">
        <ele>0.0</ele>
        <time>2021-05-18T22:30:43Z</time>
      </trkpt>
      <trkpt lat="30.456972713834514" lon="114.43227143398443">
        <ele>0.0</ele>
        <time>2021-05-18T22:30:49Z</time>
      </trkpt>
      <trkpt lat="30.456873776138515" lon="114.43229549617294">
        <ele>0.0</ele>
        <time>2021-05-18T22:30:55Z</time>
      </trkpt>
      <trkpt lat="30.45678083851852" lon="114.43232056010321">
        <ele>0.0</ele>
        <time>2021-05-18T22:31:00Z</time>
      </trkpt>
      <trkpt lat="30.456689900415185" lon="114.43234562388882">
        <ele>0.0</ele>
        <time>2021-05-18T22:31:05Z</time>
      </trkpt>
      <trkpt lat="30.4565949554996" lon="114.43236567686208">
        <ele>0.0</ele>
        <time>2021-05-18T22:31:10Z</time>
      </trkpt>
      <trkpt lat="30.456491985962003" lon="114.43236869250163">
        <ele>0.0</ele>
        <time>2021-05-18T22:31:15Z</time>
      </trkpt>
      <trkpt lat="30.456404061238374" lon="114.4324027762326">
        <ele>0.0</ele>
        <time>2021-05-18T22:31:20Z</time>
      </trkpt>
      <trkpt lat="30.456319176611277" lon="114.43246291803054">
        <ele>0.0</ele>
        <time>2021-05-18T22:31:26Z</time>
      </trkpt>
      <trkpt lat="30.45621420912743" lon="114.43246693609856">
        <ele>0.0</ele>
        <time>2021-05-18T22:31:32Z</time>
      </trkpt>
      <trkpt lat="30.456119235995637" lon="114.4324689488162">
        <ele>0.0</ele>
        <time>2021-05-18T22:31:38Z</time>
      </trkpt>
      <trkpt lat="30.456023302376057" lon="114.43249601769158">
        <ele>0.0</ele>
        <time>2021-05-18T22:31:44Z</time>
      </trkpt>
      <trkpt lat="30.45593537936225" lon="114.43253110386578">
        <ele>0.0</ele>
        <time>2021-05-18T22:31:50Z</time>
      </trkpt>
      <trkpt lat="30.455844438251557" lon="114.43255416339996">
        <ele>0.0</ele>
        <time>2021-05-18T22:31:56Z</time>
      </trkpt>
      <trkpt lat="30.45575251000271" lon="114.43258524102357">
        <ele>0.0</ele>
        <time>2021-05-18T22:32:02Z</time>
      </trkpt>
      <trkpt lat="30.45564655218142" lon="114.43259527268718">
        <ele>0.0</ele>
        <time>2021-05-18T22:32:08Z</time>
      </trkpt>
      <trkpt lat="30.455541601983782" lon="114.43261031551131">
        <ele>0.0</ele>
        <time>2021-05-18T22:32:14Z</time>
      </trkpt>
      <trkpt lat="30.45543865759345" lon="114.4326293671701">
        <ele>0.0</ele>
        <time>2021-05-18T22:32:20Z</time>
      </trkpt>
      <trkpt lat="30.455337712709607" lon="114.43264841867204">
        <ele>0.0</ele>
        <time>2021-05-18T22:32:26Z</time>
      </trkpt>
      <trkpt lat="30.455247784036864" lon="114.43267949625574">
        <ele>0.0</ele>
        <time>2021-05-18T22:32:32Z</time>
      </trkpt>
      <trkpt lat="30.455145844161006" lon="114.43270155464607">
        <ele>0.0</ele>
        <time>2021-05-18T22:32:38Z</time>
      </trkpt>
      <trkpt lat="30.455053911293057" lon="114.43272962571581">
        <ele>0.0</ele>
        <time>2021-05-18T22:32:44Z</time>
      </trkpt>
      <trkpt lat="30.454948959535127" lon="114.4327436663769">
        <ele>0.0</ele>
        <time>2021-05-18T22:32:50Z</time>
      </trkpt>
      <trkpt lat="30.454853008702457" lon="114.43275971077784">
        <ele>0.0</ele>
        <time>2021-05-18T22:32:56Z</time>
      </trkpt>
      <trkpt lat="30.454750043783573" lon="114.43276573323713">
        <ele>0.0</ele>
        <time>2021-05-18T22:33:02Z</time>
      </trkpt>
      <trkpt lat="30.454647108933806" lon="114.432790798571">
        <ele>0.0</ele>
        <time>2021-05-18T22:33:08Z</time>
      </trkpt>
      <trkpt lat="30.454560171712934" lon="114.43281686480505">
        <ele>0.0</ele>
        <time>2021-05-18T22:33:14Z</time>
      </trkpt>
      <trkpt lat="30.454458181179383" lon="114.43280685106502">
        <ele>0.0</ele>
        <time>2021-05-18T22:33:20Z</time>
      </trkpt>
      <trkpt lat="30.45436113716023" lon="114.43276376243448">
        <ele>0.0</ele>
        <time>2021-05-18T22:33:26Z</time>
      </trkpt>
      <trkpt lat="30.454293027565285" lon="114.43268358802122">
        <ele>0.0</ele>
        <time>2021-05-18T22:33:32Z</time>
      </trkpt>
      <trkpt lat="30.45423288473862" lon="114.43258336825242">
        <ele>0.0</ele>
        <time>2021-05-18T22:33:38Z</time>
      </trkpt>
      <trkpt lat="30.45420371264947" lon="114.43246911486335">
        <ele>0.0</ele>
        <time>2021-05-18T22:33:44Z</time>
      </trkpt>
      <trkpt lat="30.454189523288605" lon="114.43234584064321">
        <ele>0.0</ele>
        <time>2021-05-18T22:33:50Z</time>
      </trkpt>
      <trkpt lat="30.454161367669634" lon="114.43224161072744">
        <ele>0.0</ele>
        <time>2021-05-18T22:33:55Z</time>
      </trkpt>
      <trkpt lat="30.454146201492136" lon="114.43213236905068">
        <ele>0.0</ele>
        <time>2021-05-18T22:34:01Z</time>
      </trkpt>
      <trkpt lat="30.454128034995975" lon="114.43202212596138">
        <ele>0.0</ele>
        <time>2021-05-18T22:34:07Z</time>
      </trkpt>
      <trkpt lat="30.45410888162686" lon="114.4319199012515">
        <ele>0.0</ele>
        <time>2021-05-18T22:34:12Z</time>
      </trkpt>
      <trkpt lat="30.454091701959356" lon="114.43180063925094">
        <ele>0.0</ele>
        <time>2021-05-18T22:34:18Z</time>
      </trkpt>
      <trkpt lat="30.45408552630415" lon="114.43168538577669">
        <ele>0.0</ele>
        <time>2021-05-18T22:34:24Z</time>
      </trkpt>
      <trkpt lat="30.454070371827456" lon="114.43158216010697">
        <ele>0.0</ele>
        <time>2021-05-18T22:34:30Z</time>
      </trkpt>
      <trkpt lat="30.45405119278635" lon="114.43146189794405">
        <ele>0.0</ele>
        <time>2021-05-18T22:34:36Z</time>
      </trkpt>
      <trkpt lat="30.454041021256486" lon="114.43134764881127">
        <ele>0.0</ele>
        <time>2021-05-18T22:34:42Z</time>
      </trkpt>
      <trkpt lat="30.45401486030598" lon="114.43123741041035">
        <ele>0.0</ele>
        <time>2021-05-18T22:34:48Z</time>
      </trkpt>
      <trkpt lat="30.45399869738133" lon="114.43112717170587">
        <ele>0.0</ele>
        <time>2021-05-18T22:34:54Z</time>
      </trkpt>
      <trkpt lat="30.453977521096895" lon="114.43100691225135">
        <ele>0.0</ele>
        <time>2021-05-18T22:35:00Z</time>
      </trkpt>
      <trkpt lat="30.45396134266864" lon="114.43088565086609">
        <ele>0.0</ele>
        <time>2021-05-18T22:35:06Z</time>
      </trkpt>
      <trkpt lat="30.453939196339768" lon="114.43078443395778">
        <ele>0.0</ele>
        <time>2021-05-18T22:35:11Z</time>
      </trkpt>
      <trkpt lat="30.45391302449733" lon="114.43066517901106">
        <ele>0.0</ele>
        <time>2021-05-18T22:35:18Z</time>
      </trkpt>
      <trkpt lat="30.453889859956654" lon="114.43055093523209">
        <ele>0.0</ele>
        <time>2021-05-18T22:35:24Z</time>
      </trkpt>
      <trkpt lat="30.453876696455623" lon="114.43043869549031">
        <ele>0.0</ele>
        <time>2021-05-18T22:35:30Z</time>
      </trkpt>
      <trkpt lat="30.453876531742857" lon="114.43032745735175">
        <ele>0.0</ele>
        <time>2021-05-18T22:35:36Z</time>
      </trkpt>
      <trkpt lat="30.453854386284696" lon="114.43022524093853">
        <ele>0.0</ele>
        <time>2021-05-18T22:35:41Z</time>
      </trkpt>
      <trkpt lat="30.453839218911032" lon="114.43010899454609">
        <ele>0.0</ele>
        <time>2021-05-18T22:35:47Z</time>
      </trkpt>
      <trkpt lat="30.45382305968699" lon="114.42999775950848">
        <ele>0.0</ele>
        <time>2021-05-18T22:35:53Z</time>
      </trkpt>
      <trkpt lat="30.453800899537928" lon="114.42988452132612">
        <ele>0.0</ele>
        <time>2021-05-18T22:35:59Z</time>
      </trkpt>
      <trkpt lat="30.453788749118015" lon="114.42977929981255">
        <ele>0.0</ele>
        <time>2021-05-18T22:36:05Z</time>
      </trkpt>
      <trkpt lat="30.45376359801491" lon="114.42967107360917">
        <ele>0.0</ele>
        <time>2021-05-18T22:36:11Z</time>
      </trkpt>
      <trkpt lat="30.453732447436263" lon="114.42956184636883">
        <ele>0.0</ele>
        <time>2021-05-18T22:36:18Z</time>
      </trkpt>
      <trkpt lat="30.453722290717334" lon="114.429451615766">
        <ele>0.0</ele>
        <time>2021-05-18T22:36:24Z</time>
      </trkpt>
      <trkpt lat="30.453713124179725" lon="114.42933437097322">
        <ele>0.0</ele>
        <time>2021-05-18T22:36:30Z</time>
      </trkpt>
      <trkpt lat="30.453727947977583" lon="114.42921411847392">
        <ele>0.0</ele>
        <time>2021-05-18T22:36:37Z</time>
      </trkpt>
      <trkpt lat="30.453782798245786" lon="114.42911891532113">
        <ele>0.0</ele>
        <time>2021-05-18T22:36:43Z</time>
      </trkpt>
      <trkpt lat="30.453877710389122" lon="114.42907381325995">
        <ele>0.0</ele>
        <time>2021-05-18T22:36:49Z</time>
      </trkpt>
      <trkpt lat="30.45397265829961" lon="114.42905376335264">
        <ele>0.0</ele>
        <time>2021-05-18T22:36:56Z</time>
      </trkpt>
      <trkpt lat="30.454064608388517" lon="114.42903471580637">
        <ele>0.0</ele>
        <time>2021-05-18T22:37:03Z</time>
      </trkpt>
      <trkpt lat="30.454156561337523" lon="114.42901767243941">
        <ele>0.0</ele>
        <time>2021-05-18T22:37:10Z</time>
      </trkpt>
      <trkpt lat="30.454248519994376" lon="114.42900463740811">
        <ele>0.0</ele>
        <time>2021-05-18T22:37:17Z</time>
      </trkpt>
      <trkpt lat="30.454343436583546" lon="114.4289625418246">
        <ele>0.0</ele>
        <time>2021-05-18T22:37:23Z</time>
      </trkpt>
      <trkpt lat="30.4544334028691" lon="114.42895451739103">
        <ele>0.0</ele>
        <time>2021-05-18T22:37:29Z</time>
      </trkpt>
      <trkpt lat="30.45452537150043" lon="114.42894849694281">
        <ele>0.0</ele>
        <time>2021-05-18T22:37:35Z</time>
      </trkpt>
      <trkpt lat="30.45461531358334" lon="114.42892343720234">
        <ele>0.0</ele>
        <time>2021-05-18T22:37:41Z</time>
      </trkpt>
      <trkpt lat="30.454704265885248" lon="114.42890539210843">
        <ele>0.0</ele>
        <time>2021-05-18T22:37:47Z</time>
      </trkpt>
      <trkpt lat="30.454804196989272" lon="114.42887431910368">
        <ele>0.0</ele>
        <time>2021-05-18T22:37:53Z</time>
      </trkpt>
      <trkpt lat="30.45490413947963" lon="114.42885126272976">
        <ele>0.0</ele>
        <time>2021-05-18T22:37:59Z</time>
      </trkpt>
      <trkpt lat="30.455006092835735" lon="114.42883622278714">
        <ele>0.0</ele>
        <time>2021-05-18T22:38:05Z</time>
      </trkpt>
      <trkpt lat="30.455103037507353" lon="114.42881416878623">
        <ele>0.0</ele>
        <time>2021-05-18T22:38:11Z</time>
      </trkpt>
      <trkpt lat="30.455200970605787" lon="114.42878409815827">
        <ele>0.0</ele>
        <time>2021-05-18T22:38:17Z</time>
      </trkpt>
      <trkpt lat="30.45529692263585" lon="114.42876705464451">
        <ele>0.0</ele>
        <time>2021-05-18T22:38:23Z</time>
      </trkpt>
      <trkpt lat="30.455386857767248" lon="114.42873698477706">
        <ele>0.0</ele>
        <time>2021-05-18T22:38:28Z</time>
      </trkpt>
      <trkpt lat="30.45548982787098" lon="114.42873396963887">
        <ele>0.0</ele>
        <time>2021-05-18T22:38:34Z</time>
      </trkpt>
      <trkpt lat="30.455581756875564" lon="114.42869989137938">
        <ele>0.0</ele>
        <time>2021-05-18T22:38:40Z</time>
      </trkpt>
      <trkpt lat="30.455673712752265" lon="114.42868485241084">
        <ele>0.0</ele>
        <time>2021-05-18T22:38:46Z</time>
      </trkpt>
      <trkpt lat="30.455767646956893" lon="114.42865478231265">
        <ele>0.0</ele>
        <time>2021-05-18T22:38:52Z</time>
      </trkpt>
      <trkpt lat="30.455865604169965" lon="114.42864174698234">
        <ele>0.0</ele>
        <time>2021-05-18T22:38:58Z</time>
      </trkpt>
      <trkpt lat="30.455964551260692" lon="114.42862169713433">
        <ele>0.0</ele>
        <time>2021-05-18T22:39:04Z</time>
      </trkpt>
      <trkpt lat="30.456057491403012" lon="114.42859563545701">
        <ele>0.0</ele>
        <time>2021-05-18T22:39:10Z</time>
      </trkpt>
      <trkpt lat="30.456159444805092" lon="114.42858059569458">
        <ele>0.0</ele>
        <time>2021-05-18T22:39:16Z</time>
      </trkpt>
      <trkpt lat="30.456253377689983" lon="114.42854952368471">
        <ele>0.0</ele>
        <time>2021-05-18T22:39:22Z</time>
      </trkpt>
      <trkpt lat="30.456355315635598" lon="114.42852346131517">
        <ele>0.0</ele>
        <time>2021-05-18T22:39:28Z</time>
      </trkpt>
      <trkpt lat="30.45645323634276" lon="114.42848437259212">
        <ele>0.0</ele>
        <time>2021-05-18T22:39:34Z</time>
      </trkpt>
      <trkpt lat="30.456545185260204" lon="114.42846432349978">
        <ele>0.0</ele>
        <time>2021-05-18T22:39:40Z</time>
      </trkpt>
      <trkpt lat="30.456644138044634" lon="114.42844828203599">
        <ele>0.0</ele>
        <time>2021-05-18T22:39:46Z</time>
      </trkpt>
      <trkpt lat="30.456725211840617" lon="114.42851541275583">
        <ele>0.0</ele>
        <time>2021-05-18T22:39:52Z</time>
      </trkpt>
      <trkpt lat="30.456779327800664" lon="114.42860759756365">
        <ele>0.0</ele>
        <time>2021-05-18T22:39:58Z</time>
      </trkpt>
      <trkpt lat="30.456791478664172" lon="114.42871682155007">
        <ele>0.0</ele>
        <time>2021-05-18T22:40:04Z</time>
      </trkpt>
      <trkpt lat="30.45681364880944" lon="114.42884107632145">
        <ele>0.0</ele>
        <time>2021-05-18T22:40:10Z</time>
      </trkpt>
      <trkpt lat="30.45681982076239" lon="114.42896332905211">
        <ele>0.0</ele>
        <time>2021-05-18T22:40:16Z</time>
      </trkpt>
      <trkpt lat="30.45685395775065" lon="114.42906553837852">
        <ele>0.0</ele>
        <time>2021-05-18T22:40:21Z</time>
      </trkpt>
      <trkpt lat="30.456883093563608" lon="114.42916574445448">
        <ele>0.0</ele>
        <time>2021-05-18T22:40:26Z</time>
      </trkpt>
      <trkpt lat="30.45690925354802" lon="114.42928198475782">
        <ele>0.0</ele>
        <time>2021-05-18T22:40:32Z</time>
      </trkpt>
      <trkpt lat="30.45693541265643" lon="114.42939722359785">
        <ele>0.0</ele>
        <time>2021-05-18T22:40:38Z</time>
      </trkpt>
      <trkpt lat="30.456953568536168" lon="114.4295084553381">
        <ele>0.0</ele>
        <time>2021-05-18T22:40:44Z</time>
      </trkpt>
      <trkpt lat="30.456953746870642" lon="114.42963171454016">
        <ele>0.0</ele>
        <time>2021-05-18T22:40:50Z</time>
      </trkpt>
      <trkpt lat="30.456959905392434" lon="114.4297419464305">
        <ele>0.0</ele>
        <time>2021-05-18T22:40:56Z</time>
      </trkpt>
      <trkpt lat="30.457015050682582" lon="114.42985117252056">
        <ele>0.0</ele>
        <time>2021-05-18T22:41:02Z</time>
      </trkpt>
      <trkpt lat="30.457029208211004" lon="114.42996140485121">
        <ele>0.0</ele>
        <time>2021-05-18T22:41:08Z</time>
      </trkpt>
      <trkpt lat="30.457050352726633" lon="114.43006362009811">
        <ele>0.0</ele>
        <time>2021-05-18T22:41:13Z</time>
      </trkpt>
      <trkpt lat="30.4570725180791" lon="114.43017986564601">
        <ele>0.0</ele>
        <time>2021-05-18T22:41:19Z</time>
      </trkpt>
      <trkpt lat="30.457090670196784" lon="114.43028609076073">
        <ele>0.0</ele>
        <time>2021-05-18T22:41:25Z</time>
      </trkpt>
      <trkpt lat="30.45710582353651" lon="114.4303923166626">
        <ele>0.0</ele>
        <time>2021-05-18T22:41:31Z</time>
      </trkpt>
      <trkpt lat="30.457124003397585" lon="114.43051658155414">
        <ele>0.0</ele>
        <time>2021-05-18T22:41:38Z</time>
      </trkpt>
      <trkpt lat="30.45713415751569" lon="114.43062180687491">
        <ele>0.0</ele>
        <time>2021-05-18T22:41:43Z</time>
      </trkpt>
      <trkpt lat="30.45715931732312" lon="114.43073304438087">
        <ele>0.0</ele>
        <time>2021-05-18T22:41:49Z</time>
      </trkpt>
      <trkpt lat="30.457191456351417" lon="114.43083125368875">
        <ele>0.0</ele>
        <time>2021-05-18T22:41:55Z</time>
      </trkpt>
      <trkpt lat="30.4572116213933" lon="114.43094449705548">
        <ele>0.0</ele>
        <time>2021-05-18T22:42:01Z</time>
      </trkpt>
      <trkpt lat="30.4572267746144" lon="114.43104872186099">
        <ele>0.0</ele>
        <time>2021-05-18T22:42:07Z</time>
      </trkpt>
      <trkpt lat="30.457254934120954" lon="114.43115895913274">
        <ele>0.0</ele>
        <time>2021-05-18T22:42:14Z</time>
      </trkpt>
      <trkpt lat="30.457270106516354" lon="114.43127521121671">
        <ele>0.0</ele>
        <time>2021-05-18T22:42:21Z</time>
      </trkpt>
      <trkpt lat="30.45729426500732" lon="114.43138344560859">
        <ele>0.0</ele>
        <time>2021-05-18T22:42:27Z</time>
      </trkpt>
      <trkpt lat="30.457323418137552" lon="114.43148867351833">
        <ele>0.0</ele>
        <time>2021-05-18T22:42:32Z</time>
      </trkpt>
      <trkpt lat="30.457335585195928" lon="114.43159991662588">
        <ele>0.0</ele>
        <time>2021-05-18T22:42:38Z</time>
      </trkpt>
      <trkpt lat="30.457347748147697" lon="114.43170815368374">
        <ele>0.0</ele>
        <time>2021-05-18T22:42:43Z</time>
      </trkpt>
      <trkpt lat="30.457374904731225" lon="114.43181438555808">
        <ele>0.0</ele>
        <time>2021-05-18T22:42:49Z</time>
      </trkpt>
      <trkpt lat="30.4574020695178" lon="114.43192562903835">
        <ele>0.0</ele>
        <time>2021-05-18T22:42:55Z</time>
      </trkpt>
      <trkpt lat="30.45740824784682" lon="114.43204188602142">
        <ele>0.0</ele>
        <time>2021-05-18T22:43:01Z</time>
      </trkpt>
      <trkpt lat="30.45735841120088" lon="114.43213910615897">
        <ele>0.0</ele>
        <time>2021-05-18T22:43:07Z</time>
      </trkpt>
      <trkpt lat="30.45727952449842" lon="114.43219924671081">
        <ele>0.0</ele>
        <time>2021-05-18T22:43:13Z</time>
      </trkpt>
      <trkpt lat="30.457185597989938" lon="114.43223132623524">
        <ele>0.0</ele>
        <time>2021-05-18T22:43:19Z</time>
      </trkpt>
      <trkpt lat="30.457093663205054" lon="114.43225839447032">
        <ele>0.0</ele>
        <time>2021-05-18T22:43:25Z</time>
      </trkpt>
      <trkpt lat="30.457002707879408" lon="114.43227243361733">
        <ele>0.0</ele>
        <time>2021-05-18T22:43:31Z</time>
      </trkpt>
      <trkpt lat="30.456901740995452" lon="114.43227745353774">
        <ele>0.0</ele>
        <time>2021-05-18T22:43:37Z</time>
      </trkpt>
      <trkpt lat="30.456817830818277" lon="114.43232155913171">
        <ele>0.0</ele>
        <time>2021-05-18T22:43:43Z</time>
      </trkpt>
      <trkpt lat="30.45671890724499" lon="114.43235464150587">
        <ele>0.0</ele>
        <time>2021-05-18T22:43:49Z</time>
      </trkpt>
      <trkpt lat="30.45660895199687" lon="114.43236567564868">
        <ele>0.0</ele>
        <time>2021-05-18T22:43:55Z</time>
      </trkpt>
      <trkpt lat="30.456515989357214" lon="114.4323747038478">
        <ele>0.0</ele>
        <time>2021-05-18T22:44:00Z</time>
      </trkpt>
      <trkpt lat="30.45641706896207" lon="114.432409790781">
        <ele>0.0</ele>
        <time>2021-05-18T22:44:06Z</time>
      </trkpt>
      <trkpt lat="30.456328175932022" lon="114.43246391949246">
        <ele>0.0</ele>
        <time>2021-05-18T22:44:12Z</time>
      </trkpt>
      <trkpt lat="30.456228210340658" lon="114.43246994161169">
        <ele>0.0</ele>
        <time>2021-05-18T22:44:18Z</time>
      </trkpt>
      <trkpt lat="30.456131243991734" lon="114.43247596347253">
        <ele>0.0</ele>
        <time>2021-05-18T22:44:24Z</time>
      </trkpt>
      <trkpt lat="30.456036291274533" lon="114.43249100534842">
        <ele>0.0</ele>
        <time>2021-05-18T22:44:30Z</time>
      </trkpt>
      <trkpt lat="30.455948412303595" lon="114.43255415438688">
        <ele>0.0</ele>
        <time>2021-05-18T22:44:37Z</time>
      </trkpt>
      <trkpt lat="30.45585244412521" lon="114.43255917393762">
        <ele>0.0</ele>
        <time>2021-05-18T22:44:43Z</time>
      </trkpt>
      <trkpt lat="30.45575649325706" lon="114.43257521820418">
        <ele>0.0</ele>
        <time>2021-05-18T22:44:50Z</time>
      </trkpt>
      <trkpt lat="30.455660536089592" lon="114.43258725349166">
        <ele>0.0</ele>
        <time>2021-05-18T22:44:56Z</time>
      </trkpt>
      <trkpt lat="30.455563594926215" lon="114.43260931135613">
        <ele>0.0</ele>
        <time>2021-05-18T22:45:03Z</time>
      </trkpt>
      <trkpt lat="30.455461651865075" lon="114.43262936517688">
        <ele>0.0</ele>
        <time>2021-05-18T22:45:10Z</time>
      </trkpt>
      <trkpt lat="30.45537573007424" lon="114.43266545364234">
        <ele>0.0</ele>
        <time>2021-05-18T22:45:16Z</time>
      </trkpt>
      <trkpt lat="30.455272777815047" lon="114.43267949408927">
        <ele>0.0</ele>
        <time>2021-05-18T22:45:23Z</time>
      </trkpt>
      <trkpt lat="30.45517183611314" lon="114.43270055014015">
        <ele>0.0</ele>
        <time>2021-05-18T22:45:30Z</time>
      </trkpt>
      <trkpt lat="30.455079884278533" lon="114.43271659416311">
        <ele>0.0</ele>
        <time>2021-05-18T22:45:36Z</time>
      </trkpt>
      <trkpt lat="30.45498294950182" lon="114.43274266117581">
        <ele>0.0</ele>
        <time>2021-05-18T22:45:42Z</time>
      </trkpt>
      <trkpt lat="30.454893006674197" lon="114.43276471858962">
        <ele>0.0</ele>
        <time>2021-05-18T22:45:48Z</time>
      </trkpt>
      <trkpt lat="30.45479506426255" lon="114.4327857744621">
        <ele>0.0</ele>
        <time>2021-05-18T22:45:54Z</time>
      </trkpt>
      <trkpt lat="30.454702106362678" lon="114.4327978096045">
        <ele>0.0</ele>
        <time>2021-05-18T22:46:00Z</time>
      </trkpt>
      <trkpt lat="30.454611163808053" lon="114.43281986716022">
        <ele>0.0</ele>
        <time>2021-05-18T22:46:06Z</time>
      </trkpt>
      <trkpt lat="30.454519200904727" lon="114.43282889545837">
        <ele>0.0</ele>
        <time>2021-05-18T22:46:12Z</time>
      </trkpt>
      <trkpt lat="30.4544241785259" lon="114.4327998382089">
        <ele>0.0</ele>
        <time>2021-05-18T22:46:18Z</time>
      </trkpt>
      <trkpt lat="30.454337113054596" lon="114.43274472166492">
        <ele>0.0</ele>
        <time>2021-05-18T22:46:24Z</time>
      </trkpt>
      <trkpt lat="30.45427199330785" lon="114.43265853355581">
        <ele>0.0</ele>
        <time>2021-05-18T22:46:30Z</time>
      </trkpt>
      <trkpt lat="30.454226840569614" lon="114.43255430361769">
        <ele>0.0</ele>
        <time>2021-05-18T22:46:36Z</time>
      </trkpt>
      <trkpt lat="30.454204681004704" lon="114.43244906994329">
        <ele>0.0</ele>
        <time>2021-05-18T22:46:41Z</time>
      </trkpt>
      <trkpt lat="30.454186495865212" lon="114.43232780065439">
        <ele>0.0</ele>
        <time>2021-05-18T22:46:47Z</time>
      </trkpt>
      <trkpt lat="30.45416432011751" lon="114.43221154353837">
        <ele>0.0</ele>
        <time>2021-05-18T22:46:53Z</time>
      </trkpt>
      <trkpt lat="30.454147139020776" lon="114.4320922799359">
        <ele>0.0</ele>
        <time>2021-05-18T22:46:59Z</time>
      </trkpt>
      <trkpt lat="30.454126970101424" lon="114.43198003278408">
        <ele>0.0</ele>
        <time>2021-05-18T22:47:05Z</time>
      </trkpt>
      <trkpt lat="30.454104819198452" lon="114.43187881074739">
        <ele>0.0</ele>
        <time>2021-05-18T22:47:11Z</time>
      </trkpt>
      <trkpt lat="30.45408965464972" lon="114.43176957089591">
        <ele>0.0</ele>
        <time>2021-05-18T22:47:17Z</time>
      </trkpt>
      <trkpt lat="30.45407547805044" lon="114.43165231387135">
        <ele>0.0</ele>
        <time>2021-05-18T22:47:24Z</time>
      </trkpt>
      <trkpt lat="30.454056306319995" lon="114.43153706231342">
        <ele>0.0</ele>
        <time>2021-05-18T22:47:31Z</time>
      </trkpt>
      <trkpt lat="30.45402915544669" lon="114.43143383839168">
        <ele>0.0</ele>
        <time>2021-05-18T22:47:37Z</time>
      </trkpt>
      <trkpt lat="30.454015992406777" lon="114.43132460061311">
        <ele>0.0</ele>
        <time>2021-05-18T22:47:43Z</time>
      </trkpt>
      <trkpt lat="30.454005829117147" lon="114.43121536312717">
        <ele>0.0</ele>
        <time>2021-05-18T22:47:49Z</time>
      </trkpt>
      <trkpt lat="30.453993651678594" lon="114.43109610457897">
        <ele>0.0</ele>
        <time>2021-05-18T22:47:56Z</time>
      </trkpt>
      <trkpt lat="30.45396749640196" lon="114.4309888739849">
        <ele>0.0</ele>
        <time>2021-05-18T22:48:02Z</time>
      </trkpt>
      <trkpt lat="30.453958341906606" lon="114.43088464895735">
        <ele>0.0</ele>
        <time>2021-05-18T22:48:08Z</time>
      </trkpt>
      <trkpt lat="30.453944168097408" lon="114.43076639457749">
        <ele>0.0</ele>
        <time>2021-05-18T22:48:14Z</time>
      </trkpt>
      <trkpt lat="30.45392199983916" lon="114.43065014585747">
        <ele>0.0</ele>
        <time>2021-05-18T22:48:21Z</time>
      </trkpt>
      <trkpt lat="30.45389383958838" lon="114.43053790689716">
        <ele>0.0</ele>
        <time>2021-05-18T22:48:28Z</time>
      </trkpt>
      <trkpt lat="30.453890676644487" lon="114.43042767065138">
        <ele>0.0</ele>
        <time>2021-05-18T22:48:35Z</time>
      </trkpt>
      <trkpt lat="30.45387252384418" lon="114.43032144484266">
        <ele>0.0</ele>
        <time>2021-05-18T22:48:41Z</time>
      </trkpt>
      <trkpt lat="30.45385634887011" lon="114.4302001873296">
        <ele>0.0</ele>
        <time>2021-05-18T22:48:48Z</time>
      </trkpt>
      <trkpt lat="30.453837198795807" lon="114.43009496486825">
        <ele>0.0</ele>
        <time>2021-05-18T22:48:54Z</time>
      </trkpt>
      <trkpt lat="30.453821039636892" lon="114.42998372990364">
        <ele>0.0</ele>
        <time>2021-05-18T22:49:00Z</time>
      </trkpt>
      <trkpt lat="30.453799877844293" lon="114.42986948958762">
        <ele>0.0</ele>
        <time>2021-05-18T22:49:06Z</time>
      </trkpt>
      <trkpt lat="30.453778735549676" lon="114.42976827739454">
        <ele>0.0</ele>
        <time>2021-05-18T22:49:12Z</time>
      </trkpt>
      <trkpt lat="30.45375858471295" lon="114.42966105292506">
        <ele>0.0</ele>
        <time>2021-05-18T22:49:18Z</time>
      </trkpt>
      <trkpt lat="30.45372645037" lon="114.42956284899606">
        <ele>0.0</ele>
        <time>2021-05-18T22:49:24Z</time>
      </trkpt>
      <trkpt lat="30.45371930157467" lon="114.42945863073906">
        <ele>0.0</ele>
        <time>2021-05-18T22:49:30Z</time>
      </trkpt>
      <trkpt lat="30.453711143397477" lon="114.42934739840067">
        <ele>0.0</ele>
        <time>2021-05-18T22:49:36Z</time>
      </trkpt>
      <trkpt lat="30.453720984158895" lon="114.42923816926626">
        <ele>0.0</ele>
        <time>2021-05-18T22:49:42Z</time>
      </trkpt>
      <trkpt lat="30.45377682978834" lon="114.4291399596578">
        <ele>0.0</ele>
        <time>2021-05-18T22:49:48Z</time>
      </trkpt>
      <trkpt lat="30.453861747227204" lon="114.42909686258908">
        <ele>0.0</ele>
        <time>2021-05-18T22:49:53Z</time>
      </trkpt>
      <trkpt lat="30.45396369767415" lon="114.4290798183052">
        <ele>0.0</ele>
        <time>2021-05-18T22:49:59Z</time>
      </trkpt>
      <trkpt lat="30.454057641534202" lon="114.42905676222948">
        <ele>0.0</ele>
        <time>2021-05-18T22:50:05Z</time>
      </trkpt>
      <trkpt lat="30.45414757070123" lon="114.42902268362671">
        <ele>0.0</ele>
        <time>2021-05-18T22:50:11Z</time>
      </trkpt>
      <trkpt lat="30.454238512491585" lon="114.42899762371235">
        <ele>0.0</ele>
        <time>2021-05-18T22:50:17Z</time>
      </trkpt>
      <trkpt lat="30.454340438751775" lon="114.42896354416344">
        <ele>0.0</ele>
        <time>2021-05-18T22:50:24Z</time>
      </trkpt>
      <trkpt lat="30.454442390669797" lon="114.42894750206388">
        <ele>0.0</ele>
        <time>2021-05-18T22:50:31Z</time>
      </trkpt>
      <trkpt lat="30.454541336218455" lon="114.42892644985135">
        <ele>0.0</ele>
        <time>2021-05-18T22:50:37Z</time>
      </trkpt>
      <trkpt lat="30.45464030310929" lon="114.42892042880382">
        <ele>0.0</ele>
        <time>2021-05-18T22:50:43Z</time>
      </trkpt>
      <trkpt lat="30.454737244894606" lon="114.42889637056469">
        <ele>0.0</ele>
        <time>2021-05-18T22:50:49Z</time>
      </trkpt>
      <trkpt lat="30.4548311931227" lon="114.42887632091079">
        <ele>0.0</ele>
        <time>2021-05-18T22:50:55Z</time>
      </trkpt>
      <trkpt lat="30.4549241430274" lon="114.42885727343611">
        <ele>0.0</ele>
        <time>2021-05-18T22:51:01Z</time>
      </trkpt>
      <trkpt lat="30.45501908818459" lon="114.42883521958689">
        <ele>0.0</ele>
        <time>2021-05-18T22:51:07Z</time>
      </trkpt>
      <trkpt lat="30.45510801783271" lon="114.42880114142542">
        <ele>0.0</ele>
        <time>2021-05-18T22:51:13Z</time>
      </trkpt>
      <trkpt lat="30.455198961187012" lon="114.42877708384148">
        <ele>0.0</ele>
        <time>2021-05-18T22:51:19Z</time>
      </trkpt>
      <trkpt lat="30.45529191396902" lon="114.42876004059357">
        <ele>0.0</ele>
        <time>2021-05-18T22:51:25Z</time>
      </trkpt>
      <trkpt lat="30.455384871000057" lon="114.42874600356429">
        <ele>0.0</ele>
        <time>2021-05-18T22:51:31Z</time>
      </trkpt>
      <trkpt lat="30.45547981338904" lon="114.42872194569566">
        <ele>0.0</ele>
        <time>2021-05-18T22:51:37Z</time>
      </trkpt>
      <trkpt lat="30.455569764105636" lon="114.42870289861919">
        <ele>0.0</ele>
        <time>2021-05-18T22:51:43Z</time>
      </trkpt>
      <trkpt lat="30.455664720646446" lon="114.42868886145399">
        <ele>0.0</ele>
        <time>2021-05-18T22:51:49Z</time>
      </trkpt>
      <trkpt lat="30.455756665226996" lon="114.42866580597476">
        <ele>0.0</ele>
        <time>2021-05-18T22:51:55Z</time>
      </trkpt>
      <trkpt lat="30.455848602768096" lon="114.42863774020348">
        <ele>0.0</ele>
        <time>2021-05-18T22:52:01Z</time>
      </trkpt>
      <trkpt lat="30.455936544151136" lon="114.42861167894029">
        <ele>0.0</ele>
        <time>2021-05-18T22:52:07Z</time>
      </trkpt>
      <trkpt lat="30.456040497055923" lon="114.42859663899304">
        <ele>0.0</ele>
        <time>2021-05-18T22:52:14Z</time>
      </trkpt>
      <trkpt lat="30.45613344848224" lon="114.42857859382893">
        <ele>0.0</ele>
        <time>2021-05-18T22:52:20Z</time>
      </trkpt>
      <trkpt lat="30.456234383843896" lon="114.42855052739208">
        <ele>0.0</ele>
        <time>2021-05-18T22:52:27Z</time>
      </trkpt>
      <trkpt lat="30.45632434728784" lon="114.42854049899533">
        <ele>0.0</ele>
        <time>2021-05-18T22:52:33Z</time>
      </trkpt>
      <trkpt lat="30.456417288891817" lon="114.42851543947508">
        <ele>0.0</ele>
        <time>2021-05-18T22:52:39Z</time>
      </trkpt>
      <trkpt lat="30.456511231668046" lon="114.42849138195399">
        <ele>0.0</ele>
        <time>2021-05-18T22:52:45Z</time>
      </trkpt>
      <trkpt lat="30.45661117015207" lon="114.42846531982926">
        <ele>0.0</ele>
        <time>2021-05-18T22:52:51Z</time>
      </trkpt>
      <trkpt lat="30.456706210975113" lon="114.42851140617442">
        <ele>0.0</ele>
        <time>2021-05-18T22:52:58Z</time>
      </trkpt>
      <trkpt lat="30.456766318373194" lon="114.42859858013637">
        <ele>0.0</ele>
        <time>2021-05-18T22:53:04Z</time>
      </trkpt>
      <trkpt lat="30.456779484496664" lon="114.42871882672524">
        <ele>0.0</ele>
        <time>2021-05-18T22:53:11Z</time>
      </trkpt>
      <trkpt lat="30.45679563912682" lon="114.42883105715585">
        <ele>0.0</ele>
        <time>2021-05-18T22:53:19Z</time>
      </trkpt>
      <trkpt lat="30.456772789819325" lon="114.4289332707888">
        <ele>0.0</ele>
        <time>2021-05-18T22:53:25Z</time>
      </trkpt>
      <trkpt lat="30.456817922498097" lon="114.42903447693396">
        <ele>0.0</ele>
        <time>2021-05-18T22:53:30Z</time>
      </trkpt>
      <trkpt lat="30.45684805793079" lon="114.42913468277644">
        <ele>0.0</ele>
        <time>2021-05-18T22:53:35Z</time>
      </trkpt>
      <trkpt lat="30.45687119697368" lon="114.42923589179074">
        <ele>0.0</ele>
        <time>2021-05-18T22:53:40Z</time>
      </trkpt>
      <trkpt lat="30.456909335569126" lon="114.42933910417906">
        <ele>0.0</ele>
        <time>2021-05-18T22:53:45Z</time>
      </trkpt>
      <trkpt lat="30.456941493450557" lon="114.42945434280826">
        <ele>0.0</ele>
        <time>2021-05-18T22:53:51Z</time>
      </trkpt>
      <trkpt lat="30.456963651493805" lon="114.42956757871445">
        <ele>0.0</ele>
        <time>2021-05-18T22:53:57Z</time>
      </trkpt>
      <trkpt lat="30.456972814785754" lon="114.4296818184629">
        <ele>0.0</ele>
        <time>2021-05-18T22:54:03Z</time>
      </trkpt>
      <trkpt lat="30.457027949587445" lon="114.42978402942207">
        <ele>0.0</ele>
        <time>2021-05-18T22:54:09Z</time>
      </trkpt>
      <trkpt lat="30.45704009852748" lon="114.42988824884489">
        <ele>0.0</ele>
        <time>2021-05-18T22:54:14Z</time>
      </trkpt>
      <trkpt lat="30.457101200428987" lon="114.42996841348835">
        <ele>0.0</ele>
        <time>2021-05-18T22:54:19Z</time>
      </trkpt>
      <trkpt lat="30.457100381385555" lon="114.43009167543492">
        <ele>0.0</ele>
        <time>2021-05-18T22:54:25Z</time>
      </trkpt>
      <trkpt lat="30.457098548460184" lon="114.43020491680505">
        <ele>0.0</ele>
        <time>2021-05-18T22:54:31Z</time>
      </trkpt>
      <trkpt lat="30.457111713790425" lon="114.4303191596161">
        <ele>0.0</ele>
        <time>2021-05-18T22:54:37Z</time>
      </trkpt>
      <trkpt lat="30.457111713790425" lon="114.4303191596161">
        <ele>0.0</ele>
        <time>2021-05-18T22:54:42Z</time>
      </trkpt>
    </trkseg>
  </trk>
</gpx>