<?xml version="1.0" encoding="UTF-8"?>
<gpx xmlns="http://www.topografix.com/GPX/1/1" xmlns:gpxtpx="http://www.garmin.com/xmlschemas/TrackPointExtension/v1" xmlns:xsi="http://www.w3.org/2001/XMLSchema-instance" xsi:schemaLocation="http://www.topografix.com/GPX/1/1 http://www.topografix.com/GPX/1/1/gpx.xsd" version="1.1" creator="gpx.py -- https://github.com/tkrajina/gpxpy">
  <trk>
    <name>gpx from keep</name>
    <type>Run</type>
    <trkseg>
      <trkpt lat="30.857867933986856" lon="114.80353167296968">
        <ele>30.785976776853204</ele>
        <time>2026-03-21T23:02:25Z</time>
      </trkpt>
      <trkpt lat="30.85779877673774" lon="114.80352565654822">
        <ele>31.289455959573388</ele>
        <time>2026-03-21T23:02:28Z</time>
      </trkpt>
      <trkpt lat="30.857719758310626" lon="114.80359437731957">
        <ele>32.07756881508976</ele>
        <time>2026-03-21T23:02:31Z</time>
      </trkpt>
      <trkpt lat="30.85762470405852" lon="114.80356321746872">
        <ele>30.07930664718151</ele>
        <time>2026-03-21T23:02:37Z</time>
      </trkpt>
      <trkpt lat="30.85738873550223" lon="114.80353025466289">
        <ele>29.671275584958494</ele>
        <time>2026-03-21T23:02:46Z</time>
      </trkpt>
      <trkpt lat="30.857306064200035" lon="114.80353634090562">
        <ele>29.963169158436358</ele>
        <time>2026-03-21T23:02:49Z</time>
      </trkpt>
      <trkpt lat="30.857086528119968" lon="114.80349695755872">
        <ele>30.00766589678824</ele>
        <time>2026-03-21T23:02:58Z</time>
      </trkpt>
      <trkpt lat="30.856943327743366" lon="114.8034857146948">
        <ele>30.369631457142532</ele>
        <time>2026-03-21T23:03:04Z</time>
      </trkpt>
      <trkpt lat="30.856837113767853" lon="114.80339952128193">
        <ele>30.660611546598375</ele>
        <time>2026-03-21T23:03:10Z</time>
      </trkpt>
      <trkpt lat="30.85679182155187" lon="114.80325928485915">
        <ele>30.017303791828454</ele>
        <time>2026-03-21T23:03:16Z</time>
      </trkpt>
      <trkpt lat="30.856829794461493" lon="114.8028800798564">
        <ele>31.808198838494718</ele>
        <time>2026-03-21T23:03:31Z</time>
      </trkpt>
      <trkpt lat="30.856846189723253" lon="114.8024998542436">
        <ele>30.320434741675854</ele>
        <time>2026-03-21T23:03:46Z</time>
      </trkpt>
      <trkpt lat="30.85686883876945" lon="114.8023555911382">
        <ele>29.22433088812977</ele>
        <time>2026-03-21T23:03:52Z</time>
      </trkpt>
      <trkpt lat="30.856850928936463" lon="114.802245856988">
        <ele>29.65189796127379</ele>
        <time>2026-03-21T23:03:55Z</time>
      </trkpt>
      <trkpt lat="30.856864039191365" lon="114.80187414399228">
        <ele>29.525089882314205</ele>
        <time>2026-03-21T23:04:10Z</time>
      </trkpt>
      <trkpt lat="30.856894250636984" lon="114.80146476610656">
        <ele>29.983940885402262</ele>
        <time>2026-03-21T23:04:26Z</time>
      </trkpt>
      <trkpt lat="30.85688601350524" lon="114.80114350611618">
        <ele>29.15737760718912</ele>
        <time>2026-03-21T23:04:38Z</time>
      </trkpt>
      <trkpt lat="30.85689655860457" lon="114.80076912587631">
        <ele>29.984949549660087</ele>
        <time>2026-03-21T23:04:54Z</time>
      </trkpt>
      <trkpt lat="30.856901145486745" lon="114.80038684732325">
        <ele>28.626451042480767</ele>
        <time>2026-03-21T23:05:10Z</time>
      </trkpt>
      <trkpt lat="30.85687948997722" lon="114.80027534818475">
        <ele>29.726434772834182</ele>
        <time>2026-03-21T23:05:14Z</time>
      </trkpt>
      <trkpt lat="30.856879229236206" lon="114.79996080111152">
        <ele>29.625734745524824</ele>
        <time>2026-03-21T23:05:25Z</time>
      </trkpt>
      <trkpt lat="30.85688974521671" lon="114.79960389726003">
        <ele>29.90360704716295</ele>
        <time>2026-03-21T23:05:39Z</time>
      </trkpt>
      <trkpt lat="30.85692932861419" lon="114.79952700088643">
        <ele>30.36540079023689</ele>
        <time>2026-03-21T23:05:43Z</time>
      </trkpt>
      <trkpt lat="30.857140485296842" lon="114.79943809789015">
        <ele>30.1563511621207</ele>
        <time>2026-03-21T23:05:53Z</time>
      </trkpt>
      <trkpt lat="30.857246787393258" lon="114.79944103916017">
        <ele>29.79397353064269</ele>
        <time>2026-03-21T23:05:57Z</time>
      </trkpt>
      <trkpt lat="30.857350321528745" lon="114.79941242956087">
        <ele>30.623606582172215</ele>
        <time>2026-03-21T23:06:01Z</time>
      </trkpt>
      <trkpt lat="30.85771920076289" lon="114.79941331647034">
        <ele>31.0481820916757</ele>
        <time>2026-03-21T23:06:16Z</time>
      </trkpt>
      <trkpt lat="30.857987882669" lon="114.79944824487566">
        <ele>28.49970562569797</ele>
        <time>2026-03-21T23:06:28Z</time>
      </trkpt>
      <trkpt lat="30.858272922195322" lon="114.79945281832158">
        <ele>29.470309891737998</ele>
        <time>2026-03-21T23:06:41Z</time>
      </trkpt>
      <trkpt lat="30.858584695457687" lon="114.79945314526007">
        <ele>30.37842971365899</ele>
        <time>2026-03-21T23:06:56Z</time>
      </trkpt>
      <trkpt lat="30.85889214431687" lon="114.79946460413113">
        <ele>29.72990893572569</ele>
        <time>2026-03-21T23:07:09Z</time>
      </trkpt>
      <trkpt lat="30.85920672437447" lon="114.79948490860083">
        <ele>28.68495536595583</ele>
        <time>2026-03-21T23:07:23Z</time>
      </trkpt>
      <trkpt lat="30.859559586364988" lon="114.79949180307113">
        <ele>27.07692817784846</ele>
        <time>2026-03-21T23:07:38Z</time>
      </trkpt>
      <trkpt lat="30.859641994749218" lon="114.79950459480489">
        <ele>27.699671464972198</ele>
        <time>2026-03-21T23:07:42Z</time>
      </trkpt>
      <trkpt lat="30.859728829806176" lon="114.79949232486118">
        <ele>29.54839940648526</ele>
        <time>2026-03-21T23:07:46Z</time>
      </trkpt>
      <trkpt lat="30.85980388788275" lon="114.79950705913882">
        <ele>27.24958204291761</ele>
        <time>2026-03-21T23:07:49Z</time>
      </trkpt>
      <trkpt lat="30.86010836305652" lon="114.79951423277444">
        <ele>26.531972531229258</ele>
        <time>2026-03-21T23:08:04Z</time>
      </trkpt>
      <trkpt lat="30.86043023473578" lon="114.79954012644735">
        <ele>29.265959162265062</ele>
        <time>2026-03-21T23:08:19Z</time>
      </trkpt>
      <trkpt lat="30.86052498307703" lon="114.79955740250556">
        <ele>28.193487661890686</ele>
        <time>2026-03-21T23:08:23Z</time>
      </trkpt>
      <trkpt lat="30.860845809054005" lon="114.79955931669761">
        <ele>29.605332566425204</ele>
        <time>2026-03-21T23:08:37Z</time>
      </trkpt>
      <trkpt lat="30.861108323481844" lon="114.79958702222338">
        <ele>29.15960133355111</ele>
        <time>2026-03-21T23:08:49Z</time>
      </trkpt>
      <trkpt lat="30.861469296592137" lon="114.79961018677788">
        <ele>29.546548331156373</ele>
        <time>2026-03-21T23:09:04Z</time>
      </trkpt>
      <trkpt lat="30.861544586882175" lon="114.79963830160156">
        <ele>27.972015586681664</ele>
        <time>2026-03-21T23:09:08Z</time>
      </trkpt>
      <trkpt lat="30.861617576963326" lon="114.79962318194244">
        <ele>29.55097959563136</ele>
        <time>2026-03-21T23:09:11Z</time>
      </trkpt>
      <trkpt lat="30.86176076183231" lon="114.79964356829896">
        <ele>28.746964249759912</ele>
        <time>2026-03-21T23:09:18Z</time>
      </trkpt>
      <trkpt lat="30.861850512398544" lon="114.79963048677392">
        <ele>29.077453919686377</ele>
        <time>2026-03-21T23:09:22Z</time>
      </trkpt>
      <trkpt lat="30.86220612151265" lon="114.79965194781768">
        <ele>27.939137090928853</ele>
        <time>2026-03-21T23:09:37Z</time>
      </trkpt>
      <trkpt lat="30.86228702827205" lon="114.79963236685788">
        <ele>29.486226276494563</ele>
        <time>2026-03-21T23:09:41Z</time>
      </trkpt>
      <trkpt lat="30.86245034491175" lon="114.79965825368788">
        <ele>28.47481827251613</ele>
        <time>2026-03-21T23:09:48Z</time>
      </trkpt>
      <trkpt lat="30.86254257708979" lon="114.79965611634402">
        <ele>30.13333799224347</ele>
        <time>2026-03-21T23:09:52Z</time>
      </trkpt>
      <trkpt lat="30.86275699919643" lon="114.79961822436594">
        <ele>28.292450537905097</ele>
        <time>2026-03-21T23:10:02Z</time>
      </trkpt>
      <trkpt lat="30.862837636025198" lon="114.79965060060597">
        <ele>30.553464070893824</ele>
        <time>2026-03-21T23:10:06Z</time>
      </trkpt>
      <trkpt lat="30.863052994004708" lon="114.79965258428204">
        <ele>31.12298188265413</ele>
        <time>2026-03-21T23:10:15Z</time>
      </trkpt>
      <trkpt lat="30.863341264737763" lon="114.79969103742174">
        <ele>30.996184506453574</ele>
        <time>2026-03-21T23:10:29Z</time>
      </trkpt>
      <trkpt lat="30.863620614956567" lon="114.79970232715648">
        <ele>29.8970756130293</ele>
        <time>2026-03-21T23:10:42Z</time>
      </trkpt>
      <trkpt lat="30.863950693817216" lon="114.79970221913403">
        <ele>31.078142346814275</ele>
        <time>2026-03-21T23:10:57Z</time>
      </trkpt>
      <trkpt lat="30.864278756393087" lon="114.79971287702445">
        <ele>29.456852714531124</ele>
        <time>2026-03-21T23:11:12Z</time>
      </trkpt>
      <trkpt lat="30.864329762323568" lon="114.79972839317395">
        <ele>29.869067715480924</ele>
        <time>2026-03-21T23:11:15Z</time>
      </trkpt>
      <trkpt lat="30.86459918524223" lon="114.79968909674484">
        <ele>31.691828375682235</ele>
        <time>2026-03-21T23:11:27Z</time>
      </trkpt>
      <trkpt lat="30.86473222115622" lon="114.7996668424434">
        <ele>29.959561596624553</ele>
        <time>2026-03-21T23:11:33Z</time>
      </trkpt>
      <trkpt lat="30.86485666273137" lon="114.79967428239976">
        <ele>30.70154693722725</ele>
        <time>2026-03-21T23:11:39Z</time>
      </trkpt>
      <trkpt lat="30.864947379682597" lon="114.79972384959893">
        <ele>29.60107169765979</ele>
        <time>2026-03-21T23:11:45Z</time>
      </trkpt>
      <trkpt lat="30.864968688053786" lon="114.79979752678403">
        <ele>29.392780889756978</ele>
        <time>2026-03-21T23:11:48Z</time>
      </trkpt>
      <trkpt lat="30.86489354500251" lon="114.8001175831852">
        <ele>28.556279700249434</ele>
        <time>2026-03-21T23:12:01Z</time>
      </trkpt>
      <trkpt lat="30.864806118360143" lon="114.80044650551274">
        <ele>30.286988110281527</ele>
        <time>2026-03-21T23:12:14Z</time>
      </trkpt>
      <trkpt lat="30.864727417268778" lon="114.80076287365948">
        <ele>28.38926298264414</ele>
        <time>2026-03-21T23:12:27Z</time>
      </trkpt>
      <trkpt lat="30.86471059224572" lon="114.80086641569449">
        <ele>29.16522836405784</ele>
        <time>2026-03-21T23:12:31Z</time>
      </trkpt>
      <trkpt lat="30.864613824277317" lon="114.80120071416883">
        <ele>28.19387468509376</ele>
        <time>2026-03-21T23:12:45Z</time>
      </trkpt>
      <trkpt lat="30.86460390727813" lon="114.80130889723563">
        <ele>28.271503714844584</ele>
        <time>2026-03-21T23:12:49Z</time>
      </trkpt>
      <trkpt lat="30.864504327643385" lon="114.80158502982361">
        <ele>28.940424476750195</ele>
        <time>2026-03-21T23:13:01Z</time>
      </trkpt>
      <trkpt lat="30.86440320384936" lon="114.80191999246566">
        <ele>30.02867393568158</ele>
        <time>2026-03-21T23:13:15Z</time>
      </trkpt>
      <trkpt lat="30.86438915732254" lon="114.80201990624">
        <ele>29.79326008912176</ele>
        <time>2026-03-21T23:13:19Z</time>
      </trkpt>
      <trkpt lat="30.864356348736706" lon="114.80205824364211">
        <ele>28.1738914642483</ele>
        <time>2026-03-21T23:13:22Z</time>
      </trkpt>
      <trkpt lat="30.86430479032424" lon="114.80238817696501">
        <ele>30.498859317041934</ele>
        <time>2026-03-21T23:13:35Z</time>
      </trkpt>
      <trkpt lat="30.864282397817068" lon="114.80244798964709">
        <ele>31.54338219203055</ele>
        <time>2026-03-21T23:13:38Z</time>
      </trkpt>
      <trkpt lat="30.864215307401103" lon="114.80276651169575">
        <ele>31.29036995768547</ele>
        <time>2026-03-21T23:13:50Z</time>
      </trkpt>
      <trkpt lat="30.864154605678618" lon="114.80313197586426">
        <ele>29.65746323671192</ele>
        <time>2026-03-21T23:14:05Z</time>
      </trkpt>
      <trkpt lat="30.864062400462362" lon="114.80348711619985">
        <ele>30.94208958093077</ele>
        <time>2026-03-21T23:14:20Z</time>
      </trkpt>
      <trkpt lat="30.863977356405705" lon="114.80384447406192">
        <ele>30.403022629208863</ele>
        <time>2026-03-21T23:14:35Z</time>
      </trkpt>
      <trkpt lat="30.863901298122595" lon="114.80414924363724">
        <ele>30.632107904180884</ele>
        <time>2026-03-21T23:14:48Z</time>
      </trkpt>
      <trkpt lat="30.86380424557718" lon="114.80453077048874">
        <ele>30.378867531195283</ele>
        <time>2026-03-21T23:15:03Z</time>
      </trkpt>
      <trkpt lat="30.863698095424066" lon="114.80488164083243">
        <ele>30.870508995838463</ele>
        <time>2026-03-21T23:15:18Z</time>
      </trkpt>
      <trkpt lat="30.86359331274183" lon="114.80522160740273">
        <ele>30.481835896149278</ele>
        <time>2026-03-21T23:15:33Z</time>
      </trkpt>
      <trkpt lat="30.863538233262574" lon="114.80543546304044">
        <ele>30.419267447665334</ele>
        <time>2026-03-21T23:15:42Z</time>
      </trkpt>
      <trkpt lat="30.863488761424478" lon="114.80579871301818">
        <ele>29.302545324899256</ele>
        <time>2026-03-21T23:15:57Z</time>
      </trkpt>
      <trkpt lat="30.863468873328674" lon="114.80594182049653">
        <ele>27.893886361271143</ele>
        <time>2026-03-21T23:16:03Z</time>
      </trkpt>
      <trkpt lat="30.86347301822598" lon="114.80602030179917">
        <ele>29.280009194277227</ele>
        <time>2026-03-21T23:16:06Z</time>
      </trkpt>
      <trkpt lat="30.86342442981882" lon="114.80630999914084">
        <ele>29.668970968574286</ele>
        <time>2026-03-21T23:16:18Z</time>
      </trkpt>
      <trkpt lat="30.863422589820022" lon="114.80640093023672">
        <ele>30.93449819739908</ele>
        <time>2026-03-21T23:16:21Z</time>
      </trkpt>
      <trkpt lat="30.863371788938338" lon="114.80677236524306">
        <ele>29.865397488698363</ele>
        <time>2026-03-21T23:16:36Z</time>
      </trkpt>
      <trkpt lat="30.86332690609773" lon="114.80711749934007">
        <ele>30.496695439331234</ele>
        <time>2026-03-21T23:16:50Z</time>
      </trkpt>
      <trkpt lat="30.863250927032002" lon="114.80741564322017">
        <ele>29.98612470459193</ele>
        <time>2026-03-21T23:17:03Z</time>
      </trkpt>
      <trkpt lat="30.863253610884" lon="114.80749322898991">
        <ele>29.792048937641084</ele>
        <time>2026-03-21T23:17:06Z</time>
      </trkpt>
      <trkpt lat="30.86320044394053" lon="114.80784854969251">
        <ele>29.761200943030417</ele>
        <time>2026-03-21T23:17:21Z</time>
      </trkpt>
      <trkpt lat="30.86314996861644" lon="114.80821747017005">
        <ele>31.231083730235696</ele>
        <time>2026-03-21T23:17:36Z</time>
      </trkpt>
      <trkpt lat="30.863110259139674" lon="114.8085346432566">
        <ele>31.936704572290182</ele>
        <time>2026-03-21T23:17:49Z</time>
      </trkpt>
      <trkpt lat="30.863039307591844" lon="114.80885746201892">
        <ele>31.40924427844584</ele>
        <time>2026-03-21T23:18:02Z</time>
      </trkpt>
      <trkpt lat="30.863003426786143" lon="114.80890847699543">
        <ele>30.780227184295654</ele>
        <time>2026-03-21T23:18:05Z</time>
      </trkpt>
      <trkpt lat="30.862891425499896" lon="114.80897890289403">
        <ele>31.098947380669415</ele>
        <time>2026-03-21T23:18:11Z</time>
      </trkpt>
      <trkpt lat="30.86259332034885" lon="114.80906022150134">
        <ele>29.716137028299272</ele>
        <time>2026-03-21T23:18:26Z</time>
      </trkpt>
      <trkpt lat="30.862277025069208" lon="114.80912888650171">
        <ele>30.693340379744768</ele>
        <time>2026-03-21T23:18:41Z</time>
      </trkpt>
      <trkpt lat="30.861983565933222" lon="114.80922873691364">
        <ele>30.875016609206796</ele>
        <time>2026-03-21T23:18:55Z</time>
      </trkpt>
      <trkpt lat="30.861672670675688" lon="114.80930202869864">
        <ele>31.16623980179429</ele>
        <time>2026-03-21T23:19:10Z</time>
      </trkpt>
      <trkpt lat="30.861323560840965" lon="114.8094023307068">
        <ele>29.034300577826798</ele>
        <time>2026-03-21T23:19:28Z</time>
      </trkpt>
      <trkpt lat="30.861031356784384" lon="114.80947226547374">
        <ele>30.573688763193786</ele>
        <time>2026-03-21T23:19:42Z</time>
      </trkpt>
      <trkpt lat="30.860741053059588" lon="114.80953555634257">
        <ele>29.925940154120326</ele>
        <time>2026-03-21T23:19:57Z</time>
      </trkpt>
      <trkpt lat="30.860553713447672" lon="114.80958687510388">
        <ele>30.49645604286343</ele>
        <time>2026-03-21T23:20:06Z</time>
      </trkpt>
      <trkpt lat="30.860252498067744" lon="114.80967438553101">
        <ele>31.35335831530392</ele>
        <time>2026-03-21T23:20:21Z</time>
      </trkpt>
      <trkpt lat="30.859956197820374" lon="114.80974371155723">
        <ele>30.58493480551988</ele>
        <time>2026-03-21T23:20:37Z</time>
      </trkpt>
      <trkpt lat="30.85965130481435" lon="114.80982673361872">
        <ele>33.271561295725405</ele>
        <time>2026-03-21T23:20:52Z</time>
      </trkpt>
      <trkpt lat="30.85936673427235" lon="114.80987853885415">
        <ele>33.67587298247963</ele>
        <time>2026-03-21T23:21:06Z</time>
      </trkpt>
      <trkpt lat="30.85930185585884" lon="114.8098855976211">
        <ele>32.87317365780473</ele>
        <time>2026-03-21T23:21:09Z</time>
      </trkpt>
      <trkpt lat="30.85925235283447" lon="114.80986896398763">
        <ele>32.78726255800575</ele>
        <time>2026-03-21T23:21:12Z</time>
      </trkpt>
      <trkpt lat="30.85913463750626" lon="114.80989650983882">
        <ele>32.27877832856029</ele>
        <time>2026-03-21T23:21:18Z</time>
      </trkpt>
      <trkpt lat="30.858969599141723" lon="114.80999605522992">
        <ele>32.478639433160424</ele>
        <time>2026-03-21T23:21:27Z</time>
      </trkpt>
      <trkpt lat="30.85869408574951" lon="114.81006496889998">
        <ele>33.36495019681752</ele>
        <time>2026-03-21T23:21:40Z</time>
      </trkpt>
      <trkpt lat="30.85851978426947" lon="114.81009962148494">
        <ele>34.60366559121758</ele>
        <time>2026-03-21T23:21:49Z</time>
      </trkpt>
      <trkpt lat="30.858208867155014" lon="114.81019545948672">
        <ele>33.208729916252196</ele>
        <time>2026-03-21T23:22:05Z</time>
      </trkpt>
      <trkpt lat="30.857934590034123" lon="114.8102588953898">
        <ele>34.228237599134445</ele>
        <time>2026-03-21T23:22:19Z</time>
      </trkpt>
      <trkpt lat="30.857630685450182" lon="114.81033488336504">
        <ele>34.890855722129345</ele>
        <time>2026-03-21T23:22:35Z</time>
      </trkpt>
      <trkpt lat="30.85732981459988" lon="114.81040783034119">
        <ele>34.8119749808684</ele>
        <time>2026-03-21T23:22:50Z</time>
      </trkpt>
      <trkpt lat="30.857011714697748" lon="114.8105082259113">
        <ele>35.27362982183695</ele>
        <time>2026-03-21T23:23:06Z</time>
      </trkpt>
      <trkpt lat="30.856937528326633" lon="114.81050637648144">
        <ele>33.48713952302933</ele>
        <time>2026-03-21T23:23:10Z</time>
      </trkpt>
      <trkpt lat="30.856822455354166" lon="114.81054765116271">
        <ele>35.07315846346319</ele>
        <time>2026-03-21T23:23:16Z</time>
      </trkpt>
      <trkpt lat="30.85665768975669" lon="114.81056143475551">
        <ele>36.32637567445636</ele>
        <time>2026-03-21T23:23:24Z</time>
      </trkpt>
      <trkpt lat="30.856357105610424" lon="114.81063565296867">
        <ele>36.33032870758325</ele>
        <time>2026-03-21T23:23:40Z</time>
      </trkpt>
      <trkpt lat="30.856036085867192" lon="114.81072550730488">
        <ele>37.94445053488016</ele>
        <time>2026-03-21T23:23:56Z</time>
      </trkpt>
      <trkpt lat="30.855737844720053" lon="114.81080238164807">
        <ele>39.913187398575246</ele>
        <time>2026-03-21T23:24:11Z</time>
      </trkpt>
      <trkpt lat="30.8554934881281" lon="114.81086107615279">
        <ele>39.969493022188544</ele>
        <time>2026-03-21T23:24:23Z</time>
      </trkpt>
      <trkpt lat="30.855179897650082" lon="114.8109714158429">
        <ele>39.77019259240478</ele>
        <time>2026-03-21T23:24:39Z</time>
      </trkpt>
      <trkpt lat="30.85486831021103" lon="114.8110730521802">
        <ele>39.90023978985846</ele>
        <time>2026-03-21T23:24:54Z</time>
      </trkpt>
      <trkpt lat="30.854546865056225" lon="114.8111607555052">
        <ele>37.48998139426112</ele>
        <time>2026-03-21T23:25:11Z</time>
      </trkpt>
      <trkpt lat="30.85428269566072" lon="114.81124929055937">
        <ele>40.072213124483824</ele>
        <time>2026-03-21T23:25:24Z</time>
      </trkpt>
      <trkpt lat="30.85400649011803" lon="114.81133336338182">
        <ele>38.092113111168146</ele>
        <time>2026-03-21T23:25:39Z</time>
      </trkpt>
      <trkpt lat="30.853862598152716" lon="114.8113947272875">
        <ele>37.32486908510327</ele>
        <time>2026-03-21T23:25:47Z</time>
      </trkpt>
      <trkpt lat="30.85380471687683" lon="114.81140360200223">
        <ele>36.90947444923222</ele>
        <time>2026-03-21T23:25:50Z</time>
      </trkpt>
      <trkpt lat="30.853513932665063" lon="114.81152820304023">
        <ele>37.83055811561644</ele>
        <time>2026-03-21T23:26:04Z</time>
      </trkpt>
      <trkpt lat="30.853226773337617" lon="114.81163295135033">
        <ele>37.62135236430913</ele>
        <time>2026-03-21T23:26:19Z</time>
      </trkpt>
      <trkpt lat="30.852922738552472" lon="114.81173403374213">
        <ele>36.1760409893468</ele>
        <time>2026-03-21T23:26:34Z</time>
      </trkpt>
      <trkpt lat="30.852612605556587" lon="114.81187685230556">
        <ele>36.650723015889525</ele>
        <time>2026-03-21T23:26:49Z</time>
      </trkpt>
      <trkpt lat="30.852304570297093" lon="114.81202223357846">
        <ele>36.85676117707044</ele>
        <time>2026-03-21T23:27:05Z</time>
      </trkpt>
      <trkpt lat="30.852053390396893" lon="114.81215378295852">
        <ele>35.65599035844207</ele>
        <time>2026-03-21T23:27:18Z</time>
      </trkpt>
      <trkpt lat="30.851938042822844" lon="114.81217879594826">
        <ele>35.70901585370302</ele>
        <time>2026-03-21T23:27:24Z</time>
      </trkpt>
      <trkpt lat="30.85164525102398" lon="114.81233269667054">
        <ele>35.32690781261772</ele>
        <time>2026-03-21T23:27:39Z</time>
      </trkpt>
      <trkpt lat="30.85139976603241" lon="114.81246671302816">
        <ele>35.27878528274596</ele>
        <time>2026-03-21T23:27:52Z</time>
      </trkpt>
      <trkpt lat="30.851121539008286" lon="114.8126140751573">
        <ele>33.71245422400534</ele>
        <time>2026-03-21T23:28:07Z</time>
      </trkpt>
      <trkpt lat="30.850838747164605" lon="114.81276203815206">
        <ele>34.70100213214755</ele>
        <time>2026-03-21T23:28:22Z</time>
      </trkpt>
      <trkpt lat="30.850571857796897" lon="114.81292156709705">
        <ele>33.98899393994361</ele>
        <time>2026-03-21T23:28:37Z</time>
      </trkpt>
      <trkpt lat="30.850397905802115" lon="114.81302887679904">
        <ele>33.64357742667198</ele>
        <time>2026-03-21T23:28:46Z</time>
      </trkpt>
      <trkpt lat="30.850178166320617" lon="114.8131539908617">
        <ele>33.19854514859617</ele>
        <time>2026-03-21T23:28:58Z</time>
      </trkpt>
      <trkpt lat="30.849973796140752" lon="114.81331410968251">
        <ele>34.86572628375143</ele>
        <time>2026-03-21T23:29:10Z</time>
      </trkpt>
      <trkpt lat="30.84978390325006" lon="114.81339464428429">
        <ele>33.54072044789791</ele>
        <time>2026-03-21T23:29:20Z</time>
      </trkpt>
      <trkpt lat="30.849478545099256" lon="114.81336971081114">
        <ele>34.46943457238376</ele>
        <time>2026-03-21T23:29:35Z</time>
      </trkpt>
      <trkpt lat="30.849136468635958" lon="114.81335604396077">
        <ele>34.899189710617065</ele>
        <time>2026-03-21T23:29:51Z</time>
      </trkpt>
      <trkpt lat="30.84885879598691" lon="114.81333824366588">
        <ele>34.613103818148375</ele>
        <time>2026-03-21T23:30:05Z</time>
      </trkpt>
      <trkpt lat="30.84881289357222" lon="114.81331217610398">
        <ele>35.306072413921356</ele>
        <time>2026-03-21T23:30:08Z</time>
      </trkpt>
      <trkpt lat="30.848734733345008" lon="114.81331815921008">
        <ele>35.692330822348595</ele>
        <time>2026-03-21T23:30:11Z</time>
      </trkpt>
      <trkpt lat="30.84868174590064" lon="114.81328581610708">
        <ele>35.30603902693838</ele>
        <time>2026-03-21T23:30:14Z</time>
      </trkpt>
      <trkpt lat="30.848689202328696" lon="114.81321003425595">
        <ele>32.938670231960714</ele>
        <time>2026-03-21T23:30:18Z</time>
      </trkpt>
      <trkpt lat="30.8487121526334" lon="114.81315923113469">
        <ele>30.871076511219144</ele>
        <time>2026-03-21T23:30:21Z</time>
      </trkpt>
      <trkpt lat="30.848691525529684" lon="114.81281851300318">
        <ele>34.11226032860577</ele>
        <time>2026-03-21T23:30:33Z</time>
      </trkpt>
      <trkpt lat="30.84868629540136" lon="114.81245794056622">
        <ele>34.54362863395363</ele>
        <time>2026-03-21T23:30:46Z</time>
      </trkpt>
      <trkpt lat="30.84870761439256" lon="114.81209337899922">
        <ele>35.52054961025715</ele>
        <time>2026-03-21T23:31:01Z</time>
      </trkpt>
      <trkpt lat="30.84873351770923" lon="114.811734205551">
        <ele>34.99189301766455</ele>
        <time>2026-03-21T23:31:17Z</time>
      </trkpt>
      <trkpt lat="30.848741319614668" lon="114.81138905960754">
        <ele>33.52220837306231</ele>
        <time>2026-03-21T23:31:33Z</time>
      </trkpt>
      <trkpt lat="30.848717878083853" lon="114.81130367857278">
        <ele>34.494232832454145</ele>
        <time>2026-03-21T23:31:36Z</time>
      </trkpt>
      <trkpt lat="30.848743056590585" lon="114.81121139134328">
        <ele>35.37005398515612</ele>
        <time>2026-03-21T23:31:40Z</time>
      </trkpt>
      <trkpt lat="30.84878718891946" lon="114.8111339770938">
        <ele>35.67361639253795</ele>
        <time>2026-03-21T23:31:44Z</time>
      </trkpt>
      <trkpt lat="30.848810447978305" lon="114.81079579789383">
        <ele>35.970621219836175</ele>
        <time>2026-03-21T23:31:59Z</time>
      </trkpt>
      <trkpt lat="30.848818898116356" lon="114.81043758942614">
        <ele>35.24443681817502</ele>
        <time>2026-03-21T23:32:14Z</time>
      </trkpt>
      <trkpt lat="30.848780000401625" lon="114.81030130988121">
        <ele>34.30052740313113</ele>
        <time>2026-03-21T23:32:20Z</time>
      </trkpt>
      <trkpt lat="30.848816531095274" lon="114.80998414909921">
        <ele>35.39410904701799</ele>
        <time>2026-03-21T23:32:33Z</time>
      </trkpt>
      <trkpt lat="30.84882736392625" lon="114.8096399054023">
        <ele>35.85335973929614</ele>
        <time>2026-03-21T23:32:49Z</time>
      </trkpt>
      <trkpt lat="30.848822405885134" lon="114.80956840055757">
        <ele>36.29472841415554</ele>
        <time>2026-03-21T23:32:52Z</time>
      </trkpt>
      <trkpt lat="30.848838756906698" lon="114.80948415643239">
        <ele>35.40184385422617</ele>
        <time>2026-03-21T23:32:55Z</time>
      </trkpt>
      <trkpt lat="30.84883164677022" lon="114.80941414793426">
        <ele>35.897896093316376</ele>
        <time>2026-03-21T23:32:58Z</time>
      </trkpt>
      <trkpt lat="30.848867283230664" lon="114.80910097309176">
        <ele>36.67840538639575</ele>
        <time>2026-03-21T23:33:11Z</time>
      </trkpt>
      <trkpt lat="30.84888073676341" lon="114.80904840646156">
        <ele>35.819548204541206</ele>
        <time>2026-03-21T23:33:14Z</time>
      </trkpt>
      <trkpt lat="30.848862752882056" lon="114.80872495386967">
        <ele>34.84341297764331</ele>
        <time>2026-03-21T23:33:29Z</time>
      </trkpt>
      <trkpt lat="30.848846185673324" lon="114.80838358070443">
        <ele>37.14620987139642</ele>
        <time>2026-03-21T23:33:42Z</time>
      </trkpt>
      <trkpt lat="30.8488617585501" lon="114.80831796177836">
        <ele>33.407210734672844</ele>
        <time>2026-03-21T23:33:46Z</time>
      </trkpt>
      <trkpt lat="30.848849693791397" lon="114.80792241140216">
        <ele>36.55287357792258</ele>
        <time>2026-03-21T23:34:02Z</time>
      </trkpt>
      <trkpt lat="30.848903824977565" lon="114.80779479710229">
        <ele>34.98684436455369</ele>
        <time>2026-03-21T23:34:08Z</time>
      </trkpt>
      <trkpt lat="30.84901227145911" lon="114.80772531967344">
        <ele>33.80421412549913</ele>
        <time>2026-03-21T23:34:14Z</time>
      </trkpt>
      <trkpt lat="30.849014453343592" lon="114.8075860089568">
        <ele>33.489524819888175</ele>
        <time>2026-03-21T23:34:20Z</time>
      </trkpt>
      <trkpt lat="30.84896254407241" lon="114.8074508183522">
        <ele>32.829625928774476</ele>
        <time>2026-03-21T23:34:26Z</time>
      </trkpt>
      <trkpt lat="30.848912353666236" lon="114.80741201542857">
        <ele>31.582931532524526</ele>
        <time>2026-03-21T23:34:29Z</time>
      </trkpt>
      <trkpt lat="30.848886643344283" lon="114.80734899680591">
        <ele>31.104728494770825</ele>
        <time>2026-03-21T23:34:32Z</time>
      </trkpt>
      <trkpt lat="30.848909095979117" lon="114.8070049307639">
        <ele>33.63642451260239</ele>
        <time>2026-03-21T23:34:48Z</time>
      </trkpt>
      <trkpt lat="30.84890234951533" lon="114.80688268684723">
        <ele>32.561617109924555</ele>
        <time>2026-03-21T23:34:54Z</time>
      </trkpt>
      <trkpt lat="30.848948056755532" lon="114.80683897991123">
        <ele>34.03774687368423</ele>
        <time>2026-03-21T23:34:57Z</time>
      </trkpt>
      <trkpt lat="30.84893546247473" lon="114.80662750193092">
        <ele>33.18340547848493</ele>
        <time>2026-03-21T23:35:06Z</time>
      </trkpt>
      <trkpt lat="30.84891589528657" lon="114.80654455457886">
        <ele>32.99678026046604</ele>
        <time>2026-03-21T23:35:09Z</time>
      </trkpt>
      <trkpt lat="30.848929271765094" lon="114.80637347819744">
        <ele>30.73660232592374</ele>
        <time>2026-03-21T23:35:17Z</time>
      </trkpt>
      <trkpt lat="30.848907989761205" lon="114.80619313034968">
        <ele>33.13322531059384</ele>
        <time>2026-03-21T23:35:23Z</time>
      </trkpt>
      <trkpt lat="30.848923768230534" lon="114.80591270987289">
        <ele>33.83976407721639</ele>
        <time>2026-03-21T23:35:35Z</time>
      </trkpt>
      <trkpt lat="30.84892472815486" lon="114.80569141923138">
        <ele>34.489635235629976</ele>
        <time>2026-03-21T23:35:43Z</time>
      </trkpt>
      <trkpt lat="30.848953229423557" lon="114.80560866211549">
        <ele>36.42749387025833</ele>
        <time>2026-03-21T23:35:47Z</time>
      </trkpt>
      <trkpt lat="30.84892728107163" lon="114.8052244045746">
        <ele>33.83543591015041</ele>
        <time>2026-03-21T23:36:03Z</time>
      </trkpt>
      <trkpt lat="30.848953087876886" lon="114.80498471081904">
        <ele>32.60725152678788</ele>
        <time>2026-03-21T23:36:15Z</time>
      </trkpt>
      <trkpt lat="30.848944397487216" lon="114.80463370244819">
        <ele>32.70811133552343</ele>
        <time>2026-03-21T23:36:29Z</time>
      </trkpt>
      <trkpt lat="30.848946381285288" lon="114.80448637036145">
        <ele>31.81660105008632</ele>
        <time>2026-03-21T23:36:35Z</time>
      </trkpt>
      <trkpt lat="30.848962758055816" lon="114.80441735506321">
        <ele>32.69171184580773</ele>
        <time>2026-03-21T23:36:38Z</time>
      </trkpt>
      <trkpt lat="30.848942017751703" lon="114.80404853650926">
        <ele>32.81273346859962</ele>
        <time>2026-03-21T23:36:53Z</time>
      </trkpt>
      <trkpt lat="30.84892575792182" lon="114.80398639429686">
        <ele>32.169735204428434</ele>
        <time>2026-03-21T23:36:56Z</time>
      </trkpt>
      <trkpt lat="30.848914409918425" lon="114.80368268569094">
        <ele>31.830811359919608</ele>
        <time>2026-03-21T23:37:11Z</time>
      </trkpt>
      <trkpt lat="30.84897727737313" lon="114.80333569376168">
        <ele>31.986513699404895</ele>
        <time>2026-03-21T23:37:26Z</time>
      </trkpt>
      <trkpt lat="30.848995347431583" lon="114.8032566188624">
        <ele>32.24533525761217</ele>
        <time>2026-03-21T23:37:29Z</time>
      </trkpt>
      <trkpt lat="30.849148473432344" lon="114.8031349902041">
        <ele>35.15753981657326</ele>
        <time>2026-03-21T23:37:38Z</time>
      </trkpt>
      <trkpt lat="30.849298615646802" lon="114.803102307609">
        <ele>35.01583171542734</ele>
        <time>2026-03-21T23:37:45Z</time>
      </trkpt>
      <trkpt lat="30.849421360084875" lon="114.80313746519938">
        <ele>30.957561190240085</ele>
        <time>2026-03-21T23:37:51Z</time>
      </trkpt>
      <trkpt lat="30.849485487162173" lon="114.80312663668718">
        <ele>32.51337699685246</ele>
        <time>2026-03-21T23:37:54Z</time>
      </trkpt>
      <trkpt lat="30.84962894178538" lon="114.803156030381">
        <ele>34.76457266882062</ele>
        <time>2026-03-21T23:38:01Z</time>
      </trkpt>
      <trkpt lat="30.849939262071107" lon="114.80315749623301">
        <ele>33.947626064531505</ele>
        <time>2026-03-21T23:38:16Z</time>
      </trkpt>
      <trkpt lat="30.850117461872788" lon="114.80318576111333">
        <ele>33.74778319057077</ele>
        <time>2026-03-21T23:38:25Z</time>
      </trkpt>
      <trkpt lat="30.850434515004277" lon="114.80318119349653">
        <ele>33.378969612531364</ele>
        <time>2026-03-21T23:38:40Z</time>
      </trkpt>
      <trkpt lat="30.85070429392596" lon="114.80321575166072">
        <ele>33.393813895992935</ele>
        <time>2026-03-21T23:38:53Z</time>
      </trkpt>
      <trkpt lat="30.850975109879947" lon="114.80324869716429">
        <ele>35.08590928465128</ele>
        <time>2026-03-21T23:39:06Z</time>
      </trkpt>
      <trkpt lat="30.85117323194823" lon="114.8032291208354">
        <ele>32.54351278021932</ele>
        <time>2026-03-21T23:39:15Z</time>
      </trkpt>
      <trkpt lat="30.85147141264595" lon="114.8032246951999">
        <ele>30.473092957399786</ele>
        <time>2026-03-21T23:39:30Z</time>
      </trkpt>
      <trkpt lat="30.85159466825615" lon="114.80325979549359">
        <ele>33.30413717124611</ele>
        <time>2026-03-21T23:39:36Z</time>
      </trkpt>
      <trkpt lat="30.851917289517626" lon="114.80326404581585">
        <ele>33.771406075917184</ele>
        <time>2026-03-21T23:39:52Z</time>
      </trkpt>
      <trkpt lat="30.852192015990795" lon="114.80327516230902">
        <ele>32.73740625008941</ele>
        <time>2026-03-21T23:40:06Z</time>
      </trkpt>
      <trkpt lat="30.852417738965112" lon="114.80326705123817">
        <ele>31.613199894316494</ele>
        <time>2026-03-21T23:40:18Z</time>
      </trkpt>
      <trkpt lat="30.852551898566425" lon="114.80329051497195">
        <ele>29.8141721887514</ele>
        <time>2026-03-21T23:40:24Z</time>
      </trkpt>
      <trkpt lat="30.8527541384445" lon="114.80325941327243">
        <ele>34.099968787282705</ele>
        <time>2026-03-21T23:40:34Z</time>
      </trkpt>
      <trkpt lat="30.853065241707142" lon="114.80329489530563">
        <ele>32.62045780103654</ele>
        <time>2026-03-21T23:40:52Z</time>
      </trkpt>
      <trkpt lat="30.853382261374822" lon="114.80332429425445">
        <ele>32.35032372735441</ele>
        <time>2026-03-21T23:41:08Z</time>
      </trkpt>
      <trkpt lat="30.85366211918861" lon="114.80332102451436">
        <ele>33.09565803781152</ele>
        <time>2026-03-21T23:41:23Z</time>
      </trkpt>
      <trkpt lat="30.853948038408284" lon="114.80332575216104">
        <ele>33.25839023478329</ele>
        <time>2026-03-21T23:41:38Z</time>
      </trkpt>
      <trkpt lat="30.85426928765565" lon="114.80335114974216">
        <ele>31.096749135293067</ele>
        <time>2026-03-21T23:41:55Z</time>
      </trkpt>
      <trkpt lat="30.85458895360882" lon="114.8033810896284">
        <ele>32.08471807744354</ele>
        <time>2026-03-21T23:42:11Z</time>
      </trkpt>
      <trkpt lat="30.85489883598318" lon="114.8033963587301">
        <ele>32.87373616080731</ele>
        <time>2026-03-21T23:42:27Z</time>
      </trkpt>
      <trkpt lat="30.855024601379657" lon="114.80341532045479">
        <ele>33.56326106097549</ele>
        <time>2026-03-21T23:42:36Z</time>
      </trkpt>
      <trkpt lat="30.855227209177187" lon="114.8034233065226">
        <ele>31.82288654986769</ele>
        <time>2026-03-21T23:42:46Z</time>
      </trkpt>
      <trkpt lat="30.855278563932952" lon="114.80344023135176">
        <ele>32.73253941722214</ele>
        <time>2026-03-21T23:42:49Z</time>
      </trkpt>
      <trkpt lat="30.855538463078744" lon="114.80342592702522">
        <ele>31.91170705202967</ele>
        <time>2026-03-21T23:43:01Z</time>
      </trkpt>
      <trkpt lat="30.8556001407989" lon="114.80340592493984">
        <ele>32.14987895730883</ele>
        <time>2026-03-21T23:43:04Z</time>
      </trkpt>
      <trkpt lat="30.85592353215636" lon="114.80340774578063">
        <ele>33.137397670187056</ele>
        <time>2026-03-21T23:43:20Z</time>
      </trkpt>
      <trkpt lat="30.856185134903097" lon="114.8033960711982">
        <ele>31.9349724072963</ele>
        <time>2026-03-21T23:43:35Z</time>
      </trkpt>
      <trkpt lat="30.85633078089664" lon="114.80344098741324">
        <ele>32.98210428562015</ele>
        <time>2026-03-21T23:43:44Z</time>
      </trkpt>
      <trkpt lat="30.85639736525571" lon="114.80343830152076">
        <ele>30.685944597236812</ele>
        <time>2026-03-21T23:43:48Z</time>
      </trkpt>
      <trkpt lat="30.856510091066472" lon="114.80336977323634">
        <ele>28.888721148483455</ele>
        <time>2026-03-21T23:43:55Z</time>
      </trkpt>
      <trkpt lat="30.85655859406871" lon="114.80331018912625">
        <ele>29.808596482500434</ele>
        <time>2026-03-21T23:43:58Z</time>
      </trkpt>
      <trkpt lat="30.85659999716517" lon="114.80298665806545">
        <ele>29.142314473167062</ele>
        <time>2026-03-21T23:44:14Z</time>
      </trkpt>
      <trkpt lat="30.85662129184318" lon="114.80274285760672">
        <ele>27.924610789865255</ele>
        <time>2026-03-21T23:44:26Z</time>
      </trkpt>
      <trkpt lat="30.856626003968668" lon="114.80239999005413">
        <ele>31.738085088320076</ele>
        <time>2026-03-21T23:44:41Z</time>
      </trkpt>
      <trkpt lat="30.856627095738215" lon="114.8020433131829">
        <ele>29.868255666457117</ele>
        <time>2026-03-21T23:44:58Z</time>
      </trkpt>
      <trkpt lat="30.856641124184417" lon="114.80172610139316">
        <ele>28.9184908894822</ele>
        <time>2026-03-21T23:45:13Z</time>
      </trkpt>
      <trkpt lat="30.856635710466847" lon="114.80165304396829">
        <ele>28.373024743050337</ele>
        <time>2026-03-21T23:45:16Z</time>
      </trkpt>
      <trkpt lat="30.856641265695895" lon="114.80139773656805">
        <ele>28.161999508738518</ele>
        <time>2026-03-21T23:45:28Z</time>
      </trkpt>
      <trkpt lat="30.856656331285063" lon="114.80133088902946">
        <ele>29.604671072214842</ele>
        <time>2026-03-21T23:45:31Z</time>
      </trkpt>
      <trkpt lat="30.856651594199505" lon="114.8012142766057">
        <ele>27.13056569453329</ele>
        <time>2026-03-21T23:45:37Z</time>
      </trkpt>
      <trkpt lat="30.856664179151675" lon="114.8011457582928">
        <ele>29.733230295591056</ele>
        <time>2026-03-21T23:45:40Z</time>
      </trkpt>
      <trkpt lat="30.856664179151675" lon="114.8011457582928">
        <ele>29.733230295591056</ele>
        <time>2026-03-21T23:45:44Z</time>
      </trkpt>
    </trkseg>
  </trk>
</gpx>