<?xml version="1.0" encoding="UTF-8"?>
<gpx xmlns="http://www.topografix.com/GPX/1/1" xmlns:gpxtpx="http://www.garmin.com/xmlschemas/TrackPointExtension/v1" xmlns:xsi="http://www.w3.org/2001/XMLSchema-instance" xsi:schemaLocation="http://www.topografix.com/GPX/1/1 http://www.topografix.com/GPX/1/1/gpx.xsd" version="1.1" creator="gpx.py -- https://github.com/tkrajina/gpxpy">
  <trk>
    <name>gpx from keep</name>
    <type>Run</type>
    <trkseg>
      <trkpt lat="30.492119676869258" lon="114.42296676795984">
        <ele>46.55929183959961</ele>
        <time>2026-08-31T00:27:53Z</time>
      </trkpt>
      <trkpt lat="30.49217781740454" lon="114.42295675527087">
        <ele>47.56252670288086</ele>
        <time>2026-08-31T00:27:57Z</time>
      </trkpt>
      <trkpt lat="30.492255101498024" lon="114.42296819797758">
        <ele>46.49398422241211</ele>
        <time>2026-08-31T00:28:00Z</time>
      </trkpt>
      <trkpt lat="30.492367619003556" lon="114.42304077661929">
        <ele>48.34066427871585</ele>
        <time>2026-08-31T00:28:06Z</time>
      </trkpt>
      <trkpt lat="30.492296273079873" lon="114.42307658620143">
        <ele>49.098354742862284</ele>
        <time>2026-08-31T00:28:09Z</time>
      </trkpt>
      <trkpt lat="30.49237187011202" lon="114.42316603961585">
        <ele>49.12038840353489</ele>
        <time>2026-08-31T00:28:15Z</time>
      </trkpt>
      <trkpt lat="30.49240051044816" lon="114.42325982479385">
        <ele>50.889492518268526</ele>
        <time>2026-08-31T00:28:18Z</time>
      </trkpt>
      <trkpt lat="30.492340354729837" lon="114.42349407611175">
        <ele>45.637423236854374</ele>
        <time>2026-08-31T00:28:24Z</time>
      </trkpt>
      <trkpt lat="30.492303161969293" lon="114.42356467189022">
        <ele>45.06762498803437</ele>
        <time>2026-08-31T00:28:27Z</time>
      </trkpt>
      <trkpt lat="30.49222761904845" lon="114.42390276403904">
        <ele>45.37545312102884</ele>
        <time>2026-08-31T00:28:41Z</time>
      </trkpt>
      <trkpt lat="30.492115026493" lon="114.42417645807691">
        <ele>42.7491096444428</ele>
        <time>2026-08-31T00:28:53Z</time>
      </trkpt>
      <trkpt lat="30.492106782848104" lon="114.42427699638584">
        <ele>42.32765587978065</ele>
        <time>2026-08-31T00:28:57Z</time>
      </trkpt>
      <trkpt lat="30.491977589624952" lon="114.42465280496542">
        <ele>42.25318102352321</ele>
        <time>2026-08-31T00:29:13Z</time>
      </trkpt>
      <trkpt lat="30.492012701508553" lon="114.4247372489896">
        <ele>42.88314541708678</ele>
        <time>2026-08-31T00:29:17Z</time>
      </trkpt>
      <trkpt lat="30.492093645442257" lon="114.42479598154668">
        <ele>42.34481038060039</ele>
        <time>2026-08-31T00:29:21Z</time>
      </trkpt>
      <trkpt lat="30.492266980476842" lon="114.424840328127">
        <ele>42.34494471363723</ele>
        <time>2026-08-31T00:29:29Z</time>
      </trkpt>
      <trkpt lat="30.492496961247163" lon="114.42494297845988">
        <ele>43.050746995955706</ele>
        <time>2026-08-31T00:29:41Z</time>
      </trkpt>
      <trkpt lat="30.49277952302268" lon="114.42507794246704">
        <ele>43.87964319251478</ele>
        <time>2026-08-31T00:29:57Z</time>
      </trkpt>
      <trkpt lat="30.492842636687055" lon="114.42511075420286">
        <ele>44.046735126525164</ele>
        <time>2026-08-31T00:30:00Z</time>
      </trkpt>
      <trkpt lat="30.492894506811403" lon="114.42516253768797">
        <ele>44.39713888801634</ele>
        <time>2026-08-31T00:30:04Z</time>
      </trkpt>
      <trkpt lat="30.49319068279845" lon="114.42524758800339">
        <ele>44.19416560046375</ele>
        <time>2026-08-31T00:30:19Z</time>
      </trkpt>
      <trkpt lat="30.493267492733214" lon="114.42526556296028">
        <ele>43.147198839113116</ele>
        <time>2026-08-31T00:30:23Z</time>
      </trkpt>
      <trkpt lat="30.493492405919486" lon="114.42538430569137">
        <ele>46.3402778794989</ele>
        <time>2026-08-31T00:30:35Z</time>
      </trkpt>
      <trkpt lat="30.493735180711756" lon="114.42549948175665">
        <ele>47.02880191244185</ele>
        <time>2026-08-31T00:30:47Z</time>
      </trkpt>
      <trkpt lat="30.493824767956013" lon="114.42551540135143">
        <ele>47.37140523735434</ele>
        <time>2026-08-31T00:30:51Z</time>
      </trkpt>
      <trkpt lat="30.49389349132828" lon="114.42547987193896">
        <ele>48.20499078929424</ele>
        <time>2026-08-31T00:30:55Z</time>
      </trkpt>
      <trkpt lat="30.4938986907866" lon="114.42536055036597">
        <ele>45.985421841964126</ele>
        <time>2026-08-31T00:30:59Z</time>
      </trkpt>
      <trkpt lat="30.49399661308247" lon="114.42506104985517">
        <ele>47.6947160763666</ele>
        <time>2026-08-31T00:31:11Z</time>
      </trkpt>
      <trkpt lat="30.494038599267743" lon="114.4249140085811">
        <ele>47.920691781677306</ele>
        <time>2026-08-31T00:31:19Z</time>
      </trkpt>
      <trkpt lat="30.494079870152525" lon="114.42484595041152">
        <ele>49.68875830527395</ele>
        <time>2026-08-31T00:31:23Z</time>
      </trkpt>
      <trkpt lat="30.494185747528384" lon="114.42453254513367">
        <ele>48.261378596536815</ele>
        <time>2026-08-31T00:31:39Z</time>
      </trkpt>
      <trkpt lat="30.494201343186628" lon="114.42444891484908">
        <ele>49.400963925756514</ele>
        <time>2026-08-31T00:31:43Z</time>
      </trkpt>
      <trkpt lat="30.49425224543671" lon="114.42435638481014">
        <ele>49.49834055732936</ele>
        <time>2026-08-31T00:31:47Z</time>
      </trkpt>
      <trkpt lat="30.494357879136242" lon="114.42431381720169">
        <ele>49.20976579468697</ele>
        <time>2026-08-31T00:31:51Z</time>
      </trkpt>
      <trkpt lat="30.494373760988267" lon="114.42418927569584">
        <ele>48.42157460283488</ele>
        <time>2026-08-31T00:31:55Z</time>
      </trkpt>
      <trkpt lat="30.494437964497358" lon="114.42396906690085">
        <ele>48.64884344767779</ele>
        <time>2026-08-31T00:32:06Z</time>
      </trkpt>
      <trkpt lat="30.49448834741237" lon="114.42390962473276">
        <ele>48.90045354515314</ele>
        <time>2026-08-31T00:32:10Z</time>
      </trkpt>
      <trkpt lat="30.494538380755376" lon="114.42374761177086">
        <ele>48.91743393428624</ele>
        <time>2026-08-31T00:32:18Z</time>
      </trkpt>
      <trkpt lat="30.494551488516173" lon="114.42364554744262">
        <ele>48.927904029376805</ele>
        <time>2026-08-31T00:32:22Z</time>
      </trkpt>
      <trkpt lat="30.49460920532518" lon="114.42355271286056">
        <ele>49.286029329523444</ele>
        <time>2026-08-31T00:32:26Z</time>
      </trkpt>
      <trkpt lat="30.494645556418597" lon="114.42344817863112">
        <ele>49.64624929148704</ele>
        <time>2026-08-31T00:32:30Z</time>
      </trkpt>
      <trkpt lat="30.494755942953923" lon="114.42325001979238">
        <ele>49.70695167500526</ele>
        <time>2026-08-31T00:32:42Z</time>
      </trkpt>
      <trkpt lat="30.494799568795237" lon="114.42314016147245">
        <ele>49.32387544307858</ele>
        <time>2026-08-31T00:32:46Z</time>
      </trkpt>
      <trkpt lat="30.49478384684933" lon="114.42302738707886">
        <ele>50.153689065016806</ele>
        <time>2026-08-31T00:32:50Z</time>
      </trkpt>
      <trkpt lat="30.494749875279734" lon="114.42294914066854">
        <ele>50.20137949939817</ele>
        <time>2026-08-31T00:32:54Z</time>
      </trkpt>
      <trkpt lat="30.494684375944498" lon="114.42288876257753">
        <ele>49.503893005661666</ele>
        <time>2026-08-31T00:32:58Z</time>
      </trkpt>
      <trkpt lat="30.494542788439485" lon="114.4228349994978">
        <ele>48.3405403085053</ele>
        <time>2026-08-31T00:33:06Z</time>
      </trkpt>
      <trkpt lat="30.494294946651014" lon="114.42271262730688">
        <ele>49.99177658651024</ele>
        <time>2026-08-31T00:33:18Z</time>
      </trkpt>
      <trkpt lat="30.493953731512327" lon="114.42258124695712">
        <ele>49.97212766483426</ele>
        <time>2026-08-31T00:33:34Z</time>
      </trkpt>
      <trkpt lat="30.493871128525267" lon="114.42251873015614">
        <ele>49.18859559018165</ele>
        <time>2026-08-31T00:33:38Z</time>
      </trkpt>
      <trkpt lat="30.49377833246969" lon="114.42249418795706">
        <ele>49.864892568439245</ele>
        <time>2026-08-31T00:33:42Z</time>
      </trkpt>
      <trkpt lat="30.49361444352466" lon="114.42238376711015">
        <ele>49.286708232946694</ele>
        <time>2026-08-31T00:33:50Z</time>
      </trkpt>
      <trkpt lat="30.49329760263606" lon="114.42221454382268">
        <ele>48.60624021012336</ele>
        <time>2026-08-31T00:34:06Z</time>
      </trkpt>
      <trkpt lat="30.493145286764832" lon="114.42215315032495">
        <ele>48.71952904481441</ele>
        <time>2026-08-31T00:34:13Z</time>
      </trkpt>
      <trkpt lat="30.493067319105336" lon="114.42217792302367">
        <ele>48.36661085113883</ele>
        <time>2026-08-31T00:34:17Z</time>
      </trkpt>
      <trkpt lat="30.492819631304418" lon="114.422073265558">
        <ele>48.41825708840042</ele>
        <time>2026-08-31T00:34:29Z</time>
      </trkpt>
      <trkpt lat="30.492500752319213" lon="114.42187041177311">
        <ele>47.2611166164279</ele>
        <time>2026-08-31T00:34:45Z</time>
      </trkpt>
      <trkpt lat="30.49226926744601" lon="114.42176317158216">
        <ele>47.06449418608099</ele>
        <time>2026-08-31T00:34:57Z</time>
      </trkpt>
      <trkpt lat="30.49193193500778" lon="114.42164179652507">
        <ele>45.531423351727426</ele>
        <time>2026-08-31T00:35:13Z</time>
      </trkpt>
      <trkpt lat="30.49184713879742" lon="114.42161998566652">
        <ele>44.038900185376406</ele>
        <time>2026-08-31T00:35:17Z</time>
      </trkpt>
      <trkpt lat="30.491764959785677" lon="114.42156571194599">
        <ele>44.23815697431564</ele>
        <time>2026-08-31T00:35:21Z</time>
      </trkpt>
      <trkpt lat="30.491667321441657" lon="114.42156031563037">
        <ele>42.76110729388893</ele>
        <time>2026-08-31T00:35:25Z</time>
      </trkpt>
      <trkpt lat="30.491586370424056" lon="114.4215033122261">
        <ele>42.86960163991898</ele>
        <time>2026-08-31T00:35:29Z</time>
      </trkpt>
      <trkpt lat="30.491327289524147" lon="114.42142904007633">
        <ele>42.80809921678156</ele>
        <time>2026-08-31T00:35:41Z</time>
      </trkpt>
      <trkpt lat="30.491248720329068" lon="114.42138953168292">
        <ele>41.70529846008867</ele>
        <time>2026-08-31T00:35:45Z</time>
      </trkpt>
      <trkpt lat="30.490969993178766" lon="114.42134983871301">
        <ele>40.499378374777734</ele>
        <time>2026-08-31T00:35:57Z</time>
      </trkpt>
      <trkpt lat="30.490901888166523" lon="114.42133961130995">
        <ele>40.48722339514643</ele>
        <time>2026-08-31T00:36:00Z</time>
      </trkpt>
      <trkpt lat="30.490830379905443" lon="114.42130361465615">
        <ele>40.2795272115618</ele>
        <time>2026-08-31T00:36:04Z</time>
      </trkpt>
      <trkpt lat="30.490760456384493" lon="114.42123951960679">
        <ele>40.259025417268276</ele>
        <time>2026-08-31T00:36:08Z</time>
      </trkpt>
      <trkpt lat="30.49054651648475" lon="114.42111406296262">
        <ele>39.84472356457263</ele>
        <time>2026-08-31T00:36:19Z</time>
      </trkpt>
      <trkpt lat="30.490204559853105" lon="114.42100616480377">
        <ele>41.136739331297576</ele>
        <time>2026-08-31T00:36:35Z</time>
      </trkpt>
      <trkpt lat="30.490030276915057" lon="114.42096813713144">
        <ele>39.66493947803974</ele>
        <time>2026-08-31T00:36:43Z</time>
      </trkpt>
      <trkpt lat="30.489940275237508" lon="114.42093026585995">
        <ele>39.65148059092462</ele>
        <time>2026-08-31T00:36:47Z</time>
      </trkpt>
      <trkpt lat="30.4896104674383" lon="114.4208635800764">
        <ele>39.802264713682234</ele>
        <time>2026-08-31T00:37:03Z</time>
      </trkpt>
      <trkpt lat="30.489261477928128" lon="114.42079736596583">
        <ele>40.78534086514264</ele>
        <time>2026-08-31T00:37:19Z</time>
      </trkpt>
      <trkpt lat="30.488921644969395" lon="114.42073772757406">
        <ele>40.74354318249971</ele>
        <time>2026-08-31T00:37:35Z</time>
      </trkpt>
      <trkpt lat="30.488823308711172" lon="114.42071600396675">
        <ele>41.51869201194495</ele>
        <time>2026-08-31T00:37:39Z</time>
      </trkpt>
      <trkpt lat="30.48874660079845" lon="114.42075362817266">
        <ele>40.59761624597013</ele>
        <time>2026-08-31T00:37:43Z</time>
      </trkpt>
      <trkpt lat="30.48865505862006" lon="114.42074487732812">
        <ele>41.05247761309147</ele>
        <time>2026-08-31T00:37:47Z</time>
      </trkpt>
      <trkpt lat="30.48856178401521" lon="114.42071333607024">
        <ele>40.94761803839356</ele>
        <time>2026-08-31T00:37:51Z</time>
      </trkpt>
      <trkpt lat="30.488379802513823" lon="114.4207040783356">
        <ele>41.08383866306394</ele>
        <time>2026-08-31T00:37:59Z</time>
      </trkpt>
      <trkpt lat="30.48829982181519" lon="114.42071790013159">
        <ele>41.17291873600334</ele>
        <time>2026-08-31T00:38:03Z</time>
      </trkpt>
      <trkpt lat="30.488208905292282" lon="114.4207591511189">
        <ele>40.31656797323376</ele>
        <time>2026-08-31T00:38:07Z</time>
      </trkpt>
      <trkpt lat="30.488156138296702" lon="114.42083745138457">
        <ele>38.76250170636922</ele>
        <time>2026-08-31T00:38:11Z</time>
      </trkpt>
      <trkpt lat="30.488106649937443" lon="114.42103064503317">
        <ele>38.77952557615936</ele>
        <time>2026-08-31T00:38:19Z</time>
      </trkpt>
      <trkpt lat="30.488087881842503" lon="114.42121933464934">
        <ele>40.716518338769674</ele>
        <time>2026-08-31T00:38:26Z</time>
      </trkpt>
      <trkpt lat="30.48805071623626" lon="114.42131172015328">
        <ele>41.61967002414167</ele>
        <time>2026-08-31T00:38:30Z</time>
      </trkpt>
      <trkpt lat="30.487992553300252" lon="114.4216062973432">
        <ele>43.901441153138876</ele>
        <time>2026-08-31T00:38:42Z</time>
      </trkpt>
      <trkpt lat="30.48797388137215" lon="114.42179362336451">
        <ele>45.85105626191944</ele>
        <time>2026-08-31T00:38:50Z</time>
      </trkpt>
      <trkpt lat="30.487901998193937" lon="114.42199455742488">
        <ele>47.171300382353365</ele>
        <time>2026-08-31T00:38:58Z</time>
      </trkpt>
      <trkpt lat="30.48786881753934" lon="114.42238799164124">
        <ele>46.59517921321094</ele>
        <time>2026-08-31T00:39:14Z</time>
      </trkpt>
      <trkpt lat="30.48780461222606" lon="114.42278275519826">
        <ele>47.49452243279666</ele>
        <time>2026-08-31T00:39:30Z</time>
      </trkpt>
      <trkpt lat="30.487797769418982" lon="114.42288513668105">
        <ele>47.66388778761029</ele>
        <time>2026-08-31T00:39:34Z</time>
      </trkpt>
      <trkpt lat="30.48775962278377" lon="114.42298424729415">
        <ele>47.35308723710477</ele>
        <time>2026-08-31T00:39:38Z</time>
      </trkpt>
      <trkpt lat="30.48766480815187" lon="114.42317181479416">
        <ele>47.57933680154383</ele>
        <time>2026-08-31T00:39:46Z</time>
      </trkpt>
      <trkpt lat="30.48761338731691" lon="114.42323210183216">
        <ele>46.998331242240965</ele>
        <time>2026-08-31T00:39:50Z</time>
      </trkpt>
      <trkpt lat="30.487441020385898" lon="114.423245618969">
        <ele>46.30480389110744</ele>
        <time>2026-08-31T00:39:58Z</time>
      </trkpt>
      <trkpt lat="30.487327757067064" lon="114.42338380610957">
        <ele>43.846129761077464</ele>
        <time>2026-08-31T00:40:06Z</time>
      </trkpt>
      <trkpt lat="30.487304687471564" lon="114.42347734637232">
        <ele>43.41386324726045</ele>
        <time>2026-08-31T00:40:10Z</time>
      </trkpt>
      <trkpt lat="30.48722090450087" lon="114.42364094946971">
        <ele>41.58457216154784</ele>
        <time>2026-08-31T00:40:18Z</time>
      </trkpt>
      <trkpt lat="30.487164987890406" lon="114.42371233060067">
        <ele>41.23447874188423</ele>
        <time>2026-08-31T00:40:22Z</time>
      </trkpt>
      <trkpt lat="30.487088303095465" lon="114.42374607896411">
        <ele>40.89291270263493</ele>
        <time>2026-08-31T00:40:26Z</time>
      </trkpt>
      <trkpt lat="30.48685144999259" lon="114.42377888883037">
        <ele>40.58201472554356</ele>
        <time>2026-08-31T00:40:37Z</time>
      </trkpt>
      <trkpt lat="30.48650835721555" lon="114.423790447425">
        <ele>40.61618379596621</ele>
        <time>2026-08-31T00:40:53Z</time>
      </trkpt>
      <trkpt lat="30.48634128706774" lon="114.42378626403492">
        <ele>39.730472058057785</ele>
        <time>2026-08-31T00:41:01Z</time>
      </trkpt>
      <trkpt lat="30.486063822418263" lon="114.42378693824071">
        <ele>38.81099549308419</ele>
        <time>2026-08-31T00:41:13Z</time>
      </trkpt>
      <trkpt lat="30.48596960352535" lon="114.42376365676044">
        <ele>38.12539560440928</ele>
        <time>2026-08-31T00:41:17Z</time>
      </trkpt>
      <trkpt lat="30.48562847975803" lon="114.42380005362882">
        <ele>38.47071590553969</ele>
        <time>2026-08-31T00:41:33Z</time>
      </trkpt>
      <trkpt lat="30.48528049252457" lon="114.4238142552998">
        <ele>38.013611312024295</ele>
        <time>2026-08-31T00:41:49Z</time>
      </trkpt>
      <trkpt lat="30.485041209233906" lon="114.42383469711109">
        <ele>38.50574336666614</ele>
        <time>2026-08-31T00:42:01Z</time>
      </trkpt>
      <trkpt lat="30.48503949093863" lon="114.42394401795725">
        <ele>38.51774728856981</ele>
        <time>2026-08-31T00:42:05Z</time>
      </trkpt>
      <trkpt lat="30.48532203864284" lon="114.42398799305033">
        <ele>37.293727240525186</ele>
        <time>2026-08-31T00:42:17Z</time>
      </trkpt>
      <trkpt lat="30.485413789358418" lon="114.42399951533707">
        <ele>37.27407982945442</ele>
        <time>2026-08-31T00:42:21Z</time>
      </trkpt>
      <trkpt lat="30.48573827350342" lon="114.42396832266974">
        <ele>37.998482399620116</ele>
        <time>2026-08-31T00:42:36Z</time>
      </trkpt>
      <trkpt lat="30.486041919061485" lon="114.42396790406602">
        <ele>39.11158505640924</ele>
        <time>2026-08-31T00:42:49Z</time>
      </trkpt>
      <trkpt lat="30.486214282818057" lon="114.42394969874759">
        <ele>39.41767359524965</ele>
        <time>2026-08-31T00:42:57Z</time>
      </trkpt>
      <trkpt lat="30.486292309734452" lon="114.42397048785251">
        <ele>36.84014395624399</ele>
        <time>2026-08-31T00:43:01Z</time>
      </trkpt>
      <trkpt lat="30.486382429997185" lon="114.4239550675707">
        <ele>38.78158972412348</ele>
        <time>2026-08-31T00:43:05Z</time>
      </trkpt>
      <trkpt lat="30.486629408320606" lon="114.42396207716342">
        <ele>37.77515499852598</ele>
        <time>2026-08-31T00:43:17Z</time>
      </trkpt>
      <trkpt lat="30.486718928581514" lon="114.42394258361206">
        <ele>39.92638490628451</ele>
        <time>2026-08-31T00:43:21Z</time>
      </trkpt>
      <trkpt lat="30.48704419588657" lon="114.42392935627043">
        <ele>40.38628040347248</ele>
        <time>2026-08-31T00:43:37Z</time>
      </trkpt>
      <trkpt lat="30.487213086827964" lon="114.42391059553619">
        <ele>39.716392886824906</ele>
        <time>2026-08-31T00:43:45Z</time>
      </trkpt>
      <trkpt lat="30.48744657889961" lon="114.4238165121923">
        <ele>40.101460996083915</ele>
        <time>2026-08-31T00:43:57Z</time>
      </trkpt>
      <trkpt lat="30.48763160880664" lon="114.42380715814723">
        <ele>41.76744429860264</ele>
        <time>2026-08-31T00:44:05Z</time>
      </trkpt>
      <trkpt lat="30.487947819118872" lon="114.42391550971013">
        <ele>41.17969301249832</ele>
        <time>2026-08-31T00:44:21Z</time>
      </trkpt>
      <trkpt lat="30.48825475522265" lon="114.4240025593037">
        <ele>44.656457400880754</ele>
        <time>2026-08-31T00:44:37Z</time>
      </trkpt>
      <trkpt lat="30.48833546743694" lon="114.42402386593835">
        <ele>44.14534988068044</ele>
        <time>2026-08-31T00:44:41Z</time>
      </trkpt>
      <trkpt lat="30.488543861109864" lon="114.42403001675524">
        <ele>44.94553738553077</ele>
        <time>2026-08-31T00:44:51Z</time>
      </trkpt>
      <trkpt lat="30.488871860140957" lon="114.42408883521863">
        <ele>41.78240817040205</ele>
        <time>2026-08-31T00:45:06Z</time>
      </trkpt>
      <trkpt lat="30.48905347716806" lon="114.424141076341">
        <ele>41.37730767391622</ele>
        <time>2026-08-31T00:45:14Z</time>
      </trkpt>
      <trkpt lat="30.489135532074926" lon="114.42418316897904">
        <ele>39.7407425865531</ele>
        <time>2026-08-31T00:45:18Z</time>
      </trkpt>
      <trkpt lat="30.489222671091316" lon="114.42417974991112">
        <ele>41.07623318489641</ele>
        <time>2026-08-31T00:45:22Z</time>
      </trkpt>
      <trkpt lat="30.489311325535986" lon="114.42420132701906">
        <ele>40.745124974288046</ele>
        <time>2026-08-31T00:45:26Z</time>
      </trkpt>
      <trkpt lat="30.48959813725944" lon="114.42418898572662">
        <ele>40.364811091683805</ele>
        <time>2026-08-31T00:45:42Z</time>
      </trkpt>
      <trkpt lat="30.48976004341527" lon="114.42415943883631">
        <ele>40.33753986749798</ele>
        <time>2026-08-31T00:45:50Z</time>
      </trkpt>
      <trkpt lat="30.49005118988773" lon="114.42397943804916">
        <ele>40.397252878174186</ele>
        <time>2026-08-31T00:46:06Z</time>
      </trkpt>
      <trkpt lat="30.490374826804548" lon="114.42413334393197">
        <ele>39.95428442489356</ele>
        <time>2026-08-31T00:46:22Z</time>
      </trkpt>
      <trkpt lat="30.49068797274375" lon="114.42427729361651">
        <ele>40.540238545276225</ele>
        <time>2026-08-31T00:46:38Z</time>
      </trkpt>
      <trkpt lat="30.49086067219572" lon="114.4243735305584">
        <ele>40.366823421791196</ele>
        <time>2026-08-31T00:46:49Z</time>
      </trkpt>
      <trkpt lat="30.491128088895397" lon="114.42449383753895">
        <ele>41.28392405807972</ele>
        <time>2026-08-31T00:47:02Z</time>
      </trkpt>
      <trkpt lat="30.491275493229455" lon="114.42455884034389">
        <ele>41.288418277166784</ele>
        <time>2026-08-31T00:47:10Z</time>
      </trkpt>
      <trkpt lat="30.49135005355702" lon="114.42461224784338">
        <ele>41.11218972876668</ele>
        <time>2026-08-31T00:47:14Z</time>
      </trkpt>
      <trkpt lat="30.491656951545295" lon="114.42474089135571">
        <ele>41.0863790391013</ele>
        <time>2026-08-31T00:47:30Z</time>
      </trkpt>
      <trkpt lat="30.491972069606003" lon="114.42490587041318">
        <ele>42.509848919697106</ele>
        <time>2026-08-31T00:47:46Z</time>
      </trkpt>
      <trkpt lat="30.492273490446166" lon="114.42504291194325">
        <ele>42.25021714065224</ele>
        <time>2026-08-31T00:48:02Z</time>
      </trkpt>
      <trkpt lat="30.492424686833147" lon="114.42509590033102">
        <ele>43.48388762772083</ele>
        <time>2026-08-31T00:48:10Z</time>
      </trkpt>
      <trkpt lat="30.492498354976117" lon="114.42515024341276">
        <ele>43.41833115648478</ele>
        <time>2026-08-31T00:48:14Z</time>
      </trkpt>
      <trkpt lat="30.492793319135597" lon="114.42527868752094">
        <ele>44.07410676032305</ele>
        <time>2026-08-31T00:48:30Z</time>
      </trkpt>
      <trkpt lat="30.493083364873268" lon="114.42541902046243">
        <ele>45.0420153234154</ele>
        <time>2026-08-31T00:48:46Z</time>
      </trkpt>
      <trkpt lat="30.493348313535694" lon="114.42554112270996">
        <ele>47.049785405397415</ele>
        <time>2026-08-31T00:49:00Z</time>
      </trkpt>
      <trkpt lat="30.49345844924134" lon="114.42562797714778">
        <ele>46.5680440813303</ele>
        <time>2026-08-31T00:49:06Z</time>
      </trkpt>
      <trkpt lat="30.493710841050678" lon="114.42569422498786">
        <ele>48.02642235159874</ele>
        <time>2026-08-31T00:49:18Z</time>
      </trkpt>
      <trkpt lat="30.493780152668908" lon="114.42569253634557">
        <ele>47.95005649421364</ele>
        <time>2026-08-31T00:49:22Z</time>
      </trkpt>
      <trkpt lat="30.493840561046035" lon="114.42562273368802">
        <ele>45.77462499309331</ele>
        <time>2026-08-31T00:49:26Z</time>
      </trkpt>
      <trkpt lat="30.49388655384928" lon="114.42553064981344">
        <ele>46.13719805702567</ele>
        <time>2026-08-31T00:49:30Z</time>
      </trkpt>
      <trkpt lat="30.49394285768007" lon="114.42521373276786">
        <ele>45.97788335010409</ele>
        <time>2026-08-31T00:49:42Z</time>
      </trkpt>
      <trkpt lat="30.494016254218046" lon="114.42504738566824">
        <ele>48.17323449719697</ele>
        <time>2026-08-31T00:49:50Z</time>
      </trkpt>
      <trkpt lat="30.494136849855675" lon="114.42488712002334">
        <ele>47.01136162877083</ele>
        <time>2026-08-31T00:49:58Z</time>
      </trkpt>
      <trkpt lat="30.49415168133244" lon="114.42477486046519">
        <ele>48.917432678863406</ele>
        <time>2026-08-31T00:50:02Z</time>
      </trkpt>
      <trkpt lat="30.494259199342512" lon="114.42447559786042">
        <ele>49.38526400458068</ele>
        <time>2026-08-31T00:50:14Z</time>
      </trkpt>
      <trkpt lat="30.494266179198867" lon="114.42438119468042">
        <ele>48.71184874512255</ele>
        <time>2026-08-31T00:50:18Z</time>
      </trkpt>
      <trkpt lat="30.494321207338377" lon="114.42429629668781">
        <ele>48.666069051250815</ele>
        <time>2026-08-31T00:50:22Z</time>
      </trkpt>
      <trkpt lat="30.494352055676575" lon="114.42418161309627">
        <ele>50.59542414639145</ele>
        <time>2026-08-31T00:50:26Z</time>
      </trkpt>
      <trkpt lat="30.49441072414195" lon="114.42407083634141">
        <ele>49.23149350564927</ele>
        <time>2026-08-31T00:50:30Z</time>
      </trkpt>
      <trkpt lat="30.494455003958954" lon="114.42392242165431">
        <ele>48.55132109578699</ele>
        <time>2026-08-31T00:50:38Z</time>
      </trkpt>
      <trkpt lat="30.494502414241055" lon="114.42382162539126">
        <ele>50.68395929783583</ele>
        <time>2026-08-31T00:50:42Z</time>
      </trkpt>
      <trkpt lat="30.494560930061922" lon="114.42375306159897">
        <ele>49.35153092164546</ele>
        <time>2026-08-31T00:50:46Z</time>
      </trkpt>
      <trkpt lat="30.494608523687088" lon="114.42355493055187">
        <ele>49.80790790356696</ele>
        <time>2026-08-31T00:50:54Z</time>
      </trkpt>
      <trkpt lat="30.494734424679848" lon="114.42326138731897">
        <ele>48.97731069941074</ele>
        <time>2026-08-31T00:51:07Z</time>
      </trkpt>
      <trkpt lat="30.49476781252707" lon="114.42318902566045">
        <ele>49.55340403690934</ele>
        <time>2026-08-31T00:51:10Z</time>
      </trkpt>
      <trkpt lat="30.494780838938155" lon="114.4231057473239">
        <ele>49.63256479334086</ele>
        <time>2026-08-31T00:51:13Z</time>
      </trkpt>
      <trkpt lat="30.494766290758275" lon="114.42299895253792">
        <ele>49.97894041892141</ele>
        <time>2026-08-31T00:51:17Z</time>
      </trkpt>
      <trkpt lat="30.494711863248344" lon="114.42291980827895">
        <ele>48.33003796823323</ele>
        <time>2026-08-31T00:51:21Z</time>
      </trkpt>
      <trkpt lat="30.494621970662784" lon="114.4228657251576">
        <ele>48.865806800313294</ele>
        <time>2026-08-31T00:51:25Z</time>
      </trkpt>
      <trkpt lat="30.494539367027734" lon="114.42286512463295">
        <ele>48.703041858039796</ele>
        <time>2026-08-31T00:51:29Z</time>
      </trkpt>
      <trkpt lat="30.494463459361167" lon="114.42280551072848">
        <ele>49.38076398335397</ele>
        <time>2026-08-31T00:51:33Z</time>
      </trkpt>
      <trkpt lat="30.49431216059567" lon="114.42271992833022">
        <ele>49.859671268612146</ele>
        <time>2026-08-31T00:51:41Z</time>
      </trkpt>
      <trkpt lat="30.494146314461425" lon="114.42267995087815">
        <ele>49.16620748024434</ele>
        <time>2026-08-31T00:51:49Z</time>
      </trkpt>
      <trkpt lat="30.494061748844203" lon="114.4226239999736">
        <ele>49.11195753328502</ele>
        <time>2026-08-31T00:51:53Z</time>
      </trkpt>
      <trkpt lat="30.493974123599337" lon="114.42259522902114">
        <ele>49.27812491171062</ele>
        <time>2026-08-31T00:51:57Z</time>
      </trkpt>
      <trkpt lat="30.49391223663145" lon="114.42253315263042">
        <ele>49.44083869736642</ele>
        <time>2026-08-31T00:52:01Z</time>
      </trkpt>
      <trkpt lat="30.493817339751327" lon="114.42251378376142">
        <ele>49.4602000778541</ele>
        <time>2026-08-31T00:52:05Z</time>
      </trkpt>
      <trkpt lat="30.49374468919698" lon="114.42243357314587">
        <ele>49.81113981362432</ele>
        <time>2026-08-31T00:52:09Z</time>
      </trkpt>
      <trkpt lat="30.493657384757643" lon="114.42240932450069">
        <ele>49.31791995000094</ele>
        <time>2026-08-31T00:52:13Z</time>
      </trkpt>
      <trkpt lat="30.493579878641583" lon="114.42234712520599">
        <ele>48.97504140343517</ele>
        <time>2026-08-31T00:52:17Z</time>
      </trkpt>
      <trkpt lat="30.493498761469514" lon="114.42232242626335">
        <ele>49.15996473003179</ele>
        <time>2026-08-31T00:52:21Z</time>
      </trkpt>
      <trkpt lat="30.49333760048777" lon="114.42219901318157">
        <ele>49.670172155834734</ele>
        <time>2026-08-31T00:52:29Z</time>
      </trkpt>
      <trkpt lat="30.493145955093773" lon="114.42217351691252">
        <ele>49.012823092751205</ele>
        <time>2026-08-31T00:52:37Z</time>
      </trkpt>
      <trkpt lat="30.493063007054484" lon="114.42219945314824">
        <ele>47.67501699179411</ele>
        <time>2026-08-31T00:52:42Z</time>
      </trkpt>
      <trkpt lat="30.492891120607805" lon="114.42208384989304">
        <ele>48.535855397582054</ele>
        <time>2026-08-31T00:52:49Z</time>
      </trkpt>
      <trkpt lat="30.492730785710137" lon="114.42202427591988">
        <ele>48.289772366173565</ele>
        <time>2026-08-31T00:52:57Z</time>
      </trkpt>
      <trkpt lat="30.49257933226784" lon="114.4219332218272">
        <ele>47.59463104326278</ele>
        <time>2026-08-31T00:53:05Z</time>
      </trkpt>
      <trkpt lat="30.492439764267278" lon="114.42182531709713">
        <ele>46.63097107037902</ele>
        <time>2026-08-31T00:53:12Z</time>
      </trkpt>
      <trkpt lat="30.492279789442097" lon="114.42174541477827">
        <ele>45.85626350529492</ele>
        <time>2026-08-31T00:53:20Z</time>
      </trkpt>
      <trkpt lat="30.492031177730478" lon="114.4217154844159">
        <ele>44.74483260046691</ele>
        <time>2026-08-31T00:53:32Z</time>
      </trkpt>
      <trkpt lat="30.491941603024785" lon="114.42167987287823">
        <ele>45.98935345187783</ele>
        <time>2026-08-31T00:53:36Z</time>
      </trkpt>
      <trkpt lat="30.491891012301366" lon="114.42164076530597">
        <ele>44.656078580766916</ele>
        <time>2026-08-31T00:53:40Z</time>
      </trkpt>
      <trkpt lat="30.491799507340822" lon="114.42165019894108">
        <ele>44.16756879724562</ele>
        <time>2026-08-31T00:53:44Z</time>
      </trkpt>
      <trkpt lat="30.491720215727643" lon="114.42159485299857">
        <ele>42.95029872190207</ele>
        <time>2026-08-31T00:53:48Z</time>
      </trkpt>
      <trkpt lat="30.491632269561897" lon="114.42156939744528">
        <ele>42.34540270548314</ele>
        <time>2026-08-31T00:53:52Z</time>
      </trkpt>
      <trkpt lat="30.49151545984894" lon="114.42158270946808">
        <ele>42.66482703015208</ele>
        <time>2026-08-31T00:53:56Z</time>
      </trkpt>
      <trkpt lat="30.491453250402973" lon="114.42151020605105">
        <ele>42.31934064626694</ele>
        <time>2026-08-31T00:54:00Z</time>
      </trkpt>
      <trkpt lat="30.491198345338148" lon="114.42139234374699">
        <ele>41.50103152729571</ele>
        <time>2026-08-31T00:54:12Z</time>
      </trkpt>
      <trkpt lat="30.490991920001353" lon="114.42135882035682">
        <ele>41.687818066217005</ele>
        <time>2026-08-31T00:54:20Z</time>
      </trkpt>
      <trkpt lat="30.490918888255127" lon="114.42130933559038">
        <ele>41.274721001274884</ele>
        <time>2026-08-31T00:54:24Z</time>
      </trkpt>
      <trkpt lat="30.490822761347264" lon="114.42127717750176">
        <ele>41.05844051204622</ele>
        <time>2026-08-31T00:54:28Z</time>
      </trkpt>
      <trkpt lat="30.49059025430139" lon="114.4211183781483">
        <ele>39.34006739966571</ele>
        <time>2026-08-31T00:54:40Z</time>
      </trkpt>
      <trkpt lat="30.49025366995105" lon="114.42100550020321">
        <ele>39.46994460653514</ele>
        <time>2026-08-31T00:54:56Z</time>
      </trkpt>
      <trkpt lat="30.4899046491468" lon="114.42090386401863">
        <ele>38.977899954654276</ele>
        <time>2026-08-31T00:55:12Z</time>
      </trkpt>
      <trkpt lat="30.489754986424245" lon="114.42088627698244">
        <ele>39.87189797312021</ele>
        <time>2026-08-31T00:55:19Z</time>
      </trkpt>
      <trkpt lat="30.4894406357411" lon="114.42080644930853">
        <ele>39.64710067771375</ele>
        <time>2026-08-31T00:55:35Z</time>
      </trkpt>
      <trkpt lat="30.489105398341458" lon="114.42074908699142">
        <ele>39.98395854886621</ele>
        <time>2026-08-31T00:55:51Z</time>
      </trkpt>
      <trkpt lat="30.489034781155485" lon="114.4207319954778">
        <ele>39.598779131658375</ele>
        <time>2026-08-31T00:55:55Z</time>
      </trkpt>
      <trkpt lat="30.488961866526626" lon="114.42074601831332">
        <ele>38.85193842370063</ele>
        <time>2026-08-31T00:55:59Z</time>
      </trkpt>
      <trkpt lat="30.488876017208497" lon="114.42072859862424">
        <ele>39.03237656969577</ele>
        <time>2026-08-31T00:56:03Z</time>
      </trkpt>
      <trkpt lat="30.48870748295864" lon="114.42075005180268">
        <ele>41.026502123102546</ele>
        <time>2026-08-31T00:56:11Z</time>
      </trkpt>
      <trkpt lat="30.48852845083064" lon="114.4207555222872">
        <ele>41.19205979537219</ele>
        <time>2026-08-31T00:56:19Z</time>
      </trkpt>
      <trkpt lat="30.488372509964655" lon="114.4207202409973">
        <ele>40.905861337669194</ele>
        <time>2026-08-31T00:56:27Z</time>
      </trkpt>
      <trkpt lat="30.48829202641228" lon="114.42073020430597">
        <ele>39.58244157768786</ele>
        <time>2026-08-31T00:56:31Z</time>
      </trkpt>
      <trkpt lat="30.488181066340545" lon="114.42086046090844">
        <ele>38.39309679996222</ele>
        <time>2026-08-31T00:56:39Z</time>
      </trkpt>
      <trkpt lat="30.48810022581936" lon="114.4210364503168">
        <ele>40.19437931384891</ele>
        <time>2026-08-31T00:56:47Z</time>
      </trkpt>
      <trkpt lat="30.488054616049386" lon="114.4213370577438">
        <ele>42.848148711025715</ele>
        <time>2026-08-31T00:56:59Z</time>
      </trkpt>
      <trkpt lat="30.488009038169867" lon="114.42142600271502">
        <ele>42.786018767394125</ele>
        <time>2026-08-31T00:57:03Z</time>
      </trkpt>
      <trkpt lat="30.487943045535843" lon="114.42179035759597">
        <ele>44.512792686000466</ele>
        <time>2026-08-31T00:57:18Z</time>
      </trkpt>
      <trkpt lat="30.487883116435395" lon="114.42196743078941">
        <ele>45.141040296293795</ele>
        <time>2026-08-31T00:57:26Z</time>
      </trkpt>
      <trkpt lat="30.487839565728308" lon="114.42237030835132">
        <ele>45.61068809963763</ele>
        <time>2026-08-31T00:57:42Z</time>
      </trkpt>
      <trkpt lat="30.48783772962525" lon="114.42246293095619">
        <ele>47.181085034273565</ele>
        <time>2026-08-31T00:57:46Z</time>
      </trkpt>
      <trkpt lat="30.487788341506214" lon="114.42266001098544">
        <ele>46.244065064005554</ele>
        <time>2026-08-31T00:57:54Z</time>
      </trkpt>
      <trkpt lat="30.487759779105044" lon="114.42296182940231">
        <ele>46.3318199319765</ele>
        <time>2026-08-31T00:58:06Z</time>
      </trkpt>
      <trkpt lat="30.487737362058095" lon="114.42306167225684">
        <ele>46.743184682913125</ele>
        <time>2026-08-31T00:58:10Z</time>
      </trkpt>
      <trkpt lat="30.487630281684954" lon="114.4231951514897">
        <ele>46.32064657844603</ele>
        <time>2026-08-31T00:58:18Z</time>
      </trkpt>
      <trkpt lat="30.487299650343285" lon="114.42328344940262">
        <ele>43.94623184669763</ele>
        <time>2026-08-31T00:58:34Z</time>
      </trkpt>
      <trkpt lat="30.487262559981474" lon="114.42335762382963">
        <ele>43.03378561325371</ele>
        <time>2026-08-31T00:58:38Z</time>
      </trkpt>
      <trkpt lat="30.487248227365335" lon="114.42345743078458">
        <ele>41.469018892385066</ele>
        <time>2026-08-31T00:58:42Z</time>
      </trkpt>
      <trkpt lat="30.487205572565504" lon="114.42355531041004">
        <ele>41.64978395495564</ele>
        <time>2026-08-31T00:58:46Z</time>
      </trkpt>
      <trkpt lat="30.487093294279596" lon="114.42369543486284">
        <ele>41.101020362228155</ele>
        <time>2026-08-31T00:58:54Z</time>
      </trkpt>
      <trkpt lat="30.486925344298147" lon="114.42375111595">
        <ele>39.900268130004406</ele>
        <time>2026-08-31T00:59:02Z</time>
      </trkpt>
      <trkpt lat="30.486758021908848" lon="114.4237846044394">
        <ele>39.71647902112454</ele>
        <time>2026-08-31T00:59:10Z</time>
      </trkpt>
      <trkpt lat="30.486428523109073" lon="114.42380554044375">
        <ele>40.68261970765889</ele>
        <time>2026-08-31T00:59:25Z</time>
      </trkpt>
      <trkpt lat="30.486196301133404" lon="114.42378307992733">
        <ele>39.519767177291214</ele>
        <time>2026-08-31T00:59:36Z</time>
      </trkpt>
      <trkpt lat="30.485877201641117" lon="114.42380478587796">
        <ele>37.99977360479534</ele>
        <time>2026-08-31T00:59:52Z</time>
      </trkpt>
      <trkpt lat="30.485606551215227" lon="114.42381401312726">
        <ele>39.19490654859692</ele>
        <time>2026-08-31T01:00:04Z</time>
      </trkpt>
      <trkpt lat="30.485506130948842" lon="114.42379470606751">
        <ele>38.82077644299716</ele>
        <time>2026-08-31T01:00:08Z</time>
      </trkpt>
      <trkpt lat="30.4854205748901" lon="114.42384629124143">
        <ele>37.43547046557069</ele>
        <time>2026-08-31T01:00:12Z</time>
      </trkpt>
      <trkpt lat="30.485270842522695" lon="114.4239008061615">
        <ele>36.56970527395606</ele>
        <time>2026-08-31T01:00:20Z</time>
      </trkpt>
      <trkpt lat="30.485084255192383" lon="114.42390942823913">
        <ele>37.325221170671284</ele>
        <time>2026-08-31T01:00:28Z</time>
      </trkpt>
      <trkpt lat="30.48503836214259" lon="114.42399435890091">
        <ele>37.43939330149442</ele>
        <time>2026-08-31T01:00:32Z</time>
      </trkpt>
      <trkpt lat="30.485157456522877" lon="114.4239602565314">
        <ele>36.77026908379048</ele>
        <time>2026-08-31T01:00:36Z</time>
      </trkpt>
      <trkpt lat="30.485343710875004" lon="114.42393998193882">
        <ele>38.70380411017686</ele>
        <time>2026-08-31T01:00:44Z</time>
      </trkpt>
      <trkpt lat="30.48568918190053" lon="114.42394777162626">
        <ele>37.209830353967845</ele>
        <time>2026-08-31T01:01:00Z</time>
      </trkpt>
      <trkpt lat="30.486003559332215" lon="114.42394743148905">
        <ele>37.25190398003906</ele>
        <time>2026-08-31T01:01:16Z</time>
      </trkpt>
      <trkpt lat="30.48617139860523" lon="114.42393218306742">
        <ele>38.765582918189466</ele>
        <time>2026-08-31T01:01:24Z</time>
      </trkpt>
      <trkpt lat="30.48648318622235" lon="114.42393486148988">
        <ele>38.88853689096868</ele>
        <time>2026-08-31T01:01:38Z</time>
      </trkpt>
      <trkpt lat="30.486755218606444" lon="114.42392152125959">
        <ele>39.40902266930789</ele>
        <time>2026-08-31T01:01:50Z</time>
      </trkpt>
      <trkpt lat="30.486926092520843" lon="114.42392813696975">
        <ele>40.18826524261385</ele>
        <time>2026-08-31T01:01:58Z</time>
      </trkpt>
      <trkpt lat="30.48727943230389" lon="114.42386769753895">
        <ele>39.56167615856975</ele>
        <time>2026-08-31T01:02:14Z</time>
      </trkpt>
      <trkpt lat="30.48751427837045" lon="114.42374789487205">
        <ele>40.8812962314114</ele>
        <time>2026-08-31T01:02:26Z</time>
      </trkpt>
      <trkpt lat="30.48758372123338" lon="114.42379411252654">
        <ele>41.37986860796809</ele>
        <time>2026-08-31T01:02:30Z</time>
      </trkpt>
      <trkpt lat="30.487905593090257" lon="114.42390889534741">
        <ele>42.608749876730144</ele>
        <time>2026-08-31T01:02:46Z</time>
      </trkpt>
      <trkpt lat="30.48823090760743" lon="114.42400140440004">
        <ele>44.881929103285074</ele>
        <time>2026-08-31T01:03:02Z</time>
      </trkpt>
      <trkpt lat="30.488318694056773" lon="114.4240487088253">
        <ele>39.808229750953615</ele>
        <time>2026-08-31T01:03:06Z</time>
      </trkpt>
      <trkpt lat="30.488618480723364" lon="114.42405874840996">
        <ele>48.08655778784305</ele>
        <time>2026-08-31T01:03:18Z</time>
      </trkpt>
      <trkpt lat="30.488709323724137" lon="114.42406907581572">
        <ele>45.8135977787897</ele>
        <time>2026-08-31T01:03:22Z</time>
      </trkpt>
      <trkpt lat="30.48878643508012" lon="114.42411100740875">
        <ele>42.54562409687787</ele>
        <time>2026-08-31T01:03:26Z</time>
      </trkpt>
      <trkpt lat="30.489113258818634" lon="114.42416192644654">
        <ele>39.448333505541086</ele>
        <time>2026-08-31T01:03:40Z</time>
      </trkpt>
      <trkpt lat="30.489389135073807" lon="114.42422172889333">
        <ele>41.72171279415488</ele>
        <time>2026-08-31T01:03:53Z</time>
      </trkpt>
      <trkpt lat="30.48963703149286" lon="114.42420879919233">
        <ele>40.36181672941893</ele>
        <time>2026-08-31T01:04:05Z</time>
      </trkpt>
      <trkpt lat="30.489804574869932" lon="114.42415048405093">
        <ele>40.45058520510793</ele>
        <time>2026-08-31T01:04:13Z</time>
      </trkpt>
      <trkpt lat="30.489937635019455" lon="114.42404642751153">
        <ele>40.1325773736462</ele>
        <time>2026-08-31T01:04:21Z</time>
      </trkpt>
      <trkpt lat="30.48999616629523" lon="114.42397260011394">
        <ele>40.05623500235379</ele>
        <time>2026-08-31T01:04:25Z</time>
      </trkpt>
      <trkpt lat="30.490309260463444" lon="114.42410315149804">
        <ele>39.47909149993211</ele>
        <time>2026-08-31T01:04:41Z</time>
      </trkpt>
      <trkpt lat="30.490529678340064" lon="114.42421614420084">
        <ele>39.71131010260433</ele>
        <time>2026-08-31T01:04:53Z</time>
      </trkpt>
      <trkpt lat="30.490624669231416" lon="114.42423474890722">
        <ele>40.43528937641531</ele>
        <time>2026-08-31T01:04:57Z</time>
      </trkpt>
      <trkpt lat="30.490692263855" lon="114.42428910842463">
        <ele>40.087359584867954</ele>
        <time>2026-08-31T01:05:01Z</time>
      </trkpt>
      <trkpt lat="30.49101834756279" lon="114.42444634880178">
        <ele>40.42302376125008</ele>
        <time>2026-08-31T01:05:17Z</time>
      </trkpt>
      <trkpt lat="30.491184825551073" lon="114.42452616258335">
        <ele>40.583099651150405</ele>
        <time>2026-08-31T01:05:25Z</time>
      </trkpt>
      <trkpt lat="30.491271198498467" lon="114.42455066703674">
        <ele>39.89675042498857</ele>
        <time>2026-08-31T01:05:29Z</time>
      </trkpt>
      <trkpt lat="30.49134076732658" lon="114.42459775348523">
        <ele>40.97499374486506</ele>
        <time>2026-08-31T01:05:33Z</time>
      </trkpt>
      <trkpt lat="30.491647621898622" lon="114.42473608466405">
        <ele>42.3423873083666</ele>
        <time>2026-08-31T01:05:48Z</time>
      </trkpt>
      <trkpt lat="30.491969152000884" lon="114.42490236551403">
        <ele>42.922862249426544</ele>
        <time>2026-08-31T01:06:04Z</time>
      </trkpt>
      <trkpt lat="30.49223305923346" lon="114.42500748210884">
        <ele>42.586672932840884</ele>
        <time>2026-08-31T01:06:16Z</time>
      </trkpt>
      <trkpt lat="30.4922818817693" lon="114.42505158368834">
        <ele>42.61861271131784</ele>
        <time>2026-08-31T01:06:20Z</time>
      </trkpt>
      <trkpt lat="30.492461420274925" lon="114.42510514242302">
        <ele>42.40001158043742</ele>
        <time>2026-08-31T01:06:28Z</time>
      </trkpt>
      <trkpt lat="30.49275053135975" lon="114.42527028039554">
        <ele>45.40936071705073</ele>
        <time>2026-08-31T01:06:44Z</time>
      </trkpt>
      <trkpt lat="30.493065187683396" lon="114.42540449204508">
        <ele>43.1392078101635</ele>
        <time>2026-08-31T01:07:00Z</time>
      </trkpt>
      <trkpt lat="30.493368219551996" lon="114.42555942929967">
        <ele>47.3153036236763</ele>
        <time>2026-08-31T01:07:16Z</time>
      </trkpt>
      <trkpt lat="30.49368306219314" lon="114.42569425731033">
        <ele>47.812217431142926</ele>
        <time>2026-08-31T01:07:32Z</time>
      </trkpt>
      <trkpt lat="30.49376297694971" lon="114.42569854837012">
        <ele>47.50621880684048</ele>
        <time>2026-08-31T01:07:36Z</time>
      </trkpt>
      <trkpt lat="30.49381539015001" lon="114.42564761537672">
        <ele>47.020386066287756</ele>
        <time>2026-08-31T01:07:40Z</time>
      </trkpt>
      <trkpt lat="30.493864170935858" lon="114.42556715047613">
        <ele>45.83559390809387</ele>
        <time>2026-08-31T01:07:44Z</time>
      </trkpt>
      <trkpt lat="30.493876482203063" lon="114.42545839794649">
        <ele>46.40259380545467</ele>
        <time>2026-08-31T01:07:48Z</time>
      </trkpt>
      <trkpt lat="30.49401383681838" lon="114.4251026714333">
        <ele>47.455337135121226</ele>
        <time>2026-08-31T01:08:05Z</time>
      </trkpt>
      <trkpt lat="30.494153855488456" lon="114.42472430363803">
        <ele>47.49840195197612</ele>
        <time>2026-08-31T01:08:21Z</time>
      </trkpt>
      <trkpt lat="30.494299199814563" lon="114.42437390628855">
        <ele>50.178009297698736</ele>
        <time>2026-08-31T01:08:37Z</time>
      </trkpt>
      <trkpt lat="30.494440233731314" lon="114.42400150355496">
        <ele>48.76827335264534</ele>
        <time>2026-08-31T01:08:53Z</time>
      </trkpt>
      <trkpt lat="30.494576684293488" lon="114.42362204361862">
        <ele>50.210877472534776</ele>
        <time>2026-08-31T01:09:09Z</time>
      </trkpt>
      <trkpt lat="30.49465914697049" lon="114.4233983354887">
        <ele>49.65463187266141</ele>
        <time>2026-08-31T01:09:21Z</time>
      </trkpt>
      <trkpt lat="30.494705681077907" lon="114.423317028332">
        <ele>49.68016874883324</ele>
        <time>2026-08-31T01:09:25Z</time>
      </trkpt>
      <trkpt lat="30.494769873648135" lon="114.42314512066235">
        <ele>49.07174292393029</ele>
        <time>2026-08-31T01:09:33Z</time>
      </trkpt>
      <trkpt lat="30.494737139342895" lon="114.42295261328319">
        <ele>48.86969530489296</ele>
        <time>2026-08-31T01:09:41Z</time>
      </trkpt>
      <trkpt lat="30.494482924627196" lon="114.42283364582875">
        <ele>48.86676594335586</ele>
        <time>2026-08-31T01:09:53Z</time>
      </trkpt>
      <trkpt lat="30.49443824843634" lon="114.42278314692796">
        <ele>49.417699886485934</ele>
        <time>2026-08-31T01:09:56Z</time>
      </trkpt>
      <trkpt lat="30.494224811712556" lon="114.42271927554027">
        <ele>48.832335534505546</ele>
        <time>2026-08-31T01:10:07Z</time>
      </trkpt>
      <trkpt lat="30.494038565132367" lon="114.42263505738062">
        <ele>49.78346801456064</ele>
        <time>2026-08-31T01:10:15Z</time>
      </trkpt>
      <trkpt lat="30.493957825056814" lon="114.42257550152523">
        <ele>49.60285431612283</ele>
        <time>2026-08-31T01:10:19Z</time>
      </trkpt>
      <trkpt lat="30.49386852718707" lon="114.42256250973401">
        <ele>48.683749629184604</ele>
        <time>2026-08-31T01:10:23Z</time>
      </trkpt>
      <trkpt lat="30.493794275293077" lon="114.42247945117161">
        <ele>48.7482695588842</ele>
        <time>2026-08-31T01:10:27Z</time>
      </trkpt>
      <trkpt lat="30.493700684035318" lon="114.42245291158265">
        <ele>48.709334838204086</ele>
        <time>2026-08-31T01:10:31Z</time>
      </trkpt>
      <trkpt lat="30.493449674980397" lon="114.4223059669881">
        <ele>49.39084853976965</ele>
        <time>2026-08-31T01:10:43Z</time>
      </trkpt>
      <trkpt lat="30.493267125670574" lon="114.4222152665185">
        <ele>48.27879990078509</ele>
        <time>2026-08-31T01:10:51Z</time>
      </trkpt>
      <trkpt lat="30.493085265123874" lon="114.42219579697885">
        <ele>48.78060510288924</ele>
        <time>2026-08-31T01:10:59Z</time>
      </trkpt>
      <trkpt lat="30.492936002518046" lon="114.42225138782572">
        <ele>48.57059950847179</ele>
        <time>2026-08-31T01:11:07Z</time>
      </trkpt>
      <trkpt lat="30.49293275294637" lon="114.4221686194464">
        <ele>47.65190870128572</ele>
        <time>2026-08-31T01:11:11Z</time>
      </trkpt>
      <trkpt lat="30.492889718613483" lon="114.42213948490937">
        <ele>47.72926244046539</ele>
        <time>2026-08-31T01:11:15Z</time>
      </trkpt>
      <trkpt lat="30.492797854142868" lon="114.4221487672736">
        <ele>47.69853369239718</ele>
        <time>2026-08-31T01:11:19Z</time>
      </trkpt>
      <trkpt lat="30.492655154258323" lon="114.42202521698277">
        <ele>46.81848963070661</ele>
        <time>2026-08-31T01:11:27Z</time>
      </trkpt>
      <trkpt lat="30.492599918240863" lon="114.42195025148891">
        <ele>47.05980568844825</ele>
        <time>2026-08-31T01:11:31Z</time>
      </trkpt>
      <trkpt lat="30.49243756615634" lon="114.42183517084011">
        <ele>46.907185341231525</ele>
        <time>2026-08-31T01:11:39Z</time>
      </trkpt>
      <trkpt lat="30.492164275202732" lon="114.42172919841092">
        <ele>45.463979489170015</ele>
        <time>2026-08-31T01:11:51Z</time>
      </trkpt>
      <trkpt lat="30.491926430906837" lon="114.42161597621757">
        <ele>43.718735955655575</ele>
        <time>2026-08-31T01:12:02Z</time>
      </trkpt>
      <trkpt lat="30.49186576154119" lon="114.421568372464">
        <ele>44.423584532924</ele>
        <time>2026-08-31T01:12:05Z</time>
      </trkpt>
      <trkpt lat="30.491777482155396" lon="114.42154166363315">
        <ele>43.9194074049592</ele>
        <time>2026-08-31T01:12:09Z</time>
      </trkpt>
      <trkpt lat="30.491660716212127" lon="114.42147024689257">
        <ele>42.65646380651742</ele>
        <time>2026-08-31T01:12:13Z</time>
      </trkpt>
      <trkpt lat="30.491404366627336" lon="114.42135539610278">
        <ele>42.12881487980485</ele>
        <time>2026-08-31T01:12:25Z</time>
      </trkpt>
      <trkpt lat="30.491217938207498" lon="114.42129724284815">
        <ele>40.63272314425558</ele>
        <time>2026-08-31T01:12:33Z</time>
      </trkpt>
      <trkpt lat="30.49112533882627" lon="114.4213071848851">
        <ele>41.841683686710894</ele>
        <time>2026-08-31T01:12:37Z</time>
      </trkpt>
      <trkpt lat="30.491046515882413" lon="114.42133951160021">
        <ele>40.020000180229545</ele>
        <time>2026-08-31T01:12:41Z</time>
      </trkpt>
      <trkpt lat="30.490954141002316" lon="114.42134557917522">
        <ele>39.920938392169774</ele>
        <time>2026-08-31T01:12:45Z</time>
      </trkpt>
      <trkpt lat="30.490768719644894" lon="114.4212947328624">
        <ele>40.611598622985184</ele>
        <time>2026-08-31T01:12:53Z</time>
      </trkpt>
      <trkpt lat="30.490717853469388" lon="114.42122306381086">
        <ele>39.58060380909592</ele>
        <time>2026-08-31T01:12:57Z</time>
      </trkpt>
      <trkpt lat="30.490647651925396" lon="114.4211609538689">
        <ele>39.318459837697446</ele>
        <time>2026-08-31T01:13:01Z</time>
      </trkpt>
      <trkpt lat="30.49048636990743" lon="114.42108302001392">
        <ele>38.78919040597975</ele>
        <time>2026-08-31T01:13:09Z</time>
      </trkpt>
      <trkpt lat="30.490212377932934" lon="114.42102115832128">
        <ele>40.35160182695836</ele>
        <time>2026-08-31T01:13:21Z</time>
      </trkpt>
      <trkpt lat="30.489940429820745" lon="114.42094126751249">
        <ele>39.44444012828171</ele>
        <time>2026-08-31T01:13:33Z</time>
      </trkpt>
      <trkpt lat="30.489588503832866" lon="114.42084273105674">
        <ele>38.46186172403395</ele>
        <time>2026-08-31T01:13:49Z</time>
      </trkpt>
      <trkpt lat="30.48932096130552" lon="114.42078278310714">
        <ele>39.08058624435216</ele>
        <time>2026-08-31T01:14:01Z</time>
      </trkpt>
      <trkpt lat="30.489235529668647" lon="114.42076074147516">
        <ele>39.24619773030281</ele>
        <time>2026-08-31T01:14:05Z</time>
      </trkpt>
      <trkpt lat="30.48919122717266" lon="114.42079149583583">
        <ele>40.064936871640384</ele>
        <time>2026-08-31T01:14:36Z</time>
      </trkpt>
      <trkpt lat="30.489002243539957" lon="114.42076304403247">
        <ele>39.925273668020964</ele>
        <time>2026-08-31T01:15:04Z</time>
      </trkpt>
      <trkpt lat="30.488713754795338" lon="114.42076308990016">
        <ele>40.392098172567785</ele>
        <time>2026-08-31T01:15:16Z</time>
      </trkpt>
      <trkpt lat="30.488405903175817" lon="114.42073528461863">
        <ele>40.30665886308998</ele>
        <time>2026-08-31T01:15:28Z</time>
      </trkpt>
      <trkpt lat="30.48822493759275" lon="114.4207595196886">
        <ele>39.73716213833541</ele>
        <time>2026-08-31T01:15:36Z</time>
      </trkpt>
      <trkpt lat="30.4881523747057" lon="114.4208123424435">
        <ele>38.95716283097863</ele>
        <time>2026-08-31T01:15:40Z</time>
      </trkpt>
      <trkpt lat="30.488104950151506" lon="114.42090606716245">
        <ele>39.47258527111262</ele>
        <time>2026-08-31T01:15:44Z</time>
      </trkpt>
      <trkpt lat="30.488066985904283" lon="114.42111450971079">
        <ele>39.94081074651331</ele>
        <time>2026-08-31T01:15:52Z</time>
      </trkpt>
      <trkpt lat="30.48806030967264" lon="114.42123109264547">
        <ele>42.55899647157639</ele>
        <time>2026-08-31T01:15:56Z</time>
      </trkpt>
      <trkpt lat="30.488034062182567" lon="114.42134463125963">
        <ele>41.47870725952089</ele>
        <time>2026-08-31T01:16:00Z</time>
      </trkpt>
      <trkpt lat="30.487979248561874" lon="114.4214518286052">
        <ele>44.36707932129502</ele>
        <time>2026-08-31T01:16:04Z</time>
      </trkpt>
      <trkpt lat="30.48797643076387" lon="114.42156605098033">
        <ele>46.274787680245936</ele>
        <time>2026-08-31T01:16:08Z</time>
      </trkpt>
      <trkpt lat="30.48790544257839" lon="114.42187348054746">
        <ele>47.41266596131027</ele>
        <time>2026-08-31T01:16:21Z</time>
      </trkpt>
      <trkpt lat="30.487831573552683" lon="114.42227244271191">
        <ele>47.37468494847417</ele>
        <time>2026-08-31T01:16:36Z</time>
      </trkpt>
      <trkpt lat="30.487796413136806" lon="114.42268124474911">
        <ele>47.43138774577528</ele>
        <time>2026-08-31T01:16:52Z</time>
      </trkpt>
      <trkpt lat="30.487755657014837" lon="114.4229317567187">
        <ele>46.45970779657364</ele>
        <time>2026-08-31T01:17:04Z</time>
      </trkpt>
      <trkpt lat="30.487755657014837" lon="114.4229317567187">
        <ele>46.45970779657364</ele>
        <time>2026-08-31T01:17:06Z</time>
      </trkpt>
    </trkseg>
  </trk>
</gpx>