<?xml version="1.0" encoding="UTF-8"?>
<gpx xmlns="http://www.topografix.com/GPX/1/1" xmlns:gpxtpx="http://www.garmin.com/xmlschemas/TrackPointExtension/v1" xmlns:xsi="http://www.w3.org/2001/XMLSchema-instance" xsi:schemaLocation="http://www.topografix.com/GPX/1/1 http://www.topografix.com/GPX/1/1/gpx.xsd" version="1.1" creator="gpx.py -- https://github.com/tkrajina/gpxpy">
  <trk>
    <name>gpx from keep</name>
    <type>Run</type>
    <trkseg>
      <trkpt lat="30.66686550339019" lon="114.34050160376572">
        <ele>27.7093448638916</ele>
        <time>2026-08-19T11:30:30Z</time>
      </trkpt>
      <trkpt lat="30.666805372507227" lon="114.34057115528117">
        <ele>29.093561657704413</ele>
        <time>2026-08-19T11:30:34Z</time>
      </trkpt>
      <trkpt lat="30.66673894895402" lon="114.34057729039395">
        <ele>28.714411093853414</ele>
        <time>2026-08-19T11:30:38Z</time>
      </trkpt>
      <trkpt lat="30.666732011500024" lon="114.34077362194208">
        <ele>27.21685269009322</ele>
        <time>2026-08-19T11:30:44Z</time>
      </trkpt>
      <trkpt lat="30.666704764888944" lon="114.34085308943548">
        <ele>29.012812163680792</ele>
        <time>2026-08-19T11:30:47Z</time>
      </trkpt>
      <trkpt lat="30.666669461550324" lon="114.34090270994183">
        <ele>25.62380451336503</ele>
        <time>2026-08-19T11:30:50Z</time>
      </trkpt>
      <trkpt lat="30.666632147587297" lon="114.34103503898285">
        <ele>27.257915147580206</ele>
        <time>2026-08-19T11:30:56Z</time>
      </trkpt>
      <trkpt lat="30.66663072925375" lon="114.34111162718483">
        <ele>27.879155025817454</ele>
        <time>2026-08-19T11:30:59Z</time>
      </trkpt>
      <trkpt lat="30.66656286117569" lon="114.34129700521584">
        <ele>27.838564203120768</ele>
        <time>2026-08-19T11:31:08Z</time>
      </trkpt>
      <trkpt lat="30.666523898162968" lon="114.3413568843762">
        <ele>29.115580468438566</ele>
        <time>2026-08-19T11:31:11Z</time>
      </trkpt>
      <trkpt lat="30.666468467077642" lon="114.34137709811235">
        <ele>28.99642328545451</ele>
        <time>2026-08-19T11:31:14Z</time>
      </trkpt>
      <trkpt lat="30.666346172986263" lon="114.34134640281705">
        <ele>28.111085112206638</ele>
        <time>2026-08-19T11:31:20Z</time>
      </trkpt>
      <trkpt lat="30.666239949767565" lon="114.34127091983687">
        <ele>27.57664416730404</ele>
        <time>2026-08-19T11:31:26Z</time>
      </trkpt>
      <trkpt lat="30.66594926189918" lon="114.34117681322869">
        <ele>28.462291829288006</ele>
        <time>2026-08-19T11:31:41Z</time>
      </trkpt>
      <trkpt lat="30.665766262469386" lon="114.34113830764232">
        <ele>28.952278618700802</ele>
        <time>2026-08-19T11:31:50Z</time>
      </trkpt>
      <trkpt lat="30.6657032101918" lon="114.34110873590056">
        <ele>28.79977695364505</ele>
        <time>2026-08-19T11:31:53Z</time>
      </trkpt>
      <trkpt lat="30.665631220042144" lon="114.340915066362">
        <ele>27.996337140910327</ele>
        <time>2026-08-19T11:32:02Z</time>
      </trkpt>
      <trkpt lat="30.665561199289854" lon="114.34064759427982">
        <ele>27.425140355713665</ele>
        <time>2026-08-19T11:32:14Z</time>
      </trkpt>
      <trkpt lat="30.66556309400387" lon="114.34051440151376">
        <ele>27.61708088684827</ele>
        <time>2026-08-19T11:32:20Z</time>
      </trkpt>
      <trkpt lat="30.66550006528591" lon="114.34032702248992">
        <ele>27.422237971797585</ele>
        <time>2026-08-19T11:32:29Z</time>
      </trkpt>
      <trkpt lat="30.665513594243574" lon="114.3401707058838">
        <ele>26.748713347129524</ele>
        <time>2026-08-19T11:32:37Z</time>
      </trkpt>
      <trkpt lat="30.665473252871923" lon="114.34008282245848">
        <ele>27.911025590263307</ele>
        <time>2026-08-19T11:32:41Z</time>
      </trkpt>
      <trkpt lat="30.665448323212573" lon="114.33998326848585">
        <ele>27.56840479467064</ele>
        <time>2026-08-19T11:32:45Z</time>
      </trkpt>
      <trkpt lat="30.66534180938551" lon="114.33972347170547">
        <ele>28.97990652732551</ele>
        <time>2026-08-19T11:32:57Z</time>
      </trkpt>
      <trkpt lat="30.665299171094976" lon="114.33947655469598">
        <ele>28.64355869218707</ele>
        <time>2026-08-19T11:33:08Z</time>
      </trkpt>
      <trkpt lat="30.665221453326005" lon="114.3392759529005">
        <ele>29.37785000912845</ele>
        <time>2026-08-19T11:33:20Z</time>
      </trkpt>
      <trkpt lat="30.665161959420907" lon="114.33900839674864">
        <ele>29.69076106045395</ele>
        <time>2026-08-19T11:33:32Z</time>
      </trkpt>
      <trkpt lat="30.665088903739054" lon="114.33880130026192">
        <ele>28.036350612528622</ele>
        <time>2026-08-19T11:33:41Z</time>
      </trkpt>
      <trkpt lat="30.665044905724862" lon="114.33873757223165">
        <ele>28.942066996358335</ele>
        <time>2026-08-19T11:33:44Z</time>
      </trkpt>
      <trkpt lat="30.665023972559343" lon="114.33865429758058">
        <ele>27.865260841324925</ele>
        <time>2026-08-19T11:33:47Z</time>
      </trkpt>
      <trkpt lat="30.664943140335133" lon="114.3385582362144">
        <ele>27.463115059770644</ele>
        <time>2026-08-19T11:33:53Z</time>
      </trkpt>
      <trkpt lat="30.66481360957016" lon="114.33851429020915">
        <ele>26.77352106012404</ele>
        <time>2026-08-19T11:33:59Z</time>
      </trkpt>
      <trkpt lat="30.664550205449483" lon="114.33859236787944">
        <ele>27.749438282102346</ele>
        <time>2026-08-19T11:34:14Z</time>
      </trkpt>
      <trkpt lat="30.66443105885054" lon="114.33865484146372">
        <ele>28.47368352022022</ele>
        <time>2026-08-19T11:34:20Z</time>
      </trkpt>
      <trkpt lat="30.664157863702737" lon="114.33873634927204">
        <ele>28.362352448515594</ele>
        <time>2026-08-19T11:34:35Z</time>
      </trkpt>
      <trkpt lat="30.664038434567306" lon="114.33882829122597">
        <ele>27.187641464173794</ele>
        <time>2026-08-19T11:34:42Z</time>
      </trkpt>
      <trkpt lat="30.664123316012628" lon="114.33910117735815">
        <ele>27.678509327583015</ele>
        <time>2026-08-19T11:34:54Z</time>
      </trkpt>
      <trkpt lat="30.664193714848587" lon="114.33943339649868">
        <ele>27.55283107701689</ele>
        <time>2026-08-19T11:35:10Z</time>
      </trkpt>
      <trkpt lat="30.664294178770387" lon="114.3397845651182">
        <ele>26.139511241577566</ele>
        <time>2026-08-19T11:35:26Z</time>
      </trkpt>
      <trkpt lat="30.664394935510558" lon="114.34001640385014">
        <ele>28.018893259577453</ele>
        <time>2026-08-19T11:35:38Z</time>
      </trkpt>
      <trkpt lat="30.66436803070556" lon="114.34008027270794">
        <ele>27.415457404218614</ele>
        <time>2026-08-19T11:35:42Z</time>
      </trkpt>
      <trkpt lat="30.664225369363034" lon="114.34023615039405">
        <ele>28.08776413463056</ele>
        <time>2026-08-19T11:35:50Z</time>
      </trkpt>
      <trkpt lat="30.66414618077562" lon="114.34028448399526">
        <ele>29.115781740285456</ele>
        <time>2026-08-19T11:35:54Z</time>
      </trkpt>
      <trkpt lat="30.664020541068652" lon="114.34031103673388">
        <ele>30.110322694294155</ele>
        <time>2026-08-19T11:36:02Z</time>
      </trkpt>
      <trkpt lat="30.66395177338123" lon="114.34036096655963">
        <ele>29.6096772858873</ele>
        <time>2026-08-19T11:36:06Z</time>
      </trkpt>
      <trkpt lat="30.66379541986817" lon="114.34036778684022">
        <ele>28.68431773222983</ele>
        <time>2026-08-19T11:36:14Z</time>
      </trkpt>
      <trkpt lat="30.66373661972684" lon="114.34039583455612">
        <ele>28.079803600907326</ele>
        <time>2026-08-19T11:36:18Z</time>
      </trkpt>
      <trkpt lat="30.66363510623102" lon="114.34039803923316">
        <ele>28.105367751792073</ele>
        <time>2026-08-19T11:36:22Z</time>
      </trkpt>
      <trkpt lat="30.663486761974944" lon="114.34057702048759">
        <ele>28.216640542261302</ele>
        <time>2026-08-19T11:36:34Z</time>
      </trkpt>
      <trkpt lat="30.663483936201242" lon="114.34066090199633">
        <ele>27.10602316260338</ele>
        <time>2026-08-19T11:36:38Z</time>
      </trkpt>
      <trkpt lat="30.663563345691976" lon="114.34081629398767">
        <ele>26.804033970460296</ele>
        <time>2026-08-19T11:36:46Z</time>
      </trkpt>
      <trkpt lat="30.66380462138518" lon="114.34110591085181">
        <ele>27.76275752019137</ele>
        <time>2026-08-19T11:37:02Z</time>
      </trkpt>
      <trkpt lat="30.66385247012342" lon="114.34123589402265">
        <ele>28.791387321427464</ele>
        <time>2026-08-19T11:37:10Z</time>
      </trkpt>
      <trkpt lat="30.663876386917597" lon="114.3414786187507">
        <ele>29.257152680307627</ele>
        <time>2026-08-19T11:37:26Z</time>
      </trkpt>
      <trkpt lat="30.663937792841573" lon="114.3415265243426">
        <ele>28.297470116987824</ele>
        <time>2026-08-19T11:37:34Z</time>
      </trkpt>
      <trkpt lat="30.6642229204723" lon="114.34156339753106">
        <ele>29.08868493605405</ele>
        <time>2026-08-19T11:37:50Z</time>
      </trkpt>
      <trkpt lat="30.664506687666915" lon="114.34160321899049">
        <ele>31.54643097985536</ele>
        <time>2026-08-19T11:38:02Z</time>
      </trkpt>
      <trkpt lat="30.66471046808233" lon="114.34174873523968">
        <ele>31.993077429942787</ele>
        <time>2026-08-19T11:38:14Z</time>
      </trkpt>
      <trkpt lat="30.664862016617967" lon="114.34182003697654">
        <ele>30.307174275629222</ele>
        <time>2026-08-19T11:38:22Z</time>
      </trkpt>
      <trkpt lat="30.664978035210947" lon="114.34194314356124">
        <ele>29.97700671199709</ele>
        <time>2026-08-19T11:38:30Z</time>
      </trkpt>
      <trkpt lat="30.665051612245897" lon="114.3419700623747">
        <ele>29.17757629416883</ele>
        <time>2026-08-19T11:38:34Z</time>
      </trkpt>
      <trkpt lat="30.6651158332236" lon="114.34195217668304">
        <ele>30.978772336617112</ele>
        <time>2026-08-19T11:38:42Z</time>
      </trkpt>
      <trkpt lat="30.665159350481986" lon="114.3420215174628">
        <ele>30.571815089322627</ele>
        <time>2026-08-19T11:38:46Z</time>
      </trkpt>
      <trkpt lat="30.665244888995367" lon="114.34204833918183">
        <ele>30.651328935287893</ele>
        <time>2026-08-19T11:38:53Z</time>
      </trkpt>
      <trkpt lat="30.66535879747198" lon="114.34202925220433">
        <ele>31.119964253157377</ele>
        <time>2026-08-19T11:39:01Z</time>
      </trkpt>
      <trkpt lat="30.66550292785109" lon="114.34209922635424">
        <ele>31.367370357736945</ele>
        <time>2026-08-19T11:39:13Z</time>
      </trkpt>
      <trkpt lat="30.66555696596277" lon="114.34209641972117">
        <ele>30.388692659325898</ele>
        <time>2026-08-19T11:39:17Z</time>
      </trkpt>
      <trkpt lat="30.665731908037564" lon="114.34218784623135">
        <ele>30.107858867384493</ele>
        <time>2026-08-19T11:39:33Z</time>
      </trkpt>
      <trkpt lat="30.66582275915875" lon="114.34220902583915">
        <ele>29.388277050107718</ele>
        <time>2026-08-19T11:39:41Z</time>
      </trkpt>
      <trkpt lat="30.665904564794968" lon="114.34219559398865">
        <ele>30.38419131655246</ele>
        <time>2026-08-19T11:39:49Z</time>
      </trkpt>
      <trkpt lat="30.665935886790056" lon="114.34214267071894">
        <ele>29.709273933432996</ele>
        <time>2026-08-19T11:39:53Z</time>
      </trkpt>
      <trkpt lat="30.66599715749799" lon="114.34174934927889">
        <ele>28.325616099871695</ele>
        <time>2026-08-19T11:40:21Z</time>
      </trkpt>
      <trkpt lat="30.666012965030568" lon="114.34169257295079">
        <ele>27.831101201474667</ele>
        <time>2026-08-19T11:40:25Z</time>
      </trkpt>
      <trkpt lat="30.666092941511945" lon="114.34154560188854">
        <ele>29.388661012984812</ele>
        <time>2026-08-19T11:40:37Z</time>
      </trkpt>
      <trkpt lat="30.666345798688365" lon="114.34147063483171">
        <ele>28.127241998910904</ele>
        <time>2026-08-19T11:40:57Z</time>
      </trkpt>
      <trkpt lat="30.666489702957442" lon="114.34139510687938">
        <ele>28.771466380916536</ele>
        <time>2026-08-19T11:41:09Z</time>
      </trkpt>
    </trkseg>
  </trk>
</gpx>