<?xml version="1.0" encoding="UTF-8"?>
<gpx xmlns="http://www.topografix.com/GPX/1/1" xmlns:gpxtpx="http://www.garmin.com/xmlschemas/TrackPointExtension/v1" xmlns:xsi="http://www.w3.org/2001/XMLSchema-instance" xsi:schemaLocation="http://www.topografix.com/GPX/1/1 http://www.topografix.com/GPX/1/1/gpx.xsd" version="1.1" creator="gpx.py -- https://github.com/tkrajina/gpxpy">
  <trk>
    <name>gpx from keep</name>
    <type>Run</type>
    <trkseg>
      <trkpt lat="30.665376325539476" lon="114.55671737795434">
        <ele>0.0</ele>
        <time>2021-05-23T00:05:21Z</time>
      </trkpt>
      <trkpt lat="30.665447408769985" lon="114.55679052353119">
        <ele>0.0</ele>
        <time>2021-05-23T00:05:25Z</time>
      </trkpt>
      <trkpt lat="30.66553144343341" lon="114.55683661185698">
        <ele>0.0</ele>
        <time>2021-05-23T00:05:29Z</time>
      </trkpt>
      <trkpt lat="30.6656082984697" lon="114.55676646032802">
        <ele>0.0</ele>
        <time>2021-05-23T00:05:32Z</time>
      </trkpt>
      <trkpt lat="30.665682157810405" lon="114.55669831296512">
        <ele>0.0</ele>
        <time>2021-05-23T00:05:35Z</time>
      </trkpt>
      <trkpt lat="30.665767024665293" lon="114.55663818110767">
        <ele>0.0</ele>
        <time>2021-05-23T00:05:39Z</time>
      </trkpt>
      <trkpt lat="30.665867855624914" lon="114.5565600102215">
        <ele>0.0</ele>
        <time>2021-05-23T00:05:43Z</time>
      </trkpt>
      <trkpt lat="30.665968695859117" lon="114.55648785156819">
        <ele>0.0</ele>
        <time>2021-05-23T00:05:47Z</time>
      </trkpt>
      <trkpt lat="30.666050550797863" lon="114.55641970261256">
        <ele>0.0</ele>
        <time>2021-05-23T00:05:51Z</time>
      </trkpt>
      <trkpt lat="30.666138418778413" lon="114.55636157387752">
        <ele>0.0</ele>
        <time>2021-05-23T00:05:55Z</time>
      </trkpt>
      <trkpt lat="30.666230292792584" lon="114.55630845513029">
        <ele>0.0</ele>
        <time>2021-05-23T00:05:59Z</time>
      </trkpt>
      <trkpt lat="30.66631415590532" lon="114.55624631801425">
        <ele>0.0</ele>
        <time>2021-05-23T00:06:03Z</time>
      </trkpt>
      <trkpt lat="30.666402037862078" lon="114.55619720771307">
        <ele>0.0</ele>
        <time>2021-05-23T00:06:07Z</time>
      </trkpt>
      <trkpt lat="30.66648390478897" lon="114.55613707463867">
        <ele>0.0</ele>
        <time>2021-05-23T00:06:11Z</time>
      </trkpt>
      <trkpt lat="30.666578791382655" lon="114.55609297403126">
        <ele>0.0</ele>
        <time>2021-05-23T00:06:15Z</time>
      </trkpt>
      <trkpt lat="30.66666366472497" lon="114.55603785095391">
        <ele>0.0</ele>
        <time>2021-05-23T00:06:19Z</time>
      </trkpt>
      <trkpt lat="30.666746537230562" lon="114.55598172578297">
        <ele>0.0</ele>
        <time>2021-05-23T00:06:23Z</time>
      </trkpt>
      <trkpt lat="30.666826396449796" lon="114.55591658166641">
        <ele>0.0</ele>
        <time>2021-05-23T00:06:27Z</time>
      </trkpt>
      <trkpt lat="30.66690927189596" lon="114.55586246040295">
        <ele>0.0</ele>
        <time>2021-05-23T00:06:31Z</time>
      </trkpt>
      <trkpt lat="30.667001160933378" lon="114.55581936157888">
        <ele>0.0</ele>
        <time>2021-05-23T00:06:35Z</time>
      </trkpt>
      <trkpt lat="30.66708604010524" lon="114.55576824626374">
        <ele>0.0</ele>
        <time>2021-05-23T00:06:39Z</time>
      </trkpt>
      <trkpt lat="30.66716992123656" lon="114.5557181330312">
        <ele>0.0</ele>
        <time>2021-05-23T00:06:43Z</time>
      </trkpt>
      <trkpt lat="30.667254809918468" lon="114.55567303023392">
        <ele>0.0</ele>
        <time>2021-05-23T00:06:47Z</time>
      </trkpt>
      <trkpt lat="30.66733869733974" lon="114.55562692529143">
        <ele>0.0</ele>
        <time>2021-05-23T00:06:51Z</time>
      </trkpt>
      <trkpt lat="30.667422594421893" lon="114.55558683303958">
        <ele>0.0</ele>
        <time>2021-05-23T00:06:55Z</time>
      </trkpt>
      <trkpt lat="30.667504485828196" lon="114.55554273234024">
        <ele>0.0</ele>
        <time>2021-05-23T00:06:59Z</time>
      </trkpt>
      <trkpt lat="30.66759933543028" lon="114.55547658345058">
        <ele>0.0</ele>
        <time>2021-05-23T00:07:04Z</time>
      </trkpt>
      <trkpt lat="30.667699197279347" lon="114.55541945319624">
        <ele>0.0</ele>
        <time>2021-05-23T00:07:09Z</time>
      </trkpt>
      <trkpt lat="30.667794054709745" lon="114.55535831462915">
        <ele>0.0</ele>
        <time>2021-05-23T00:07:14Z</time>
      </trkpt>
      <trkpt lat="30.667887933712436" lon="114.55531020386042">
        <ele>0.0</ele>
        <time>2021-05-23T00:07:19Z</time>
      </trkpt>
      <trkpt lat="30.66798278757976" lon="114.55524706067406">
        <ele>0.0</ele>
        <time>2021-05-23T00:07:24Z</time>
      </trkpt>
      <trkpt lat="30.668064675059888" lon="114.55520095494981">
        <ele>0.0</ele>
        <time>2021-05-23T00:07:28Z</time>
      </trkpt>
      <trkpt lat="30.66814556290087" lon="114.55515484920655">
        <ele>0.0</ele>
        <time>2021-05-23T00:07:32Z</time>
      </trkpt>
      <trkpt lat="30.668238417256525" lon="114.55509170571429">
        <ele>0.0</ele>
        <time>2021-05-23T00:07:37Z</time>
      </trkpt>
      <trkpt lat="30.66833028837417" lon="114.55503858370179">
        <ele>0.0</ele>
        <time>2021-05-23T00:07:42Z</time>
      </trkpt>
      <trkpt lat="30.6683102743527" lon="114.55502455514542">
        <ele>0.0</ele>
        <time>2021-05-23T00:07:49Z</time>
      </trkpt>
      <trkpt lat="30.668391155248916" lon="114.55497444036426">
        <ele>0.0</ele>
        <time>2021-05-23T00:07:53Z</time>
      </trkpt>
      <trkpt lat="30.668468019672435" lon="114.55491330198812">
        <ele>0.0</ele>
        <time>2021-05-23T00:07:57Z</time>
      </trkpt>
      <trkpt lat="30.668566890531856" lon="114.55486218327005">
        <ele>0.0</ele>
        <time>2021-05-23T00:08:02Z</time>
      </trkpt>
      <trkpt lat="30.668671776783285" lon="114.55482208778778">
        <ele>0.0</ele>
        <time>2021-05-23T00:08:07Z</time>
      </trkpt>
      <trkpt lat="30.668762632816346" lon="114.55475994562401">
        <ele>0.0</ele>
        <time>2021-05-23T00:08:12Z</time>
      </trkpt>
      <trkpt lat="30.668857508469188" lon="114.55471083121188">
        <ele>0.0</ele>
        <time>2021-05-23T00:08:17Z</time>
      </trkpt>
      <trkpt lat="30.66895138280776" lon="114.55466071459064">
        <ele>0.0</ele>
        <time>2021-05-23T00:08:22Z</time>
      </trkpt>
      <trkpt lat="30.669040260967957" lon="114.55461160044523">
        <ele>0.0</ele>
        <time>2021-05-23T00:08:27Z</time>
      </trkpt>
      <trkpt lat="30.669139126159617" lon="114.55455747444174">
        <ele>0.0</ele>
        <time>2021-05-23T00:08:32Z</time>
      </trkpt>
      <trkpt lat="30.669226996210533" lon="114.55450334921571">
        <ele>0.0</ele>
        <time>2021-05-23T00:08:37Z</time>
      </trkpt>
      <trkpt lat="30.669314859452086" lon="114.55444521510131">
        <ele>0.0</ele>
        <time>2021-05-23T00:08:42Z</time>
      </trkpt>
      <trkpt lat="30.66940673914755" lon="114.55439810457729">
        <ele>0.0</ele>
        <time>2021-05-23T00:08:47Z</time>
      </trkpt>
      <trkpt lat="30.669500602761605" lon="114.5543419740536">
        <ele>0.0</ele>
        <time>2021-05-23T00:08:52Z</time>
      </trkpt>
      <trkpt lat="30.669597463203857" lon="114.5542848409341">
        <ele>0.0</ele>
        <time>2021-05-23T00:08:57Z</time>
      </trkpt>
      <trkpt lat="30.669681361319842" lon="114.5542467504877">
        <ele>0.0</ele>
        <time>2021-05-23T00:09:01Z</time>
      </trkpt>
      <trkpt lat="30.66977420988954" lon="114.55418159984566">
        <ele>0.0</ele>
        <time>2021-05-23T00:09:06Z</time>
      </trkpt>
      <trkpt lat="30.66987007208119" lon="114.55412546857423">
        <ele>0.0</ele>
        <time>2021-05-23T00:09:11Z</time>
      </trkpt>
      <trkpt lat="30.669966957292637" lon="114.5540833679356">
        <ele>0.0</ele>
        <time>2021-05-23T00:09:16Z</time>
      </trkpt>
      <trkpt lat="30.670063822171016" lon="114.55402924073167">
        <ele>0.0</ele>
        <time>2021-05-23T00:09:21Z</time>
      </trkpt>
      <trkpt lat="30.670147714796183" lon="114.55398814319362">
        <ele>0.0</ele>
        <time>2021-05-23T00:09:26Z</time>
      </trkpt>
      <trkpt lat="30.67023558692422" lon="114.553936020918">
        <ele>0.0</ele>
        <time>2021-05-23T00:09:31Z</time>
      </trkpt>
      <trkpt lat="30.6703194675292" lon="114.55388790770219">
        <ele>0.0</ele>
        <time>2021-05-23T00:09:36Z</time>
      </trkpt>
      <trkpt lat="30.670411332531977" lon="114.55383277819489">
        <ele>0.0</ele>
        <time>2021-05-23T00:09:41Z</time>
      </trkpt>
      <trkpt lat="30.67049921280759" lon="114.55378566662733">
        <ele>0.0</ele>
        <time>2021-05-23T00:09:46Z</time>
      </trkpt>
      <trkpt lat="30.670594091507844" lon="114.55373955659076">
        <ele>0.0</ele>
        <time>2021-05-23T00:09:52Z</time>
      </trkpt>
      <trkpt lat="30.670675945389327" lon="114.5536754075159">
        <ele>0.0</ele>
        <time>2021-05-23T00:09:57Z</time>
      </trkpt>
      <trkpt lat="30.670763810011827" lon="114.55361927555865">
        <ele>0.0</ele>
        <time>2021-05-23T00:10:02Z</time>
      </trkpt>
      <trkpt lat="30.67084767632078" lon="114.5535631437856">
        <ele>0.0</ele>
        <time>2021-05-23T00:10:07Z</time>
      </trkpt>
      <trkpt lat="30.67092955366082" lon="114.55351302542039">
        <ele>0.0</ele>
        <time>2021-05-23T00:10:12Z</time>
      </trkpt>
      <trkpt lat="30.671019422125838" lon="114.55345989956604">
        <ele>0.0</ele>
        <time>2021-05-23T00:10:19Z</time>
      </trkpt>
      <trkpt lat="30.671102295368264" lon="114.55340777639873">
        <ele>0.0</ele>
        <time>2021-05-23T00:10:25Z</time>
      </trkpt>
      <trkpt lat="30.671179162650777" lon="114.55335064240744">
        <ele>0.0</ele>
        <time>2021-05-23T00:10:30Z</time>
      </trkpt>
      <trkpt lat="30.671261027524544" lon="114.55329350784416">
        <ele>0.0</ele>
        <time>2021-05-23T00:10:35Z</time>
      </trkpt>
      <trkpt lat="30.671347891708287" lon="114.55323737495362">
        <ele>0.0</ele>
        <time>2021-05-23T00:10:40Z</time>
      </trkpt>
      <trkpt lat="30.671438759106316" lon="114.55318424832188">
        <ele>0.0</ele>
        <time>2021-05-23T00:10:45Z</time>
      </trkpt>
      <trkpt lat="30.67152363945887" lon="114.55313713555496">
        <ele>0.0</ele>
        <time>2021-05-23T00:10:50Z</time>
      </trkpt>
      <trkpt lat="30.671603513365454" lon="114.5530850118415">
        <ele>0.0</ele>
        <time>2021-05-23T00:10:55Z</time>
      </trkpt>
      <trkpt lat="30.671688398703946" lon="114.55304090561573">
        <ele>0.0</ele>
        <time>2021-05-23T00:11:00Z</time>
      </trkpt>
      <trkpt lat="30.671786303973857" lon="114.5530118320486">
        <ele>0.0</ele>
        <time>2021-05-23T00:11:06Z</time>
      </trkpt>
      <trkpt lat="30.671877181248274" lon="114.55296471839675">
        <ele>0.0</ele>
        <time>2021-05-23T00:11:12Z</time>
      </trkpt>
      <trkpt lat="30.671973028428457" lon="114.55290156805937">
        <ele>0.0</ele>
        <time>2021-05-23T00:11:18Z</time>
      </trkpt>
      <trkpt lat="30.672061889044503" lon="114.55284443169882">
        <ele>0.0</ele>
        <time>2021-05-23T00:11:24Z</time>
      </trkpt>
      <trkpt lat="30.672156776322836" lon="114.55280433319821">
        <ele>0.0</ele>
        <time>2021-05-23T00:11:30Z</time>
      </trkpt>
      <trkpt lat="30.672235643002224" lon="114.55274819967846">
        <ele>0.0</ele>
        <time>2021-05-23T00:11:35Z</time>
      </trkpt>
      <trkpt lat="30.672323507191585" lon="114.5526930675293">
        <ele>0.0</ele>
        <time>2021-05-23T00:11:40Z</time>
      </trkpt>
      <trkpt lat="30.67240438839142" lon="114.55264595400418">
        <ele>0.0</ele>
        <time>2021-05-23T00:11:45Z</time>
      </trkpt>
      <trkpt lat="30.67249027070864" lon="114.55260084450673">
        <ele>0.0</ele>
        <time>2021-05-23T00:11:50Z</time>
      </trkpt>
      <trkpt lat="30.672575149902322" lon="114.55255373044314">
        <ele>0.0</ele>
        <time>2021-05-23T00:11:55Z</time>
      </trkpt>
      <trkpt lat="30.672672009540356" lon="114.55249859703798">
        <ele>0.0</ele>
        <time>2021-05-23T00:12:01Z</time>
      </trkpt>
      <trkpt lat="30.67275788807566" lon="114.5524514826644">
        <ele>0.0</ele>
        <time>2021-05-23T00:12:06Z</time>
      </trkpt>
      <trkpt lat="30.672842754704813" lon="114.55239735228072">
        <ele>0.0</ele>
        <time>2021-05-23T00:12:11Z</time>
      </trkpt>
      <trkpt lat="30.672926623424164" lon="114.55234422412987">
        <ele>0.0</ele>
        <time>2021-05-23T00:12:16Z</time>
      </trkpt>
      <trkpt lat="30.673022490064692" lon="114.55229309942312">
        <ele>0.0</ele>
        <time>2021-05-23T00:12:22Z</time>
      </trkpt>
      <trkpt lat="30.673103345849878" lon="114.55223195292747">
        <ele>0.0</ele>
        <time>2021-05-23T00:12:27Z</time>
      </trkpt>
      <trkpt lat="30.673191182430227" lon="114.55216178501529">
        <ele>0.0</ele>
        <time>2021-05-23T00:12:32Z</time>
      </trkpt>
      <trkpt lat="30.673272037889454" lon="114.55210063814354">
        <ele>0.0</ele>
        <time>2021-05-23T00:12:37Z</time>
      </trkpt>
      <trkpt lat="30.673357883845785" lon="114.55203548147432">
        <ele>0.0</ele>
        <time>2021-05-23T00:12:42Z</time>
      </trkpt>
      <trkpt lat="30.673444755713096" lon="114.55198535908353">
        <ele>0.0</ele>
        <time>2021-05-23T00:12:47Z</time>
      </trkpt>
      <trkpt lat="30.67352761336248" lon="114.5519262161532">
        <ele>0.0</ele>
        <time>2021-05-23T00:12:52Z</time>
      </trkpt>
      <trkpt lat="30.67362147648543" lon="114.55187308599524">
        <ele>0.0</ele>
        <time>2021-05-23T00:12:57Z</time>
      </trkpt>
      <trkpt lat="30.67371633725837" lon="114.55181895331044">
        <ele>0.0</ele>
        <time>2021-05-23T00:13:03Z</time>
      </trkpt>
      <trkpt lat="30.67381320055069" lon="114.55176682494974">
        <ele>0.0</ele>
        <time>2021-05-23T00:13:09Z</time>
      </trkpt>
      <trkpt lat="30.673910092198135" lon="114.5517307335176">
        <ele>0.0</ele>
        <time>2021-05-23T00:13:15Z</time>
      </trkpt>
      <trkpt lat="30.67400298205479" lon="114.55169263772412">
        <ele>0.0</ele>
        <time>2021-05-23T00:13:21Z</time>
      </trkpt>
      <trkpt lat="30.674099852197063" lon="114.55164451833501">
        <ele>0.0</ele>
        <time>2021-05-23T00:13:27Z</time>
      </trkpt>
      <trkpt lat="30.674181720179543" lon="114.55159138848096">
        <ele>0.0</ele>
        <time>2021-05-23T00:13:32Z</time>
      </trkpt>
      <trkpt lat="30.67425958451641" lon="114.55153525185564">
        <ele>0.0</ele>
        <time>2021-05-23T00:13:37Z</time>
      </trkpt>
      <trkpt lat="30.67434044735328" lon="114.5514791148331">
        <ele>0.0</ele>
        <time>2021-05-23T00:13:42Z</time>
      </trkpt>
      <trkpt lat="30.674423325264563" lon="114.55143199846452">
        <ele>0.0</ele>
        <time>2021-05-23T00:13:47Z</time>
      </trkpt>
      <trkpt lat="30.674503202664127" lon="114.55138387991157">
        <ele>0.0</ele>
        <time>2021-05-23T00:13:52Z</time>
      </trkpt>
      <trkpt lat="30.674589073633648" lon="114.55133375608176">
        <ele>0.0</ele>
        <time>2021-05-23T00:13:57Z</time>
      </trkpt>
      <trkpt lat="30.674669936008904" lon="114.55127761853352">
        <ele>0.0</ele>
        <time>2021-05-23T00:14:02Z</time>
      </trkpt>
      <trkpt lat="30.6747638192833" lon="114.55123651483753">
        <ele>0.0</ele>
        <time>2021-05-23T00:14:07Z</time>
      </trkpt>
      <trkpt lat="30.674845689978902" lon="114.55118538865796">
        <ele>0.0</ele>
        <time>2021-05-23T00:14:12Z</time>
      </trkpt>
      <trkpt lat="30.67493954245574" lon="114.55112724495007">
        <ele>0.0</ele>
        <time>2021-05-23T00:14:18Z</time>
      </trkpt>
      <trkpt lat="30.6750344087731" lon="114.55107711977155">
        <ele>0.0</ele>
        <time>2021-05-23T00:14:24Z</time>
      </trkpt>
      <trkpt lat="30.675128275443836" lon="114.55102699456017">
        <ele>0.0</ele>
        <time>2021-05-23T00:14:30Z</time>
      </trkpt>
      <trkpt lat="30.675225146060317" lon="114.55097987603358">
        <ele>0.0</ele>
        <time>2021-05-23T00:14:36Z</time>
      </trkpt>
      <trkpt lat="30.67532001387952" lon="114.55093075286581">
        <ele>0.0</ele>
        <time>2021-05-23T00:14:42Z</time>
      </trkpt>
      <trkpt lat="30.675412882514685" lon="114.55088162975348">
        <ele>0.0</ele>
        <time>2021-05-23T00:14:48Z</time>
      </trkpt>
      <trkpt lat="30.675504747879977" lon="114.55083050189833">
        <ele>0.0</ele>
        <time>2021-05-23T00:14:54Z</time>
      </trkpt>
      <trkpt lat="30.675591633587675" lon="114.55078939793583">
        <ele>0.0</ele>
        <time>2021-05-23T00:14:59Z</time>
      </trkpt>
      <trkpt lat="30.675688500099547" lon="114.5507402741684">
        <ele>0.0</ele>
        <time>2021-05-23T00:15:05Z</time>
      </trkpt>
      <trkpt lat="30.675782376982998" lon="114.55069616235902">
        <ele>0.0</ele>
        <time>2021-05-23T00:15:11Z</time>
      </trkpt>
      <trkpt lat="30.675880257411748" lon="114.55065505722249">
        <ele>0.0</ele>
        <time>2021-05-23T00:15:17Z</time>
      </trkpt>
      <trkpt lat="30.675978125009898" lon="114.55060693543469">
        <ele>0.0</ele>
        <time>2021-05-23T00:15:23Z</time>
      </trkpt>
      <trkpt lat="30.676075990686417" lon="114.55055781117008">
        <ele>0.0</ele>
        <time>2021-05-23T00:15:29Z</time>
      </trkpt>
      <trkpt lat="30.676163869983505" lon="114.55051369949079">
        <ele>0.0</ele>
        <time>2021-05-23T00:15:34Z</time>
      </trkpt>
      <trkpt lat="30.676249766567317" lon="114.55047860925409">
        <ele>0.0</ele>
        <time>2021-05-23T00:15:39Z</time>
      </trkpt>
      <trkpt lat="30.676347635638187" lon="114.5504314894509">
        <ele>0.0</ele>
        <time>2021-05-23T00:15:45Z</time>
      </trkpt>
      <trkpt lat="30.67644251148689" lon="114.5503873769301">
        <ele>0.0</ele>
        <time>2021-05-23T00:15:51Z</time>
      </trkpt>
      <trkpt lat="30.6765404042017" lon="114.5503532878661">
        <ele>0.0</ele>
        <time>2021-05-23T00:15:57Z</time>
      </trkpt>
      <trkpt lat="30.67663428953223" lon="114.55031418717707">
        <ele>0.0</ele>
        <time>2021-05-23T00:16:03Z</time>
      </trkpt>
      <trkpt lat="30.676728178467577" lon="114.55027709118379">
        <ele>0.0</ele>
        <time>2021-05-23T00:16:09Z</time>
      </trkpt>
      <trkpt lat="30.676814078365698" lon="114.55024400533411">
        <ele>0.0</ele>
        <time>2021-05-23T00:16:14Z</time>
      </trkpt>
      <trkpt lat="30.676901988323273" lon="114.55021693358226">
        <ele>0.0</ele>
        <time>2021-05-23T00:16:19Z</time>
      </trkpt>
      <trkpt lat="30.676991886294132" lon="114.55018384730683">
        <ele>0.0</ele>
        <time>2021-05-23T00:16:24Z</time>
      </trkpt>
      <trkpt lat="30.677078792956053" lon="114.55015477078658">
        <ele>0.0</ele>
        <time>2021-05-23T00:16:29Z</time>
      </trkpt>
      <trkpt lat="30.67716970694552" lon="114.55013070584234">
        <ele>0.0</ele>
        <time>2021-05-23T00:16:34Z</time>
      </trkpt>
      <trkpt lat="30.677257592810253" lon="114.55009060286326">
        <ele>0.0</ele>
        <time>2021-05-23T00:16:39Z</time>
      </trkpt>
      <trkpt lat="30.677345498889313" lon="114.55006152613494">
        <ele>0.0</ele>
        <time>2021-05-23T00:16:44Z</time>
      </trkpt>
      <trkpt lat="30.677445382805104" lon="114.55002342681516">
        <ele>0.0</ele>
        <time>2021-05-23T00:16:50Z</time>
      </trkpt>
      <trkpt lat="30.677550280974014" lon="114.54999434857652">
        <ele>0.0</ele>
        <time>2021-05-23T00:16:56Z</time>
      </trkpt>
      <trkpt lat="30.677639190159145" lon="114.54996727643073">
        <ele>0.0</ele>
        <time>2021-05-23T00:17:02Z</time>
      </trkpt>
      <trkpt lat="30.677726236898028" lon="114.55001438177815">
        <ele>0.0</ele>
        <time>2021-05-23T00:17:11Z</time>
      </trkpt>
      <trkpt lat="30.677780368766374" lon="114.55009958067889">
        <ele>0.0</ele>
        <time>2021-05-23T00:17:17Z</time>
      </trkpt>
      <trkpt lat="30.677801454840658" lon="114.55015170320144">
        <ele>0.0</ele>
        <time>2021-05-23T00:17:26Z</time>
      </trkpt>
      <trkpt lat="30.677808646459816" lon="114.55025795556605">
        <ele>0.0</ele>
        <time>2021-05-23T00:17:34Z</time>
      </trkpt>
      <trkpt lat="30.677757862511545" lon="114.55036320988079">
        <ele>0.0</ele>
        <time>2021-05-23T00:17:41Z</time>
      </trkpt>
      <trkpt lat="30.67765999550847" lon="114.55041133221046">
        <ele>0.0</ele>
        <time>2021-05-23T00:17:46Z</time>
      </trkpt>
      <trkpt lat="30.677552122039028" lon="114.55045344102072">
        <ele>0.0</ele>
        <time>2021-05-23T00:17:51Z</time>
      </trkpt>
      <trkpt lat="30.677445229760508" lon="114.55048552593408">
        <ele>0.0</ele>
        <time>2021-05-23T00:17:56Z</time>
      </trkpt>
      <trkpt lat="30.677338328302056" lon="114.55051259893976">
        <ele>0.0</ele>
        <time>2021-05-23T00:18:01Z</time>
      </trkpt>
      <trkpt lat="30.67723141767932" lon="114.55053466005656">
        <ele>0.0</ele>
        <time>2021-05-23T00:18:07Z</time>
      </trkpt>
      <trkpt lat="30.677143516536663" lon="114.55056674326207">
        <ele>0.0</ele>
        <time>2021-05-23T00:18:12Z</time>
      </trkpt>
      <trkpt lat="30.677056629470673" lon="114.5506068452804">
        <ele>0.0</ele>
        <time>2021-05-23T00:18:17Z</time>
      </trkpt>
      <trkpt lat="30.67696375602016" lon="114.55065296192073">
        <ele>0.0</ele>
        <time>2021-05-23T00:18:22Z</time>
      </trkpt>
      <trkpt lat="30.676869879301886" lon="114.55069707381934">
        <ele>0.0</ele>
        <time>2021-05-23T00:18:27Z</time>
      </trkpt>
      <trkpt lat="30.676785002000866" lon="114.55074318959926">
        <ele>0.0</ele>
        <time>2021-05-23T00:18:32Z</time>
      </trkpt>
      <trkpt lat="30.67668513513401" lon="114.5507913112529">
        <ele>0.0</ele>
        <time>2021-05-23T00:18:38Z</time>
      </trkpt>
      <trkpt lat="30.67659524362384" lon="114.5508284060337">
        <ele>0.0</ele>
        <time>2021-05-23T00:18:43Z</time>
      </trkpt>
      <trkpt lat="30.67649435529288" lon="114.55086449931406">
        <ele>0.0</ele>
        <time>2021-05-23T00:18:49Z</time>
      </trkpt>
      <trkpt lat="30.676393463280544" lon="114.5508985878256">
        <ele>0.0</ele>
        <time>2021-05-23T00:18:55Z</time>
      </trkpt>
      <trkpt lat="30.676297579779074" lon="114.55093868998114">
        <ele>0.0</ele>
        <time>2021-05-23T00:19:01Z</time>
      </trkpt>
      <trkpt lat="30.67619868311754" lon="114.55097077350665">
        <ele>0.0</ele>
        <time>2021-05-23T00:19:07Z</time>
      </trkpt>
      <trkpt lat="30.676114801209405" lon="114.55101488392165">
        <ele>0.0</ele>
        <time>2021-05-23T00:19:12Z</time>
      </trkpt>
      <trkpt lat="30.676026915639977" lon="114.55105598753991">
        <ele>0.0</ele>
        <time>2021-05-23T00:19:18Z</time>
      </trkpt>
      <trkpt lat="30.675923046356964" lon="114.55110210414148">
        <ele>0.0</ele>
        <time>2021-05-23T00:19:25Z</time>
      </trkpt>
      <trkpt lat="30.67583315975028" lon="114.55114220541766">
        <ele>0.0</ele>
        <time>2021-05-23T00:19:31Z</time>
      </trkpt>
      <trkpt lat="30.67573729562787" lon="114.55119333287028">
        <ele>0.0</ele>
        <time>2021-05-23T00:19:37Z</time>
      </trkpt>
      <trkpt lat="30.675652406572894" lon="114.55123343355908">
        <ele>0.0</ele>
        <time>2021-05-23T00:19:42Z</time>
      </trkpt>
      <trkpt lat="30.675557541796838" lon="114.55128456071174">
        <ele>0.0</ele>
        <time>2021-05-23T00:19:48Z</time>
      </trkpt>
      <trkpt lat="30.675463687219175" lon="114.55134170166276">
        <ele>0.0</ele>
        <time>2021-05-23T00:19:54Z</time>
      </trkpt>
      <trkpt lat="30.675381812670963" lon="114.55139082280962">
        <ele>0.0</ele>
        <time>2021-05-23T00:20:00Z</time>
      </trkpt>
      <trkpt lat="30.675294933153047" lon="114.55143593494496">
        <ele>0.0</ele>
        <time>2021-05-23T00:20:05Z</time>
      </trkpt>
      <trkpt lat="30.6752020670305" lon="114.55148706144949">
        <ele>0.0</ele>
        <time>2021-05-23T00:20:11Z</time>
      </trkpt>
      <trkpt lat="30.6751041977299" lon="114.55153518127607">
        <ele>0.0</ele>
        <time>2021-05-23T00:20:17Z</time>
      </trkpt>
      <trkpt lat="30.675008336338507" lon="114.5515883124396">
        <ele>0.0</ele>
        <time>2021-05-23T00:20:23Z</time>
      </trkpt>
      <trkpt lat="30.67491549127863" lon="114.55165146641649">
        <ele>0.0</ele>
        <time>2021-05-23T00:20:29Z</time>
      </trkpt>
      <trkpt lat="30.67483062103513" lon="114.5517025917397">
        <ele>0.0</ele>
        <time>2021-05-23T00:20:34Z</time>
      </trkpt>
      <trkpt lat="30.674740772529347" lon="114.55176474281568">
        <ele>0.0</ele>
        <time>2021-05-23T00:20:40Z</time>
      </trkpt>
      <trkpt lat="30.67464490885819" lon="114.55181687109915">
        <ele>0.0</ele>
        <time>2021-05-23T00:20:46Z</time>
      </trkpt>
      <trkpt lat="30.674562024934247" lon="114.55186097969536">
        <ele>0.0</ele>
        <time>2021-05-23T00:20:51Z</time>
      </trkpt>
      <trkpt lat="30.67446515973873" lon="114.55191210552098">
        <ele>0.0</ele>
        <time>2021-05-23T00:20:57Z</time>
      </trkpt>
      <trkpt lat="30.674376287233628" lon="114.55196122594676">
        <ele>0.0</ele>
        <time>2021-05-23T00:21:03Z</time>
      </trkpt>
      <trkpt lat="30.67428540139684" lon="114.55200232800503">
        <ele>0.0</ele>
        <time>2021-05-23T00:21:09Z</time>
      </trkpt>
      <trkpt lat="30.674198524257605" lon="114.55204944345523">
        <ele>0.0</ele>
        <time>2021-05-23T00:21:14Z</time>
      </trkpt>
      <trkpt lat="30.674108653690865" lon="114.55209956594733">
        <ele>0.0</ele>
        <time>2021-05-23T00:21:20Z</time>
      </trkpt>
      <trkpt lat="30.674022761799552" lon="114.55213866272898">
        <ele>0.0</ele>
        <time>2021-05-23T00:21:25Z</time>
      </trkpt>
      <trkpt lat="30.67393090428521" lon="114.55219580123664">
        <ele>0.0</ele>
        <time>2021-05-23T00:21:31Z</time>
      </trkpt>
      <trkpt lat="30.67384903327243" lon="114.5522479272999">
        <ele>0.0</ele>
        <time>2021-05-23T00:21:36Z</time>
      </trkpt>
      <trkpt lat="30.673763167488715" lon="114.55230205814763">
        <ele>0.0</ele>
        <time>2021-05-23T00:21:42Z</time>
      </trkpt>
      <trkpt lat="30.67368430189449" lon="114.55235819284589">
        <ele>0.0</ele>
        <time>2021-05-23T00:21:47Z</time>
      </trkpt>
      <trkpt lat="30.673597432817072" lon="114.55241031892966">
        <ele>0.0</ele>
        <time>2021-05-23T00:21:53Z</time>
      </trkpt>
      <trkpt lat="30.673502572531422" lon="114.55246545239757">
        <ele>0.0</ele>
        <time>2021-05-23T00:21:59Z</time>
      </trkpt>
      <trkpt lat="30.67342369781965" lon="114.55251657527201">
        <ele>0.0</ele>
        <time>2021-05-23T00:22:04Z</time>
      </trkpt>
      <trkpt lat="30.673329828103046" lon="114.5525666969997">
        <ele>0.0</ele>
        <time>2021-05-23T00:22:10Z</time>
      </trkpt>
      <trkpt lat="30.673235967000824" lon="114.55262182997882">
        <ele>0.0</ele>
        <time>2021-05-23T00:22:16Z</time>
      </trkpt>
      <trkpt lat="30.67315007250316" lon="114.55265992352972">
        <ele>0.0</ele>
        <time>2021-05-23T00:22:21Z</time>
      </trkpt>
      <trkpt lat="30.6730511838752" lon="114.55269801809769">
        <ele>0.0</ele>
        <time>2021-05-23T00:22:27Z</time>
      </trkpt>
      <trkpt lat="30.672962327139647" lon="114.55275715938848">
        <ele>0.0</ele>
        <time>2021-05-23T00:22:33Z</time>
      </trkpt>
      <trkpt lat="30.672879474467287" lon="114.55282030907166">
        <ele>0.0</ele>
        <time>2021-05-23T00:22:39Z</time>
      </trkpt>
      <trkpt lat="30.67279659041941" lon="114.55286541785307">
        <ele>0.0</ele>
        <time>2021-05-23T00:22:44Z</time>
      </trkpt>
      <trkpt lat="30.67269972479805" lon="114.55291754352739">
        <ele>0.0</ele>
        <time>2021-05-23T00:22:51Z</time>
      </trkpt>
      <trkpt lat="30.672615868704266" lon="114.55297868830262">
        <ele>0.0</ele>
        <time>2021-05-23T00:22:57Z</time>
      </trkpt>
      <trkpt lat="30.672518992467424" lon="114.55302480017042">
        <ele>0.0</ele>
        <time>2021-05-23T00:23:03Z</time>
      </trkpt>
      <trkpt lat="30.672427125942274" lon="114.55307792728726">
        <ele>0.0</ele>
        <time>2021-05-23T00:23:09Z</time>
      </trkpt>
      <trkpt lat="30.672344244852503" lon="114.55312504002005">
        <ele>0.0</ele>
        <time>2021-05-23T00:23:14Z</time>
      </trkpt>
      <trkpt lat="30.672248386813898" lon="114.55318217620871">
        <ele>0.0</ele>
        <time>2021-05-23T00:23:20Z</time>
      </trkpt>
      <trkpt lat="30.67214747931136" lon="114.55320924530056">
        <ele>0.0</ele>
        <time>2021-05-23T00:23:26Z</time>
      </trkpt>
      <trkpt lat="30.67205563986357" lon="114.5532784078441">
        <ele>0.0</ele>
        <time>2021-05-23T00:23:32Z</time>
      </trkpt>
      <trkpt lat="30.67197477633857" lon="114.5533365446058">
        <ele>0.0</ele>
        <time>2021-05-23T00:23:37Z</time>
      </trkpt>
      <trkpt lat="30.67189291826958" lon="114.55339768800239">
        <ele>0.0</ele>
        <time>2021-05-23T00:23:42Z</time>
      </trkpt>
      <trkpt lat="30.671812054458645" lon="114.5534558244355">
        <ele>0.0</ele>
        <time>2021-05-23T00:23:47Z</time>
      </trkpt>
      <trkpt lat="30.67171319699425" lon="114.55351295997924">
        <ele>0.0</ele>
        <time>2021-05-23T00:23:53Z</time>
      </trkpt>
      <trkpt lat="30.671626287841796" lon="114.55354303416854">
        <ele>0.0</ele>
        <time>2021-05-23T00:23:58Z</time>
      </trkpt>
      <trkpt lat="30.671535378761227" lon="114.55357210641992">
        <ele>0.0</ele>
        <time>2021-05-23T00:24:03Z</time>
      </trkpt>
      <trkpt lat="30.671453513274507" lon="114.55362924022916">
        <ele>0.0</ele>
        <time>2021-05-23T00:24:08Z</time>
      </trkpt>
      <trkpt lat="30.67136566569679" lon="114.55369539439256">
        <ele>0.0</ele>
        <time>2021-05-23T00:24:14Z</time>
      </trkpt>
      <trkpt lat="30.671287816787068" lon="114.55376355195281">
        <ele>0.0</ele>
        <time>2021-05-23T00:24:19Z</time>
      </trkpt>
      <trkpt lat="30.671201979805538" lon="114.55383672104153">
        <ele>0.0</ele>
        <time>2021-05-23T00:24:25Z</time>
      </trkpt>
      <trkpt lat="30.67111610704537" lon="114.55388884339777">
        <ele>0.0</ele>
        <time>2021-05-23T00:24:31Z</time>
      </trkpt>
      <trkpt lat="30.671032226494532" lon="114.55393695661233">
        <ele>0.0</ele>
        <time>2021-05-23T00:24:36Z</time>
      </trkpt>
      <trkpt lat="30.67094833570556" lon="114.55397905646093">
        <ele>0.0</ele>
        <time>2021-05-23T00:24:41Z</time>
      </trkpt>
      <trkpt lat="30.67084746100886" lon="114.55402616868024">
        <ele>0.0</ele>
        <time>2021-05-23T00:24:47Z</time>
      </trkpt>
      <trkpt lat="30.670750552349485" lon="114.55405423855768">
        <ele>0.0</ele>
        <time>2021-05-23T00:24:53Z</time>
      </trkpt>
      <trkpt lat="30.670666700097822" lon="114.55411938884588">
        <ele>0.0</ele>
        <time>2021-05-23T00:24:59Z</time>
      </trkpt>
      <trkpt lat="30.670585858080045" lon="114.55419155407724">
        <ele>0.0</ele>
        <time>2021-05-23T00:25:05Z</time>
      </trkpt>
      <trkpt lat="30.67049597123713" lon="114.55423465611221">
        <ele>0.0</ele>
        <time>2021-05-23T00:25:11Z</time>
      </trkpt>
      <trkpt lat="30.67041309791354" lon="114.55428777942329">
        <ele>0.0</ele>
        <time>2021-05-23T00:25:16Z</time>
      </trkpt>
      <trkpt lat="30.670322191230635" lon="114.55431885502878">
        <ele>0.0</ele>
        <time>2021-05-23T00:25:23Z</time>
      </trkpt>
      <trkpt lat="30.670227318140938" lon="114.55436897255524">
        <ele>0.0</ele>
        <time>2021-05-23T00:25:29Z</time>
      </trkpt>
      <trkpt lat="30.670137461068368" lon="114.55443011361346">
        <ele>0.0</ele>
        <time>2021-05-23T00:25:35Z</time>
      </trkpt>
      <trkpt lat="30.670049581223502" lon="114.55447822591793">
        <ele>0.0</ele>
        <time>2021-05-23T00:25:41Z</time>
      </trkpt>
      <trkpt lat="30.669977720704328" lon="114.554542371702">
        <ele>0.0</ele>
        <time>2021-05-23T00:25:46Z</time>
      </trkpt>
      <trkpt lat="30.669897855320468" lon="114.55460150705899">
        <ele>0.0</ele>
        <time>2021-05-23T00:25:51Z</time>
      </trkpt>
      <trkpt lat="30.66982098177849" lon="114.55465663329056">
        <ele>0.0</ele>
        <time>2021-05-23T00:25:56Z</time>
      </trkpt>
      <trkpt lat="30.669734107663256" lon="114.55470875368759">
        <ele>0.0</ele>
        <time>2021-05-23T00:26:02Z</time>
      </trkpt>
      <trkpt lat="30.66963824083171" lon="114.55476287904905">
        <ele>0.0</ele>
        <time>2021-05-23T00:26:08Z</time>
      </trkpt>
      <trkpt lat="30.669551349913032" lon="114.55480497748422">
        <ele>0.0</ele>
        <time>2021-05-23T00:26:14Z</time>
      </trkpt>
      <trkpt lat="30.669459476079446" lon="114.55485609575986">
        <ele>0.0</ele>
        <time>2021-05-23T00:26:20Z</time>
      </trkpt>
      <trkpt lat="30.669360598694986" lon="114.55490320583387">
        <ele>0.0</ele>
        <time>2021-05-23T00:26:27Z</time>
      </trkpt>
      <trkpt lat="30.66927171007619" lon="114.55494630631502">
        <ele>0.0</ele>
        <time>2021-05-23T00:26:32Z</time>
      </trkpt>
      <trkpt lat="30.669182856007243" lon="114.5550104520765">
        <ele>0.0</ele>
        <time>2021-05-23T00:26:38Z</time>
      </trkpt>
      <trkpt lat="30.669115002127285" lon="114.55508060882833">
        <ele>0.0</ele>
        <time>2021-05-23T00:26:43Z</time>
      </trkpt>
      <trkpt lat="30.669026132908584" lon="114.55513573479203">
        <ele>0.0</ele>
        <time>2021-05-23T00:26:49Z</time>
      </trkpt>
      <trkpt lat="30.668934258353598" lon="114.55518685225421">
        <ele>0.0</ele>
        <time>2021-05-23T00:26:55Z</time>
      </trkpt>
      <trkpt lat="30.668840381312744" lon="114.55523596545925">
        <ele>0.0</ele>
        <time>2021-05-23T00:27:01Z</time>
      </trkpt>
      <trkpt lat="30.66874847214016" lon="114.55526603758494">
        <ele>0.0</ele>
        <time>2021-05-23T00:27:07Z</time>
      </trkpt>
      <trkpt lat="30.668656594022274" lon="114.55531515043553">
        <ele>0.0</ele>
        <time>2021-05-23T00:27:13Z</time>
      </trkpt>
      <trkpt lat="30.668569746216264" lon="114.55538430560054">
        <ele>0.0</ele>
        <time>2021-05-23T00:27:19Z</time>
      </trkpt>
      <trkpt lat="30.66848986241933" lon="114.55543341716975">
        <ele>0.0</ele>
        <time>2021-05-23T00:27:24Z</time>
      </trkpt>
      <trkpt lat="30.66841101716544" lon="114.555506579817">
        <ele>0.0</ele>
        <time>2021-05-23T00:27:30Z</time>
      </trkpt>
      <trkpt lat="30.66830810609734" lon="114.55553264392863">
        <ele>0.0</ele>
        <time>2021-05-23T00:27:36Z</time>
      </trkpt>
      <trkpt lat="30.668219224433514" lon="114.55558075376423">
        <ele>0.0</ele>
        <time>2021-05-23T00:27:41Z</time>
      </trkpt>
      <trkpt lat="30.668131340593412" lon="114.55562786127435">
        <ele>0.0</ele>
        <time>2021-05-23T00:27:46Z</time>
      </trkpt>
      <trkpt lat="30.668045439532726" lon="114.55566494722942">
        <ele>0.0</ele>
        <time>2021-05-23T00:27:51Z</time>
      </trkpt>
      <trkpt lat="30.66795757657925" lon="114.55572508218206">
        <ele>0.0</ele>
        <time>2021-05-23T00:27:56Z</time>
      </trkpt>
      <trkpt lat="30.667877693681344" lon="114.55577519506497">
        <ele>0.0</ele>
        <time>2021-05-23T00:28:01Z</time>
      </trkpt>
      <trkpt lat="30.667795808348725" lon="114.55582330375186">
        <ele>0.0</ele>
        <time>2021-05-23T00:28:06Z</time>
      </trkpt>
      <trkpt lat="30.667711928661564" lon="114.55587441884815">
        <ele>0.0</ele>
        <time>2021-05-23T00:28:11Z</time>
      </trkpt>
      <trkpt lat="30.66762604976607" lon="114.55592553398458">
        <ele>0.0</ele>
        <time>2021-05-23T00:28:16Z</time>
      </trkpt>
      <trkpt lat="30.667532163104642" lon="114.55596963486792">
        <ele>0.0</ele>
        <time>2021-05-23T00:28:22Z</time>
      </trkpt>
      <trkpt lat="30.66744427203873" lon="114.556012733045">
        <ele>0.0</ele>
        <time>2021-05-23T00:28:27Z</time>
      </trkpt>
      <trkpt lat="30.667357383651726" lon="114.5560578352671">
        <ele>0.0</ele>
        <time>2021-05-23T00:28:32Z</time>
      </trkpt>
      <trkpt lat="30.66726949241835" lon="114.5561009332596">
        <ele>0.0</ele>
        <time>2021-05-23T00:28:37Z</time>
      </trkpt>
      <trkpt lat="30.667185610514984" lon="114.5561510455625">
        <ele>0.0</ele>
        <time>2021-05-23T00:28:42Z</time>
      </trkpt>
      <trkpt lat="30.667099753407175" lon="114.55621618943896">
        <ele>0.0</ele>
        <time>2021-05-23T00:28:47Z</time>
      </trkpt>
      <trkpt lat="30.667021884523898" lon="114.55627632194945">
        <ele>0.0</ele>
        <time>2021-05-23T00:28:52Z</time>
      </trkpt>
      <trkpt lat="30.66694200044021" lon="114.55632643349152">
        <ele>0.0</ele>
        <time>2021-05-23T00:28:57Z</time>
      </trkpt>
      <trkpt lat="30.666856130107313" lon="114.55638356006675">
        <ele>0.0</ele>
        <time>2021-05-23T00:29:03Z</time>
      </trkpt>
      <trkpt lat="30.666771267136447" lon="114.5564456968522">
        <ele>0.0</ele>
        <time>2021-05-23T00:29:09Z</time>
      </trkpt>
      <trkpt lat="30.666676383101574" lon="114.55649180087985">
        <ele>0.0</ele>
        <time>2021-05-23T00:29:16Z</time>
      </trkpt>
      <trkpt lat="30.666582495348106" lon="114.55653590054868">
        <ele>0.0</ele>
        <time>2021-05-23T00:29:22Z</time>
      </trkpt>
      <trkpt lat="30.666495629704695" lon="114.55659603287371">
        <ele>0.0</ele>
        <time>2021-05-23T00:29:28Z</time>
      </trkpt>
      <trkpt lat="30.66641474380047" lon="114.55664514163807">
        <ele>0.0</ele>
        <time>2021-05-23T00:29:33Z</time>
      </trkpt>
      <trkpt lat="30.66632683565865" lon="114.55667821761047">
        <ele>0.0</ele>
        <time>2021-05-23T00:29:38Z</time>
      </trkpt>
      <trkpt lat="30.66624494371285" lon="114.55672331795438">
        <ele>0.0</ele>
        <time>2021-05-23T00:29:43Z</time>
      </trkpt>
      <trkpt lat="30.66614889848256" lon="114.5566672095813">
        <ele>0.0</ele>
        <time>2021-05-23T00:29:49Z</time>
      </trkpt>
      <trkpt lat="30.666057866697365" lon="114.55662112145846">
        <ele>0.0</ele>
        <time>2021-05-23T00:29:55Z</time>
      </trkpt>
      <trkpt lat="30.665950856289157" lon="114.55658405332093">
        <ele>0.0</ele>
        <time>2021-05-23T00:30:00Z</time>
      </trkpt>
      <trkpt lat="30.66585495654797" lon="114.55662013630433">
        <ele>0.0</ele>
        <time>2021-05-23T00:30:05Z</time>
      </trkpt>
      <trkpt lat="30.665778087722433" lon="114.55668126962661">
        <ele>0.0</ele>
        <time>2021-05-23T00:30:10Z</time>
      </trkpt>
      <trkpt lat="30.66568823090425" lon="114.55674641215361">
        <ele>0.0</ele>
        <time>2021-05-23T00:30:16Z</time>
      </trkpt>
      <trkpt lat="30.66559636692836" lon="114.55680654427718">
        <ele>0.0</ele>
        <time>2021-05-23T00:30:22Z</time>
      </trkpt>
      <trkpt lat="30.665504442988183" lon="114.55682859753664">
        <ele>0.0</ele>
        <time>2021-05-23T00:30:28Z</time>
      </trkpt>
      <trkpt lat="30.665528429037728" lon="114.55682659139207">
        <ele>0.0</ele>
        <time>2021-05-23T00:30:33Z</time>
      </trkpt>
      <trkpt lat="30.665594276374033" lon="114.55674842414298">
        <ele>0.0</ele>
        <time>2021-05-23T00:30:38Z</time>
      </trkpt>
      <trkpt lat="30.665668124598845" lon="114.5566732621666">
        <ele>0.0</ele>
        <time>2021-05-23T00:30:44Z</time>
      </trkpt>
      <trkpt lat="30.665759994575286" lon="114.55661713798035">
        <ele>0.0</ele>
        <time>2021-05-23T00:30:50Z</time>
      </trkpt>
      <trkpt lat="30.665759994575286" lon="114.55661713798035">
        <ele>0.0</ele>
        <time>2021-05-23T00:30:51Z</time>
      </trkpt>
    </trkseg>
  </trk>
</gpx>