<?xml version="1.0" encoding="UTF-8"?>
<gpx xmlns="http://www.topografix.com/GPX/1/1" xmlns:gpxtpx="http://www.garmin.com/xmlschemas/TrackPointExtension/v1" xmlns:xsi="http://www.w3.org/2001/XMLSchema-instance" xsi:schemaLocation="http://www.topografix.com/GPX/1/1 http://www.topografix.com/GPX/1/1/gpx.xsd" version="1.1" creator="gpx.py -- https://github.com/tkrajina/gpxpy">
  <trk>
    <name>gpx from keep</name>
    <type>Run</type>
    <trkseg>
      <trkpt lat="30.492170656608963" lon="114.42277858226173">
        <ele>45.15346908569336</ele>
        <time>2026-09-28T00:56:43Z</time>
      </trkpt>
      <trkpt lat="30.49238619352657" lon="114.42285301107023">
        <ele>46.827786069363356</ele>
        <time>2026-09-28T00:56:54Z</time>
      </trkpt>
      <trkpt lat="30.49240910887469" lon="114.42331568372997">
        <ele>48.02633354905993</ele>
        <time>2026-09-28T00:57:02Z</time>
      </trkpt>
      <trkpt lat="30.492305220290895" lon="114.42360368106179">
        <ele>43.60683476738632</ele>
        <time>2026-09-28T00:57:10Z</time>
      </trkpt>
      <trkpt lat="30.492267936582373" lon="114.42382276615594">
        <ele>44.03504246100783</ele>
        <time>2026-09-28T00:57:18Z</time>
      </trkpt>
      <trkpt lat="30.49217491333149" lon="114.42400144135725">
        <ele>42.539512822404504</ele>
        <time>2026-09-28T00:57:26Z</time>
      </trkpt>
      <trkpt lat="30.492100774572886" lon="114.42427601880158">
        <ele>42.01139678712934</ele>
        <time>2026-09-28T00:57:38Z</time>
      </trkpt>
      <trkpt lat="30.492012922853146" lon="114.42454904671617">
        <ele>41.71613194514066</ele>
        <time>2026-09-28T00:57:50Z</time>
      </trkpt>
      <trkpt lat="30.491932860742857" lon="114.4246885915685">
        <ele>40.150076857768</ele>
        <time>2026-09-28T00:57:58Z</time>
      </trkpt>
      <trkpt lat="30.492015499411284" lon="114.4247777444796">
        <ele>40.182771877385676</ele>
        <time>2026-09-28T00:58:02Z</time>
      </trkpt>
      <trkpt lat="30.49234407623872" lon="114.42489190993479">
        <ele>40.197847506031394</ele>
        <time>2026-09-28T00:58:18Z</time>
      </trkpt>
      <trkpt lat="30.492597748576145" lon="114.42502373240973">
        <ele>41.4350520465523</ele>
        <time>2026-09-28T00:58:30Z</time>
      </trkpt>
      <trkpt lat="30.49273115171704" lon="114.42507989573626">
        <ele>42.62280070595443</ele>
        <time>2026-09-28T00:58:38Z</time>
      </trkpt>
      <trkpt lat="30.49285248981121" lon="114.42517708575478">
        <ele>43.054935933090746</ele>
        <time>2026-09-28T00:58:45Z</time>
      </trkpt>
      <trkpt lat="30.49305689095531" lon="114.42522768489498">
        <ele>42.32569385599345</ele>
        <time>2026-09-28T00:58:54Z</time>
      </trkpt>
      <trkpt lat="30.49322286509834" lon="114.42530913837382">
        <ele>43.63792426511645</ele>
        <time>2026-09-28T00:59:03Z</time>
      </trkpt>
      <trkpt lat="30.493401374057196" lon="114.42537255783569">
        <ele>43.056055593304336</ele>
        <time>2026-09-28T00:59:12Z</time>
      </trkpt>
      <trkpt lat="30.493462220123185" lon="114.42541497174415">
        <ele>44.94087709952146</ele>
        <time>2026-09-28T00:59:15Z</time>
      </trkpt>
      <trkpt lat="30.493660122544963" lon="114.4254705483351">
        <ele>45.71834724582732</ele>
        <time>2026-09-28T00:59:25Z</time>
      </trkpt>
      <trkpt lat="30.493725789996493" lon="114.42551676831316">
        <ele>45.36046242993325</ele>
        <time>2026-09-28T00:59:29Z</time>
      </trkpt>
      <trkpt lat="30.493893730058925" lon="114.42554396986117">
        <ele>44.08903036173433</ele>
        <time>2026-09-28T00:59:37Z</time>
      </trkpt>
      <trkpt lat="30.49392854637834" lon="114.4253242347056">
        <ele>44.67680633068085</ele>
        <time>2026-09-28T00:59:45Z</time>
      </trkpt>
      <trkpt lat="30.49404979634517" lon="114.42503157763535">
        <ele>46.653630059212446</ele>
        <time>2026-09-28T00:59:57Z</time>
      </trkpt>
      <trkpt lat="30.494162721967445" lon="114.42473379493062">
        <ele>46.57165138795972</ele>
        <time>2026-09-28T01:00:09Z</time>
      </trkpt>
      <trkpt lat="30.49423160012119" lon="114.42456702417209">
        <ele>46.38727397006005</ele>
        <time>2026-09-28T01:00:17Z</time>
      </trkpt>
      <trkpt lat="30.494257039273123" lon="114.4244673906639">
        <ele>47.53357447870076</ele>
        <time>2026-09-28T01:00:21Z</time>
      </trkpt>
      <trkpt lat="30.49425079991952" lon="114.42435456083054">
        <ele>47.7548632575199</ele>
        <time>2026-09-28T01:00:25Z</time>
      </trkpt>
      <trkpt lat="30.49433160914746" lon="114.42428432226909">
        <ele>47.60565288364887</ele>
        <time>2026-09-28T01:00:29Z</time>
      </trkpt>
      <trkpt lat="30.494397339967087" lon="114.42419917681009">
        <ele>46.89636493753642</ele>
        <time>2026-09-28T01:00:33Z</time>
      </trkpt>
      <trkpt lat="30.494420465780248" lon="114.42403619147244">
        <ele>47.85534076299518</ele>
        <time>2026-09-28T01:00:41Z</time>
      </trkpt>
      <trkpt lat="30.49447900386196" lon="114.4239738682695">
        <ele>46.18788929376751</ele>
        <time>2026-09-28T01:00:45Z</time>
      </trkpt>
      <trkpt lat="30.4945129413067" lon="114.42387651564431">
        <ele>45.91758521273732</ele>
        <time>2026-09-28T01:00:49Z</time>
      </trkpt>
      <trkpt lat="30.49451287056597" lon="114.42380207185788">
        <ele>46.702727388590574</ele>
        <time>2026-09-28T01:00:52Z</time>
      </trkpt>
      <trkpt lat="30.494642187157186" lon="114.42353276319524">
        <ele>46.98814028594643</ele>
        <time>2026-09-28T01:01:04Z</time>
      </trkpt>
      <trkpt lat="30.49470158956174" lon="114.42336950414418">
        <ele>47.14213273394853</ele>
        <time>2026-09-28T01:01:11Z</time>
      </trkpt>
      <trkpt lat="30.494753070968578" lon="114.42330832638106">
        <ele>46.36703833937645</ele>
        <time>2026-09-28T01:01:15Z</time>
      </trkpt>
      <trkpt lat="30.494832501898973" lon="114.42309184240695">
        <ele>47.31326163094491</ele>
        <time>2026-09-28T01:01:23Z</time>
      </trkpt>
      <trkpt lat="30.494810239854022" lon="114.42299735646665">
        <ele>47.26618388853967</ele>
        <time>2026-09-28T01:01:27Z</time>
      </trkpt>
      <trkpt lat="30.494771078564685" lon="114.42291762125029">
        <ele>45.59660066757351</ele>
        <time>2026-09-28T01:01:31Z</time>
      </trkpt>
      <trkpt lat="30.494570629401327" lon="114.4228533915482">
        <ele>45.551255563274026</ele>
        <time>2026-09-28T01:01:39Z</time>
      </trkpt>
      <trkpt lat="30.494492020933674" lon="114.42279375561381">
        <ele>46.32719773054123</ele>
        <time>2026-09-28T01:01:43Z</time>
      </trkpt>
      <trkpt lat="30.494401382669672" lon="114.42277063196258">
        <ele>46.15123871900141</ele>
        <time>2026-09-28T01:01:47Z</time>
      </trkpt>
      <trkpt lat="30.49422600168425" lon="114.4227005463562">
        <ele>46.44931349251419</ele>
        <time>2026-09-28T01:01:55Z</time>
      </trkpt>
      <trkpt lat="30.494123591507993" lon="114.42268132317194">
        <ele>46.06976345460862</ele>
        <time>2026-09-28T01:01:59Z</time>
      </trkpt>
      <trkpt lat="30.49395729848299" lon="114.42258574709116">
        <ele>46.36801533214748</ele>
        <time>2026-09-28T01:02:07Z</time>
      </trkpt>
      <trkpt lat="30.49388370773786" lon="114.42251671185338">
        <ele>45.9836668074131</ele>
        <time>2026-09-28T01:02:11Z</time>
      </trkpt>
      <trkpt lat="30.493702626176713" lon="114.42240712135752">
        <ele>47.746480020694435</ele>
        <time>2026-09-28T01:02:19Z</time>
      </trkpt>
      <trkpt lat="30.49364262774982" lon="114.42233803140036">
        <ele>47.16185714676976</ele>
        <time>2026-09-28T01:02:23Z</time>
      </trkpt>
      <trkpt lat="30.493556515746437" lon="114.422350801169">
        <ele>46.67885071225464</ele>
        <time>2026-09-28T01:02:27Z</time>
      </trkpt>
      <trkpt lat="30.49345565173295" lon="114.42227075168776">
        <ele>46.76208335161209</ele>
        <time>2026-09-28T01:02:31Z</time>
      </trkpt>
      <trkpt lat="30.493217993935218" lon="114.4221848085679">
        <ele>47.52174275647849</ele>
        <time>2026-09-28T01:02:43Z</time>
      </trkpt>
      <trkpt lat="30.49308131818928" lon="114.42217353156245">
        <ele>44.936160110868514</ele>
        <time>2026-09-28T01:02:51Z</time>
      </trkpt>
      <trkpt lat="30.49300208867643" lon="114.42219361108114">
        <ele>46.70641190279275</ele>
        <time>2026-09-28T01:02:55Z</time>
      </trkpt>
      <trkpt lat="30.492928721215534" lon="114.42213890893606">
        <ele>45.649875660426915</ele>
        <time>2026-09-28T01:02:58Z</time>
      </trkpt>
      <trkpt lat="30.492701097535186" lon="114.42204459958046">
        <ele>44.73289859946817</ele>
        <time>2026-09-28T01:03:10Z</time>
      </trkpt>
      <trkpt lat="30.49261948957492" lon="114.42198555095636">
        <ele>44.024804457090795</ele>
        <time>2026-09-28T01:03:14Z</time>
      </trkpt>
      <trkpt lat="30.49247754023876" lon="114.42183074270348">
        <ele>44.067379366606474</ele>
        <time>2026-09-28T01:03:22Z</time>
      </trkpt>
      <trkpt lat="30.492379675775855" lon="114.42182131105798">
        <ele>44.15008731093258</ele>
        <time>2026-09-28T01:03:26Z</time>
      </trkpt>
      <trkpt lat="30.492271458173175" lon="114.42173430397018">
        <ele>43.640598704107106</ele>
        <time>2026-09-28T01:03:30Z</time>
      </trkpt>
      <trkpt lat="30.491987464300244" lon="114.42168584008361">
        <ele>43.15843427926302</ele>
        <time>2026-09-28T01:03:42Z</time>
      </trkpt>
      <trkpt lat="30.491935856125362" lon="114.42167306098064">
        <ele>41.243996700271964</ele>
        <time>2026-09-28T01:03:46Z</time>
      </trkpt>
      <trkpt lat="30.491871083961474" lon="114.42162702082372">
        <ele>40.38329786248505</ele>
        <time>2026-09-28T01:03:50Z</time>
      </trkpt>
      <trkpt lat="30.491775142171665" lon="114.42159606584951">
        <ele>40.25094472710043</ele>
        <time>2026-09-28T01:03:54Z</time>
      </trkpt>
      <trkpt lat="30.491458314076652" lon="114.4214447941287">
        <ele>41.12282750289887</ele>
        <time>2026-09-28T01:04:06Z</time>
      </trkpt>
      <trkpt lat="30.491287414024566" lon="114.4213657259095">
        <ele>39.42914012726396</ele>
        <time>2026-09-28T01:04:14Z</time>
      </trkpt>
      <trkpt lat="30.491128487663538" lon="114.4213294704599">
        <ele>39.41766362823546</ele>
        <time>2026-09-28T01:04:22Z</time>
      </trkpt>
      <trkpt lat="30.491047837910646" lon="114.42128320909886">
        <ele>38.25168287009001</ele>
        <time>2026-09-28T01:04:26Z</time>
      </trkpt>
      <trkpt lat="30.4909904693958" lon="114.42137321305691">
        <ele>36.91395015642047</ele>
        <time>2026-09-28T01:04:30Z</time>
      </trkpt>
      <trkpt lat="30.490879942898992" lon="114.42134417004544">
        <ele>38.49227969534695</ele>
        <time>2026-09-28T01:04:34Z</time>
      </trkpt>
      <trkpt lat="30.490786195571758" lon="114.42128897579224">
        <ele>37.290050299838185</ele>
        <time>2026-09-28T01:04:38Z</time>
      </trkpt>
      <trkpt lat="30.490727959524033" lon="114.4212202643054">
        <ele>37.06942900456488</ele>
        <time>2026-09-28T01:04:42Z</time>
      </trkpt>
      <trkpt lat="30.490650212798833" lon="114.4211633525155">
        <ele>35.92699528671801</ele>
        <time>2026-09-28T01:04:46Z</time>
      </trkpt>
      <trkpt lat="30.490547686345096" lon="114.42112611818982">
        <ele>36.23823382798582</ele>
        <time>2026-09-28T01:04:50Z</time>
      </trkpt>
      <trkpt lat="30.49047524232385" lon="114.42106788197462">
        <ele>36.31312814448029</ele>
        <time>2026-09-28T01:04:54Z</time>
      </trkpt>
      <trkpt lat="30.49012463602589" lon="114.42098569617148">
        <ele>36.93502141721547</ele>
        <time>2026-09-28T01:05:09Z</time>
      </trkpt>
      <trkpt lat="30.490043346946624" lon="114.42097437855293">
        <ele>36.15003983583301</ele>
        <time>2026-09-28T01:05:13Z</time>
      </trkpt>
      <trkpt lat="30.489867626320972" lon="114.42091569370089">
        <ele>37.07323169428855</ele>
        <time>2026-09-28T01:05:21Z</time>
      </trkpt>
      <trkpt lat="30.489689553180995" lon="114.42088874540792">
        <ele>36.79488682001829</ele>
        <time>2026-09-28T01:05:29Z</time>
      </trkpt>
      <trkpt lat="30.489601049016784" lon="114.4208402803824">
        <ele>35.60825653653592</ele>
        <time>2026-09-28T01:05:33Z</time>
      </trkpt>
      <trkpt lat="30.48942356310793" lon="114.42081673367463">
        <ele>37.107528844848275</ele>
        <time>2026-09-28T01:05:41Z</time>
      </trkpt>
      <trkpt lat="30.48933406236898" lon="114.42078537014925">
        <ele>37.23028550297022</ele>
        <time>2026-09-28T01:05:45Z</time>
      </trkpt>
      <trkpt lat="30.488980977887078" lon="114.42076428066852">
        <ele>38.62364737037569</ele>
        <time>2026-09-28T01:06:01Z</time>
      </trkpt>
      <trkpt lat="30.48887521851499" lon="114.42075395901904">
        <ele>38.33802750427276</ele>
        <time>2026-09-28T01:06:05Z</time>
      </trkpt>
      <trkpt lat="30.48869439396958" lon="114.42078072726798">
        <ele>38.56085725128651</ele>
        <time>2026-09-28T01:06:13Z</time>
      </trkpt>
      <trkpt lat="30.48844913344046" lon="114.42073522029358">
        <ele>37.932464267127216</ele>
        <time>2026-09-28T01:06:25Z</time>
      </trkpt>
      <trkpt lat="30.488303179552066" lon="114.42075159889045">
        <ele>36.510949958115816</ele>
        <time>2026-09-28T01:06:33Z</time>
      </trkpt>
      <trkpt lat="30.48823182625638" lon="114.42082589490286">
        <ele>37.20124172605574</ele>
        <time>2026-09-28T01:06:37Z</time>
      </trkpt>
      <trkpt lat="30.48811658727438" lon="114.42101238381437">
        <ele>39.407358231022954</ele>
        <time>2026-09-28T01:06:45Z</time>
      </trkpt>
      <trkpt lat="30.488087308963568" lon="114.4211077260867">
        <ele>36.753337780945</ele>
        <time>2026-09-28T01:06:49Z</time>
      </trkpt>
      <trkpt lat="30.488066975293417" lon="114.42129985961634">
        <ele>39.68107966333628</ele>
        <time>2026-09-28T01:06:57Z</time>
      </trkpt>
      <trkpt lat="30.488075872067217" lon="114.42138160193241">
        <ele>42.38447545282543</ele>
        <time>2026-09-28T01:07:01Z</time>
      </trkpt>
      <trkpt lat="30.48798755906721" lon="114.42155636304673">
        <ele>44.18181627988815</ele>
        <time>2026-09-28T01:07:09Z</time>
      </trkpt>
      <trkpt lat="30.48797728653272" lon="114.42165255968261">
        <ele>43.85205397102982</ele>
        <time>2026-09-28T01:07:13Z</time>
      </trkpt>
      <trkpt lat="30.487882151960047" lon="114.42194529115379">
        <ele>45.994379687123</ele>
        <time>2026-09-28T01:07:25Z</time>
      </trkpt>
      <trkpt lat="30.487839260092674" lon="114.42226575825978">
        <ele>45.54754129052162</ele>
        <time>2026-09-28T01:07:37Z</time>
      </trkpt>
      <trkpt lat="30.4878104182733" lon="114.42261261352319">
        <ele>44.996778624132276</ele>
        <time>2026-09-28T01:07:49Z</time>
      </trkpt>
      <trkpt lat="30.487767092676314" lon="114.42290853563024">
        <ele>45.58433122187853</ele>
        <time>2026-09-28T01:08:01Z</time>
      </trkpt>
      <trkpt lat="30.487735786573047" lon="114.4230125703726">
        <ele>44.44036495871842</ele>
        <time>2026-09-28T01:08:05Z</time>
      </trkpt>
      <trkpt lat="30.48775168625657" lon="114.42310689318279">
        <ele>45.390200765803456</ele>
        <time>2026-09-28T01:08:09Z</time>
      </trkpt>
      <trkpt lat="30.48772622347797" lon="114.42327917840747">
        <ele>46.21165073849261</ele>
        <time>2026-09-28T01:08:17Z</time>
      </trkpt>
      <trkpt lat="30.487692278866202" lon="114.42335793562256">
        <ele>44.67965579777956</ele>
        <time>2026-09-28T01:08:21Z</time>
      </trkpt>
      <trkpt lat="30.487535758068333" lon="114.42346864516682">
        <ele>43.47439947258681</ele>
        <time>2026-09-28T01:08:29Z</time>
      </trkpt>
      <trkpt lat="30.487439632443582" lon="114.42347233203773">
        <ele>42.96188154164702</ele>
        <time>2026-09-28T01:08:33Z</time>
      </trkpt>
      <trkpt lat="30.487338631936804" lon="114.4234450506724">
        <ele>42.78177421167493</ele>
        <time>2026-09-28T01:08:37Z</time>
      </trkpt>
      <trkpt lat="30.48726102822156" lon="114.42347671787263">
        <ele>41.36043579503894</ele>
        <time>2026-09-28T01:08:41Z</time>
      </trkpt>
      <trkpt lat="30.487185155814768" lon="114.42365409262949">
        <ele>40.28303090296686</ele>
        <time>2026-09-28T01:08:49Z</time>
      </trkpt>
      <trkpt lat="30.48705834655025" lon="114.42380037306123">
        <ele>39.630744218826294</ele>
        <time>2026-09-28T01:08:57Z</time>
      </trkpt>
      <trkpt lat="30.48688425986331" lon="114.42385002122435">
        <ele>38.8606966920197</ele>
        <time>2026-09-28T01:09:05Z</time>
      </trkpt>
      <trkpt lat="30.48663621678587" lon="114.42383450320956">
        <ele>38.35920623969287</ele>
        <time>2026-09-28T01:09:16Z</time>
      </trkpt>
      <trkpt lat="30.486535038578925" lon="114.42386342398753">
        <ele>39.9494886174798</ele>
        <time>2026-09-28T01:09:20Z</time>
      </trkpt>
      <trkpt lat="30.486364319398465" lon="114.42384390598768">
        <ele>38.9476321535185</ele>
        <time>2026-09-28T01:09:28Z</time>
      </trkpt>
      <trkpt lat="30.48601494477868" lon="114.4238627602914">
        <ele>36.924277543090284</ele>
        <time>2026-09-28T01:09:44Z</time>
      </trkpt>
      <trkpt lat="30.48573359593271" lon="114.42386142280563">
        <ele>36.2726017376408</ele>
        <time>2026-09-28T01:09:56Z</time>
      </trkpt>
      <trkpt lat="30.48544757736316" lon="114.42386481728855">
        <ele>36.06635550688952</ele>
        <time>2026-09-28T01:10:08Z</time>
      </trkpt>
      <trkpt lat="30.485161716935092" lon="114.42387653567557">
        <ele>36.32399181742221</ele>
        <time>2026-09-28T01:10:20Z</time>
      </trkpt>
      <trkpt lat="30.484905970631022" lon="114.42386383467031">
        <ele>36.74763794802129</ele>
        <time>2026-09-28T01:10:32Z</time>
      </trkpt>
      <trkpt lat="30.48489536532021" lon="114.42397470381373">
        <ele>36.041699540801346</ele>
        <time>2026-09-28T01:10:36Z</time>
      </trkpt>
      <trkpt lat="30.48520967138483" lon="114.42396303607129">
        <ele>37.72475723084062</ele>
        <time>2026-09-28T01:10:48Z</time>
      </trkpt>
      <trkpt lat="30.48546328655429" lon="114.42393509890121">
        <ele>37.845148196443915</ele>
        <time>2026-09-28T01:11:00Z</time>
      </trkpt>
      <trkpt lat="30.485798215624364" lon="114.42393455340451">
        <ele>36.82794479094446</ele>
        <time>2026-09-28T01:11:16Z</time>
      </trkpt>
      <trkpt lat="30.486107886829497" lon="114.42393133859242">
        <ele>37.445201348513365</ele>
        <time>2026-09-28T01:11:30Z</time>
      </trkpt>
      <trkpt lat="30.486266197867263" lon="114.42395301347982">
        <ele>37.93653374258429</ele>
        <time>2026-09-28T01:11:37Z</time>
      </trkpt>
      <trkpt lat="30.486369783757976" lon="114.42394587974266">
        <ele>37.48016408737749</ele>
        <time>2026-09-28T01:11:41Z</time>
      </trkpt>
      <trkpt lat="30.486444518415244" lon="114.42396017161755">
        <ele>38.29746463615447</ele>
        <time>2026-09-28T01:11:45Z</time>
      </trkpt>
      <trkpt lat="30.486610958357453" lon="114.42396395797897">
        <ele>39.270145690999925</ele>
        <time>2026-09-28T01:11:53Z</time>
      </trkpt>
      <trkpt lat="30.48669203193722" lon="114.42394613956237">
        <ele>38.65605065878481</ele>
        <time>2026-09-28T01:11:57Z</time>
      </trkpt>
      <trkpt lat="30.486779658713473" lon="114.42395569913053">
        <ele>38.986948788166046</ele>
        <time>2026-09-28T01:12:01Z</time>
      </trkpt>
      <trkpt lat="30.486853756495034" lon="114.42392739589123">
        <ele>38.39185410551727</ele>
        <time>2026-09-28T01:12:05Z</time>
      </trkpt>
      <trkpt lat="30.487024273005918" lon="114.42394653533887">
        <ele>37.942035232670605</ele>
        <time>2026-09-28T01:12:13Z</time>
      </trkpt>
      <trkpt lat="30.48719926540537" lon="114.42393751392565">
        <ele>39.97274150792509</ele>
        <time>2026-09-28T01:12:21Z</time>
      </trkpt>
      <trkpt lat="30.48743189690941" lon="114.42385783162423">
        <ele>39.96740660071373</ele>
        <time>2026-09-28T01:12:33Z</time>
      </trkpt>
      <trkpt lat="30.487520630044116" lon="114.42385744321199">
        <ele>40.22687399107963</ele>
        <time>2026-09-28T01:12:37Z</time>
      </trkpt>
      <trkpt lat="30.487599338988396" lon="114.4238097641314">
        <ele>40.89457406010479</ele>
        <time>2026-09-28T01:12:41Z</time>
      </trkpt>
      <trkpt lat="30.487874222639107" lon="114.42389409969056">
        <ele>45.749940988607705</ele>
        <time>2026-09-28T01:12:53Z</time>
      </trkpt>
      <trkpt lat="30.487932713363882" lon="114.42392674032095">
        <ele>48.80861020181328</ele>
        <time>2026-09-28T01:12:57Z</time>
      </trkpt>
      <trkpt lat="30.48802138641375" lon="114.42394050874758">
        <ele>45.875024450942874</ele>
        <time>2026-09-28T01:13:01Z</time>
      </trkpt>
      <trkpt lat="30.488085860190544" lon="114.42397328373436">
        <ele>50.88090360723436</ele>
        <time>2026-09-28T01:13:05Z</time>
      </trkpt>
      <trkpt lat="30.488187113761683" lon="114.42395136350449">
        <ele>48.19532445259392</ele>
        <time>2026-09-28T01:13:09Z</time>
      </trkpt>
      <trkpt lat="30.488539373872776" lon="114.42405065373434">
        <ele>46.86653583031148</ele>
        <time>2026-09-28T01:13:25Z</time>
      </trkpt>
      <trkpt lat="30.488617262065812" lon="114.42405485902242">
        <ele>42.67232429794967</ele>
        <time>2026-09-28T01:13:28Z</time>
      </trkpt>
      <trkpt lat="30.488771177544844" lon="114.42410255205586">
        <ele>42.33462416194379</ele>
        <time>2026-09-28T01:13:35Z</time>
      </trkpt>
      <trkpt lat="30.488954367202165" lon="114.42410882443365">
        <ele>42.04894986655563</ele>
        <time>2026-09-28T01:13:43Z</time>
      </trkpt>
      <trkpt lat="30.48903374298917" lon="114.42414064098199">
        <ele>39.558879205957055</ele>
        <time>2026-09-28T01:13:47Z</time>
      </trkpt>
      <trkpt lat="30.489200619133438" lon="114.42414672089342">
        <ele>39.47415822185576</ele>
        <time>2026-09-28T01:13:55Z</time>
      </trkpt>
      <trkpt lat="30.489278045597306" lon="114.42418151996982">
        <ele>39.10890153609216</ele>
        <time>2026-09-28T01:13:59Z</time>
      </trkpt>
      <trkpt lat="30.489621154849647" lon="114.42419700091494">
        <ele>40.09936164971441</ele>
        <time>2026-09-28T01:14:15Z</time>
      </trkpt>
      <trkpt lat="30.489704685830244" lon="114.42420391815789">
        <ele>40.21683626063168</ele>
        <time>2026-09-28T01:14:19Z</time>
      </trkpt>
      <trkpt lat="30.489925431946965" lon="114.4240461771805">
        <ele>39.19626987632364</ele>
        <time>2026-09-28T01:14:31Z</time>
      </trkpt>
      <trkpt lat="30.489963923586426" lon="114.42397917925126">
        <ele>38.56613210123032</ele>
        <time>2026-09-28T01:14:35Z</time>
      </trkpt>
      <trkpt lat="30.490048458106084" lon="114.42397713114377">
        <ele>37.759415375068784</ele>
        <time>2026-09-28T01:14:39Z</time>
      </trkpt>
      <trkpt lat="30.490366696967016" lon="114.42413353255724">
        <ele>39.602245033718646</ele>
        <time>2026-09-28T01:14:55Z</time>
      </trkpt>
      <trkpt lat="30.490687136950612" lon="114.42428573832224">
        <ele>39.3797689313069</ele>
        <time>2026-09-28T01:15:11Z</time>
      </trkpt>
      <trkpt lat="30.491011583513263" lon="114.42443721369096">
        <ele>39.0858994666487</ele>
        <time>2026-09-28T01:15:27Z</time>
      </trkpt>
      <trkpt lat="30.4913170157106" lon="114.42458717200431">
        <ele>39.958482187241316</ele>
        <time>2026-09-28T01:15:43Z</time>
      </trkpt>
      <trkpt lat="30.49160106941551" lon="114.42470967675295">
        <ele>40.646435980685055</ele>
        <time>2026-09-28T01:15:58Z</time>
      </trkpt>
      <trkpt lat="30.4917417206694" lon="114.42478489993842">
        <ele>40.38687848299742</ele>
        <time>2026-09-28T01:16:06Z</time>
      </trkpt>
      <trkpt lat="30.492056459907612" lon="114.42491157806212">
        <ele>40.596355341374874</ele>
        <time>2026-09-28T01:16:22Z</time>
      </trkpt>
      <trkpt lat="30.49230006026927" lon="114.42503687248677">
        <ele>41.06610264442861</ele>
        <time>2026-09-28T01:16:34Z</time>
      </trkpt>
      <trkpt lat="30.492451577918555" lon="114.42510026690022">
        <ele>41.872732473537326</ele>
        <time>2026-09-28T01:16:42Z</time>
      </trkpt>
      <trkpt lat="30.49252159186067" lon="114.42514872628816">
        <ele>41.80722417496145</ele>
        <time>2026-09-28T01:16:46Z</time>
      </trkpt>
      <trkpt lat="30.492826712982115" lon="114.42529549671568">
        <ele>43.31359868962318</ele>
        <time>2026-09-28T01:17:02Z</time>
      </trkpt>
      <trkpt lat="30.49313502331841" lon="114.42545349657352">
        <ele>43.94660223275423</ele>
        <time>2026-09-28T01:17:18Z</time>
      </trkpt>
      <trkpt lat="30.493267128767293" lon="114.42551572082746">
        <ele>45.13027471769601</ele>
        <time>2026-09-28T01:17:26Z</time>
      </trkpt>
      <trkpt lat="30.493535208261736" lon="114.42558460768163">
        <ele>44.98604776803404</ele>
        <time>2026-09-28T01:17:38Z</time>
      </trkpt>
      <trkpt lat="30.493634980739785" lon="114.42562891404084">
        <ele>45.68346719164401</ele>
        <time>2026-09-28T01:17:44Z</time>
      </trkpt>
      <trkpt lat="30.49368854613672" lon="114.42567215436934">
        <ele>46.19663444533944</ele>
        <time>2026-09-28T01:17:47Z</time>
      </trkpt>
      <trkpt lat="30.493813801267432" lon="114.42568196595766">
        <ele>45.98932363279164</ele>
        <time>2026-09-28T01:17:54Z</time>
      </trkpt>
      <trkpt lat="30.49386562588" lon="114.42561156358536">
        <ele>45.39579087682068</ele>
        <time>2026-09-28T01:17:58Z</time>
      </trkpt>
      <trkpt lat="30.49388465670028" lon="114.42551676580624">
        <ele>44.97803188394755</ele>
        <time>2026-09-28T01:18:02Z</time>
      </trkpt>
      <trkpt lat="30.493927267565407" lon="114.42542019023018">
        <ele>44.33495386596769</ele>
        <time>2026-09-28T01:18:06Z</time>
      </trkpt>
      <trkpt lat="30.493945484173466" lon="114.42532390393733">
        <ele>44.86828383337706</ele>
        <time>2026-09-28T01:18:10Z</time>
      </trkpt>
      <trkpt lat="30.494053172304213" lon="114.4251711016207">
        <ele>45.71759741380811</ele>
        <time>2026-09-28T01:18:18Z</time>
      </trkpt>
      <trkpt lat="30.494054753257398" lon="114.42508546792716">
        <ele>46.374734248034656</ele>
        <time>2026-09-28T01:18:22Z</time>
      </trkpt>
      <trkpt lat="30.494104818662734" lon="114.42499295804123">
        <ele>46.54603064991534</ele>
        <time>2026-09-28T01:18:26Z</time>
      </trkpt>
      <trkpt lat="30.494114657770414" lon="114.42490708862184">
        <ele>46.86274872813374</ele>
        <time>2026-09-28T01:18:30Z</time>
      </trkpt>
      <trkpt lat="30.494178125361476" lon="114.4246947051023">
        <ele>48.21047230064869</ele>
        <time>2026-09-28T01:18:38Z</time>
      </trkpt>
      <trkpt lat="30.49424210769596" lon="114.42454529338349">
        <ele>47.93353963084519</ele>
        <time>2026-09-28T01:18:46Z</time>
      </trkpt>
      <trkpt lat="30.49427069071165" lon="114.42442562649362">
        <ele>48.89998672250658</ele>
        <time>2026-09-28T01:18:50Z</time>
      </trkpt>
      <trkpt lat="30.494360872722797" lon="114.42425378872719">
        <ele>47.36710225511342</ele>
        <time>2026-09-28T01:18:58Z</time>
      </trkpt>
      <trkpt lat="30.494368664543604" lon="114.42412402230099">
        <ele>47.54429232887924</ele>
        <time>2026-09-28T01:19:02Z</time>
      </trkpt>
      <trkpt lat="30.49440270673378" lon="114.42404138985067">
        <ele>47.42005564272404</ele>
        <time>2026-09-28T01:19:06Z</time>
      </trkpt>
      <trkpt lat="30.49445714176666" lon="114.42399613234555">
        <ele>47.77855615504086</ele>
        <time>2026-09-28T01:19:10Z</time>
      </trkpt>
      <trkpt lat="30.494525964828348" lon="114.42378473260668">
        <ele>47.850853244774044</ele>
        <time>2026-09-28T01:19:18Z</time>
      </trkpt>
      <trkpt lat="30.494664773511783" lon="114.42344798705204">
        <ele>49.15594334155321</ele>
        <time>2026-09-28T01:19:34Z</time>
      </trkpt>
      <trkpt lat="30.49471332271178" lon="114.4233831775401">
        <ele>48.82864332664758</ele>
        <time>2026-09-28T01:19:38Z</time>
      </trkpt>
      <trkpt lat="30.494753622327465" lon="114.42327381913199">
        <ele>49.23391195014119</ele>
        <time>2026-09-28T01:19:42Z</time>
      </trkpt>
      <trkpt lat="30.494799313226682" lon="114.42321081382879">
        <ele>48.242836095392704</ele>
        <time>2026-09-28T01:19:45Z</time>
      </trkpt>
      <trkpt lat="30.494797401650146" lon="114.42304008091587">
        <ele>48.29076123051345</ele>
        <time>2026-09-28T01:19:51Z</time>
      </trkpt>
      <trkpt lat="30.49477486072564" lon="114.42297231436">
        <ele>47.79392600711435</ele>
        <time>2026-09-28T01:19:54Z</time>
      </trkpt>
      <trkpt lat="30.49470750979869" lon="114.42292443009237">
        <ele>47.65068245958537</ele>
        <time>2026-09-28T01:19:57Z</time>
      </trkpt>
      <trkpt lat="30.49452895259845" lon="114.42285265676134">
        <ele>47.40983144938946</ele>
        <time>2026-09-28T01:20:05Z</time>
      </trkpt>
      <trkpt lat="30.49446002418448" lon="114.42279301464205">
        <ele>47.566360272467136</ele>
        <time>2026-09-28T01:20:09Z</time>
      </trkpt>
      <trkpt lat="30.494352622227503" lon="114.42278369537745">
        <ele>48.49045084323734</ele>
        <time>2026-09-28T01:20:13Z</time>
      </trkpt>
      <trkpt lat="30.49417447901893" lon="114.42268720310126">
        <ele>48.177076837047935</ele>
        <time>2026-09-28T01:20:21Z</time>
      </trkpt>
      <trkpt lat="30.494063732691195" lon="114.42267338181537">
        <ele>48.93979400023818</ele>
        <time>2026-09-28T01:20:25Z</time>
      </trkpt>
      <trkpt lat="30.493994559862816" lon="114.4226146622995">
        <ele>48.536046059802175</ele>
        <time>2026-09-28T01:20:29Z</time>
      </trkpt>
      <trkpt lat="30.493730333736806" lon="114.4224461525244">
        <ele>48.8149457545951</ele>
        <time>2026-09-28T01:20:41Z</time>
      </trkpt>
      <trkpt lat="30.493476236022513" lon="114.4223067451219">
        <ele>49.32028470933437</ele>
        <time>2026-09-28T01:20:53Z</time>
      </trkpt>
      <trkpt lat="30.493382510365688" lon="114.42228648268868">
        <ele>48.79564000107348</ele>
        <time>2026-09-28T01:20:57Z</time>
      </trkpt>
      <trkpt lat="30.49320977588207" lon="114.42219414692848">
        <ele>47.658566114492714</ele>
        <time>2026-09-28T01:21:05Z</time>
      </trkpt>
      <trkpt lat="30.49304616597414" lon="114.4221956249088">
        <ele>47.487438884563744</ele>
        <time>2026-09-28T01:21:13Z</time>
      </trkpt>
      <trkpt lat="30.49274126989085" lon="114.42206971191686">
        <ele>45.27023221552372</ele>
        <time>2026-09-28T01:21:29Z</time>
      </trkpt>
      <trkpt lat="30.49252379203211" lon="114.42188938513242">
        <ele>45.321137758903205</ele>
        <time>2026-09-28T01:21:41Z</time>
      </trkpt>
      <trkpt lat="30.492267464856987" lon="114.42177841025358">
        <ele>45.2543965484947</ele>
        <time>2026-09-28T01:21:52Z</time>
      </trkpt>
      <trkpt lat="30.49206292268034" lon="114.42171456402338">
        <ele>43.768022385425866</ele>
        <time>2026-09-28T01:22:01Z</time>
      </trkpt>
      <trkpt lat="30.491937267692" lon="114.42169787680835">
        <ele>41.850751555524766</ele>
        <time>2026-09-28T01:22:08Z</time>
      </trkpt>
      <trkpt lat="30.491675303330478" lon="114.42156585134596">
        <ele>42.849833531305194</ele>
        <time>2026-09-28T01:22:20Z</time>
      </trkpt>
      <trkpt lat="30.491348385859933" lon="114.42141896261192">
        <ele>40.635002926923335</ele>
        <time>2026-09-28T01:22:36Z</time>
      </trkpt>
      <trkpt lat="30.49117532252883" lon="114.42135432362218">
        <ele>40.420018701814115</ele>
        <time>2026-09-28T01:22:44Z</time>
      </trkpt>
      <trkpt lat="30.491081674872206" lon="114.42137032360691">
        <ele>40.02743582800031</ele>
        <time>2026-09-28T01:22:48Z</time>
      </trkpt>
      <trkpt lat="30.490811658896533" lon="114.42131396679152">
        <ele>39.23187834210694</ele>
        <time>2026-09-28T01:23:00Z</time>
      </trkpt>
      <trkpt lat="30.49074162574402" lon="114.42124463903708">
        <ele>39.61551065836102</ele>
        <time>2026-09-28T01:23:04Z</time>
      </trkpt>
      <trkpt lat="30.490587623248544" lon="114.421131138236">
        <ele>38.974631543271244</ele>
        <time>2026-09-28T01:23:12Z</time>
      </trkpt>
      <trkpt lat="30.490406082191605" lon="114.42105615666743">
        <ele>38.340107595548034</ele>
        <time>2026-09-28T01:23:20Z</time>
      </trkpt>
      <trkpt lat="30.49005891725505" lon="114.42097032034863">
        <ele>38.97073461767286</ele>
        <time>2026-09-28T01:23:36Z</time>
      </trkpt>
      <trkpt lat="30.48971606838048" lon="114.42086917366586">
        <ele>37.725223801098764</ele>
        <time>2026-09-28T01:23:52Z</time>
      </trkpt>
      <trkpt lat="30.489420495476935" lon="114.42080781736271">
        <ele>39.34222459234297</ele>
        <time>2026-09-28T01:24:05Z</time>
      </trkpt>
      <trkpt lat="30.489087436740125" lon="114.42074667290399">
        <ele>38.31986619532108</ele>
        <time>2026-09-28T01:24:20Z</time>
      </trkpt>
      <trkpt lat="30.489000651319227" lon="114.42077605387523">
        <ele>39.074231748469174</ele>
        <time>2026-09-28T01:24:24Z</time>
      </trkpt>
      <trkpt lat="30.488827638081737" lon="114.42076751884935">
        <ele>38.74590553808957</ele>
        <time>2026-09-28T01:24:32Z</time>
      </trkpt>
      <trkpt lat="30.488736049608008" lon="114.4207955237101">
        <ele>39.59021770861</ele>
        <time>2026-09-28T01:24:36Z</time>
      </trkpt>
      <trkpt lat="30.488456420154993" lon="114.42074450420897">
        <ele>39.951407827436924</ele>
        <time>2026-09-28T01:24:48Z</time>
      </trkpt>
      <trkpt lat="30.488370534187045" lon="114.42071099582202">
        <ele>39.34913911763579</ele>
        <time>2026-09-28T01:24:52Z</time>
      </trkpt>
      <trkpt lat="30.48820282649848" lon="114.42077567681295">
        <ele>39.27114363480359</ele>
        <time>2026-09-28T01:25:00Z</time>
      </trkpt>
      <trkpt lat="30.488123680064785" lon="114.42084422362579">
        <ele>39.19959725625813</ele>
        <time>2026-09-28T01:25:04Z</time>
      </trkpt>
      <trkpt lat="30.48807809560766" lon="114.42103438211">
        <ele>38.93602442834526</ele>
        <time>2026-09-28T01:25:12Z</time>
      </trkpt>
      <trkpt lat="30.48805743337255" lon="114.42135004260378">
        <ele>41.750998416915536</ele>
        <time>2026-09-28T01:25:24Z</time>
      </trkpt>
      <trkpt lat="30.48797305901399" lon="114.42153417349313">
        <ele>44.294230359606445</ele>
        <time>2026-09-28T01:25:32Z</time>
      </trkpt>
      <trkpt lat="30.48791086084855" lon="114.42191188434239">
        <ele>47.88459512870759</ele>
        <time>2026-09-28T01:25:48Z</time>
      </trkpt>
      <trkpt lat="30.487869928664427" lon="114.42200466198264">
        <ele>47.94788783788681</ele>
        <time>2026-09-28T01:25:52Z</time>
      </trkpt>
      <trkpt lat="30.487836526445946" lon="114.42238405258936">
        <ele>46.25264113768935</ele>
        <time>2026-09-28T01:26:09Z</time>
      </trkpt>
      <trkpt lat="30.487766738672487" lon="114.42279872377586">
        <ele>47.55059570260346</ele>
        <time>2026-09-28T01:26:24Z</time>
      </trkpt>
      <trkpt lat="30.4877677507231" lon="114.4229080045035">
        <ele>47.890868498943746</ele>
        <time>2026-09-28T01:26:28Z</time>
      </trkpt>
      <trkpt lat="30.487725167331973" lon="114.42310871137042">
        <ele>47.06151643674821</ele>
        <time>2026-09-28T01:26:36Z</time>
      </trkpt>
      <trkpt lat="30.48773175330243" lon="114.42322785593278">
        <ele>47.47722307499498</ele>
        <time>2026-09-28T01:26:40Z</time>
      </trkpt>
      <trkpt lat="30.487693805923133" lon="114.42332655347427">
        <ele>47.503524988889694</ele>
        <time>2026-09-28T01:26:44Z</time>
      </trkpt>
      <trkpt lat="30.487629193127894" lon="114.423607999821">
        <ele>45.29876023158431</ele>
        <time>2026-09-28T01:26:56Z</time>
      </trkpt>
      <trkpt lat="30.487597442383972" lon="114.42368349992377">
        <ele>44.27840103302151</ele>
        <time>2026-09-28T01:27:00Z</time>
      </trkpt>
      <trkpt lat="30.48773240656749" lon="114.42380091998425">
        <ele>44.045589469373226</ele>
        <time>2026-09-28T01:27:08Z</time>
      </trkpt>
      <trkpt lat="30.487864025736766" lon="114.42386748187208">
        <ele>43.692296360619366</ele>
        <time>2026-09-28T01:27:16Z</time>
      </trkpt>
    </trkseg>
  </trk>
</gpx>