<?xml version="1.0" encoding="UTF-8"?>
<gpx xmlns="http://www.topografix.com/GPX/1/1" xmlns:gpxtpx="http://www.garmin.com/xmlschemas/TrackPointExtension/v1" xmlns:xsi="http://www.w3.org/2001/XMLSchema-instance" xsi:schemaLocation="http://www.topografix.com/GPX/1/1 http://www.topografix.com/GPX/1/1/gpx.xsd" version="1.1" creator="gpx.py -- https://github.com/tkrajina/gpxpy">
  <trk>
    <name>gpx from keep</name>
    <type>Run</type>
    <trkseg>
      <trkpt lat="30.85823842602992" lon="114.80356890466727">
        <ele>36.94411849975586</ele>
        <time>2026-05-16T23:42:29Z</time>
      </trkpt>
      <trkpt lat="30.858521500846667" lon="114.80352808113423">
        <ele>39.256924021057785</ele>
        <time>2026-05-16T23:42:41Z</time>
      </trkpt>
      <trkpt lat="30.85884591381183" lon="114.80353868983156">
        <ele>39.865994094870985</ele>
        <time>2026-05-16T23:42:53Z</time>
      </trkpt>
      <trkpt lat="30.859171804083687" lon="114.8035333881381">
        <ele>30.528387687169015</ele>
        <time>2026-05-16T23:43:11Z</time>
      </trkpt>
      <trkpt lat="30.85949089210108" lon="114.80353754914901">
        <ele>30.943858975544572</ele>
        <time>2026-05-16T23:43:26Z</time>
      </trkpt>
      <trkpt lat="30.85976507066837" lon="114.80354553445271">
        <ele>30.735174872912467</ele>
        <time>2026-05-16T23:43:38Z</time>
      </trkpt>
      <trkpt lat="30.860045969361707" lon="114.80352287247051">
        <ele>29.63564875908196</ele>
        <time>2026-05-16T23:43:53Z</time>
      </trkpt>
      <trkpt lat="30.860371515741196" lon="114.80352903043836">
        <ele>31.31515498831868</ele>
        <time>2026-05-16T23:44:08Z</time>
      </trkpt>
      <trkpt lat="30.860693781262583" lon="114.8035263457195">
        <ele>30.128053160384297</ele>
        <time>2026-05-16T23:44:23Z</time>
      </trkpt>
      <trkpt lat="30.861037652377416" lon="114.80352103911787">
        <ele>31.237527658231556</ele>
        <time>2026-05-16T23:44:39Z</time>
      </trkpt>
      <trkpt lat="30.86138716324326" lon="114.80354820403758">
        <ele>28.992164615541697</ele>
        <time>2026-05-16T23:44:55Z</time>
      </trkpt>
      <trkpt lat="30.861538203774646" lon="114.80353408279431">
        <ele>29.538505150936544</ele>
        <time>2026-05-16T23:45:03Z</time>
      </trkpt>
      <trkpt lat="30.86162465916795" lon="114.80354857406117">
        <ele>29.158808769658208</ele>
        <time>2026-05-16T23:45:07Z</time>
      </trkpt>
      <trkpt lat="30.861868842403922" lon="114.8034862540455">
        <ele>31.313897512853146</ele>
        <time>2026-05-16T23:45:19Z</time>
      </trkpt>
      <trkpt lat="30.861972718612822" lon="114.80340015796159">
        <ele>23.965436745435</ele>
        <time>2026-05-16T23:45:27Z</time>
      </trkpt>
      <trkpt lat="30.861991172087155" lon="114.8031030608065">
        <ele>27.833334947936237</ele>
        <time>2026-05-16T23:45:39Z</time>
      </trkpt>
      <trkpt lat="30.862029493025904" lon="114.80289373333447">
        <ele>32.180494646541774</ele>
        <time>2026-05-16T23:45:47Z</time>
      </trkpt>
      <trkpt lat="30.862010104333034" lon="114.802725890915">
        <ele>29.40887870825827</ele>
        <time>2026-05-16T23:45:54Z</time>
      </trkpt>
      <trkpt lat="30.86204501892815" lon="114.8025112928636">
        <ele>30.74229195807129</ele>
        <time>2026-05-16T23:46:03Z</time>
      </trkpt>
      <trkpt lat="30.862116062675746" lon="114.80237795116835">
        <ele>28.61415122821927</ele>
        <time>2026-05-16T23:46:09Z</time>
      </trkpt>
      <trkpt lat="30.86213579741693" lon="114.8022512858747">
        <ele>24.495327638462186</ele>
        <time>2026-05-16T23:46:15Z</time>
      </trkpt>
      <trkpt lat="30.862127372984304" lon="114.80201201327166">
        <ele>27.015743982978165</ele>
        <time>2026-05-16T23:46:24Z</time>
      </trkpt>
      <trkpt lat="30.862143379349874" lon="114.80180010328168">
        <ele>27.28446895815432</ele>
        <time>2026-05-16T23:46:33Z</time>
      </trkpt>
      <trkpt lat="30.86211831056844" lon="114.80146560149052">
        <ele>25.926040918566287</ele>
        <time>2026-05-16T23:46:47Z</time>
      </trkpt>
      <trkpt lat="30.862098665195543" lon="114.80134475223191">
        <ele>27.34531923942268</ele>
        <time>2026-05-16T23:46:51Z</time>
      </trkpt>
      <trkpt lat="30.862118665106724" lon="114.80104860102851">
        <ele>28.724734866060317</ele>
        <time>2026-05-16T23:47:03Z</time>
      </trkpt>
      <trkpt lat="30.862132396784272" lon="114.80066530609199">
        <ele>28.582515173591673</ele>
        <time>2026-05-16T23:47:19Z</time>
      </trkpt>
      <trkpt lat="30.862149580328506" lon="114.80059010560397">
        <ele>27.49815490283072</ele>
        <time>2026-05-16T23:47:23Z</time>
      </trkpt>
      <trkpt lat="30.862139164076442" lon="114.80030291219668">
        <ele>28.514011304825544</ele>
        <time>2026-05-16T23:47:35Z</time>
      </trkpt>
      <trkpt lat="30.862163228519226" lon="114.79992237853816">
        <ele>25.670725289732218</ele>
        <time>2026-05-16T23:47:51Z</time>
      </trkpt>
      <trkpt lat="30.862156036180597" lon="114.79982268197327">
        <ele>26.301626255735755</ele>
        <time>2026-05-16T23:47:55Z</time>
      </trkpt>
      <trkpt lat="30.862254831649043" lon="114.79968882567894">
        <ele>27.587080523371696</ele>
        <time>2026-05-16T23:48:03Z</time>
      </trkpt>
      <trkpt lat="30.862338337636352" lon="114.7996571045967">
        <ele>29.053428773768246</ele>
        <time>2026-05-16T23:48:07Z</time>
      </trkpt>
      <trkpt lat="30.86267142857205" lon="114.79966981917077">
        <ele>28.10259446594864</ele>
        <time>2026-05-16T23:48:23Z</time>
      </trkpt>
      <trkpt lat="30.86295468005512" lon="114.79966859706231">
        <ele>30.240264516323805</ele>
        <time>2026-05-16T23:48:35Z</time>
      </trkpt>
      <trkpt lat="30.86325880434681" lon="114.79969183778046">
        <ele>30.73524334654212</ele>
        <time>2026-05-16T23:48:50Z</time>
      </trkpt>
      <trkpt lat="30.863532200130443" lon="114.79969098219192">
        <ele>32.409930559806526</ele>
        <time>2026-05-16T23:49:02Z</time>
      </trkpt>
      <trkpt lat="30.863851044300308" lon="114.79969452909732">
        <ele>31.31854966841638</ele>
        <time>2026-05-16T23:49:18Z</time>
      </trkpt>
      <trkpt lat="30.864175516781984" lon="114.7997182025076">
        <ele>31.36357265524566</ele>
        <time>2026-05-16T23:49:34Z</time>
      </trkpt>
      <trkpt lat="30.864347062516025" lon="114.79972607701151">
        <ele>31.0890997890383</ele>
        <time>2026-05-16T23:49:42Z</time>
      </trkpt>
      <trkpt lat="30.864429487253027" lon="114.79970339080948">
        <ele>31.699289068579674</ele>
        <time>2026-05-16T23:49:46Z</time>
      </trkpt>
      <trkpt lat="30.864732901623007" lon="114.79970642974457">
        <ele>31.82815535645932</ele>
        <time>2026-05-16T23:50:02Z</time>
      </trkpt>
      <trkpt lat="30.86491699585392" lon="114.79973237053089">
        <ele>29.779006112366915</ele>
        <time>2026-05-16T23:50:10Z</time>
      </trkpt>
      <trkpt lat="30.864932400524232" lon="114.79984316285538">
        <ele>29.230438937433064</ele>
        <time>2026-05-16T23:50:14Z</time>
      </trkpt>
      <trkpt lat="30.864837493290064" lon="114.80022469583578">
        <ele>27.671220627613366</ele>
        <time>2026-05-16T23:50:30Z</time>
      </trkpt>
      <trkpt lat="30.86473080796908" lon="114.80061562608604">
        <ele>27.8062896579504</ele>
        <time>2026-05-16T23:50:46Z</time>
      </trkpt>
      <trkpt lat="30.864642249927613" lon="114.80094908393625">
        <ele>29.96552399918437</ele>
        <time>2026-05-16T23:51:00Z</time>
      </trkpt>
      <trkpt lat="30.864553824241412" lon="114.80131069757937">
        <ele>29.389903430826962</ele>
        <time>2026-05-16T23:51:16Z</time>
      </trkpt>
      <trkpt lat="30.864461006187064" lon="114.80165894185035">
        <ele>29.109759411774576</ele>
        <time>2026-05-16T23:51:31Z</time>
      </trkpt>
      <trkpt lat="30.864441676157455" lon="114.80175194100701">
        <ele>29.633547268807888</ele>
        <time>2026-05-16T23:51:35Z</time>
      </trkpt>
      <trkpt lat="30.864405528534828" lon="114.80183638779968">
        <ele>29.166416664607823</ele>
        <time>2026-05-16T23:51:39Z</time>
      </trkpt>
      <trkpt lat="30.864321844849215" lon="114.80221344433457">
        <ele>30.052302669733763</ele>
        <time>2026-05-16T23:51:55Z</time>
      </trkpt>
      <trkpt lat="30.864320380700747" lon="114.8023123777079">
        <ele>29.015455628745258</ele>
        <time>2026-05-16T23:51:59Z</time>
      </trkpt>
      <trkpt lat="30.864305290835603" lon="114.80236409720122">
        <ele>28.421715422533453</ele>
        <time>2026-05-16T23:52:02Z</time>
      </trkpt>
      <trkpt lat="30.8643021984072" lon="114.80247414697871">
        <ele>29.272490243427455</ele>
        <time>2026-05-16T23:52:06Z</time>
      </trkpt>
      <trkpt lat="30.86421030924357" lon="114.80279517820578">
        <ele>31.76795377302915</ele>
        <time>2026-05-16T23:52:18Z</time>
      </trkpt>
      <trkpt lat="30.86411266199528" lon="114.80317040126762">
        <ele>29.272466397844255</ele>
        <time>2026-05-16T23:52:34Z</time>
      </trkpt>
      <trkpt lat="30.864040243779534" lon="114.80348629262105">
        <ele>31.458348494023085</ele>
        <time>2026-05-16T23:52:46Z</time>
      </trkpt>
      <trkpt lat="30.86395424290545" lon="114.80385612187355">
        <ele>31.926307702437043</ele>
        <time>2026-05-16T23:53:01Z</time>
      </trkpt>
      <trkpt lat="30.863922110392515" lon="114.80404379555122">
        <ele>31.727880142629147</ele>
        <time>2026-05-16T23:53:09Z</time>
      </trkpt>
      <trkpt lat="30.863810160244384" lon="114.80439160935319">
        <ele>29.56622730847448</ele>
        <time>2026-05-16T23:53:24Z</time>
      </trkpt>
      <trkpt lat="30.86377086301055" lon="114.80457877797295">
        <ele>31.078948905691504</ele>
        <time>2026-05-16T23:53:32Z</time>
      </trkpt>
      <trkpt lat="30.8636642782615" lon="114.80492514374642">
        <ele>30.762080150656402</ele>
        <time>2026-05-16T23:53:48Z</time>
      </trkpt>
      <trkpt lat="30.863581089004924" lon="114.80528723764769">
        <ele>31.2340445285663</ele>
        <time>2026-05-16T23:54:04Z</time>
      </trkpt>
      <trkpt lat="30.863510549347208" lon="114.80554798716805">
        <ele>32.162267847917974</ele>
        <time>2026-05-16T23:54:16Z</time>
      </trkpt>
      <trkpt lat="30.863480497824465" lon="114.80574740832674">
        <ele>31.382050406187773</ele>
        <time>2026-05-16T23:54:24Z</time>
      </trkpt>
      <trkpt lat="30.86348150518294" lon="114.80585064718176">
        <ele>32.02654063049704</ele>
        <time>2026-05-16T23:54:28Z</time>
      </trkpt>
      <trkpt lat="30.86345362767054" lon="114.80603869746757">
        <ele>32.13458686135709</ele>
        <time>2026-05-16T23:54:36Z</time>
      </trkpt>
      <trkpt lat="30.863394791505492" lon="114.80619365542054">
        <ele>28.620756378397346</ele>
        <time>2026-05-16T23:54:44Z</time>
      </trkpt>
      <trkpt lat="30.863391969793092" lon="114.80640215850565">
        <ele>29.507363309152424</ele>
        <time>2026-05-16T23:54:52Z</time>
      </trkpt>
      <trkpt lat="30.863333351456745" lon="114.80678220702451">
        <ele>28.863369833678007</ele>
        <time>2026-05-16T23:55:09Z</time>
      </trkpt>
      <trkpt lat="30.86329251118515" lon="114.80710666309682">
        <ele>29.2246174486354</ele>
        <time>2026-05-16T23:55:22Z</time>
      </trkpt>
      <trkpt lat="30.863256682796692" lon="114.80726187423959">
        <ele>29.807692690752447</ele>
        <time>2026-05-16T23:55:28Z</time>
      </trkpt>
      <trkpt lat="30.863243159781224" lon="114.80741981830715">
        <ele>30.873562623746693</ele>
        <time>2026-05-16T23:55:34Z</time>
      </trkpt>
      <trkpt lat="30.863255692293343" lon="114.80756235679776">
        <ele>31.67569258902222</ele>
        <time>2026-05-16T23:55:40Z</time>
      </trkpt>
      <trkpt lat="30.86321909032358" lon="114.80783724747698">
        <ele>31.451759264804423</ele>
        <time>2026-05-16T23:55:52Z</time>
      </trkpt>
      <trkpt lat="30.863166836198737" lon="114.80800305047576">
        <ele>31.238667487166822</ele>
        <time>2026-05-16T23:55:59Z</time>
      </trkpt>
      <trkpt lat="30.863143689283586" lon="114.80820642985601">
        <ele>30.76226417440921</ele>
        <time>2026-05-16T23:56:07Z</time>
      </trkpt>
      <trkpt lat="30.863117157062277" lon="114.80829303750699">
        <ele>29.740551684051752</ele>
        <time>2026-05-16T23:56:11Z</time>
      </trkpt>
      <trkpt lat="30.863117873977053" lon="114.80839279435548">
        <ele>30.949110463261604</ele>
        <time>2026-05-16T23:56:15Z</time>
      </trkpt>
      <trkpt lat="30.863077510668393" lon="114.80855503583841">
        <ele>30.88935086596757</ele>
        <time>2026-05-16T23:56:22Z</time>
      </trkpt>
      <trkpt lat="30.863074093867723" lon="114.80873803525184">
        <ele>29.507301934994757</ele>
        <time>2026-05-16T23:56:30Z</time>
      </trkpt>
      <trkpt lat="30.863054997996947" lon="114.8088417590785">
        <ele>29.90574814286083</ele>
        <time>2026-05-16T23:56:34Z</time>
      </trkpt>
      <trkpt lat="30.863012233875974" lon="114.80893288392696">
        <ele>30.76904601790011</ele>
        <time>2026-05-16T23:56:38Z</time>
      </trkpt>
      <trkpt lat="30.862855371490856" lon="114.8090037262377">
        <ele>30.505045410245657</ele>
        <time>2026-05-16T23:56:46Z</time>
      </trkpt>
      <trkpt lat="30.86268967277223" lon="114.80902783898313">
        <ele>29.14690642338246</ele>
        <time>2026-05-16T23:56:54Z</time>
      </trkpt>
      <trkpt lat="30.862598384485256" lon="114.80906890865485">
        <ele>30.346390850842</ele>
        <time>2026-05-16T23:56:58Z</time>
      </trkpt>
      <trkpt lat="30.86229534403179" lon="114.8091268073235">
        <ele>30.408223615959287</ele>
        <time>2026-05-16T23:57:13Z</time>
      </trkpt>
      <trkpt lat="30.86221391581064" lon="114.80916173466136">
        <ele>30.87809088267386</ele>
        <time>2026-05-16T23:57:17Z</time>
      </trkpt>
      <trkpt lat="30.862125307778502" lon="114.8091699486359">
        <ele>30.655744635500014</ele>
        <time>2026-05-16T23:57:21Z</time>
      </trkpt>
      <trkpt lat="30.86195787348253" lon="114.80922507106958">
        <ele>30.481773681007326</ele>
        <time>2026-05-16T23:57:29Z</time>
      </trkpt>
      <trkpt lat="30.86177978496353" lon="114.80923606591716">
        <ele>31.675493399612606</ele>
        <time>2026-05-16T23:57:37Z</time>
      </trkpt>
      <trkpt lat="30.861460409942826" lon="114.8093410550223">
        <ele>30.22510554175824</ele>
        <time>2026-05-16T23:57:53Z</time>
      </trkpt>
      <trkpt lat="30.861215775751745" lon="114.8094124398198">
        <ele>30.06998377479613</ele>
        <time>2026-05-16T23:58:05Z</time>
      </trkpt>
      <trkpt lat="30.860971070586476" lon="114.80945287243458">
        <ele>31.120408286340535</ele>
        <time>2026-05-16T23:58:17Z</time>
      </trkpt>
      <trkpt lat="30.860727472492698" lon="114.80954976188778">
        <ele>28.374430512078106</ele>
        <time>2026-05-16T23:58:29Z</time>
      </trkpt>
      <trkpt lat="30.8605861560076" lon="114.809564649339">
        <ele>26.667593005113304</ele>
        <time>2026-05-16T23:58:37Z</time>
      </trkpt>
      <trkpt lat="30.8604186726187" lon="114.80962453452415">
        <ele>31.155249354429543</ele>
        <time>2026-05-16T23:58:45Z</time>
      </trkpt>
      <trkpt lat="30.860101634673466" lon="114.80968652933369">
        <ele>30.328483691439033</ele>
        <time>2026-05-16T23:59:01Z</time>
      </trkpt>
      <trkpt lat="30.85979526981676" lon="114.80975719023542">
        <ele>31.78268138039857</ele>
        <time>2026-05-16T23:59:16Z</time>
      </trkpt>
      <trkpt lat="30.859567369275563" lon="114.80980720861322">
        <ele>31.44741030409932</ele>
        <time>2026-05-16T23:59:28Z</time>
      </trkpt>
      <trkpt lat="30.8592540961641" lon="114.80990794659195">
        <ele>33.40807480737567</ele>
        <time>2026-05-16T23:59:44Z</time>
      </trkpt>
      <trkpt lat="30.85892635263755" lon="114.80998161502633">
        <ele>32.00963408127427</ele>
        <time>2026-05-17T00:00:00Z</time>
      </trkpt>
      <trkpt lat="30.85878618494885" lon="114.81003881152421">
        <ele>33.38569279946387</ele>
        <time>2026-05-17T00:00:08Z</time>
      </trkpt>
      <trkpt lat="30.8584929038732" lon="114.81012140837213">
        <ele>34.63222109992057</ele>
        <time>2026-05-17T00:00:24Z</time>
      </trkpt>
      <trkpt lat="30.858176462189743" lon="114.8102050746968">
        <ele>34.20369204878807</ele>
        <time>2026-05-17T00:00:40Z</time>
      </trkpt>
      <trkpt lat="30.85788743503163" lon="114.81025745512316">
        <ele>35.10365443304181</ele>
        <time>2026-05-17T00:00:55Z</time>
      </trkpt>
      <trkpt lat="30.85759356092059" lon="114.81034830642854">
        <ele>34.168178057298064</ele>
        <time>2026-05-17T00:01:11Z</time>
      </trkpt>
      <trkpt lat="30.857433673432624" lon="114.81037217018513">
        <ele>34.84128892235458</ele>
        <time>2026-05-17T00:01:19Z</time>
      </trkpt>
      <trkpt lat="30.857131329841383" lon="114.81046832521622">
        <ele>35.94061470404267</ele>
        <time>2026-05-17T00:01:35Z</time>
      </trkpt>
      <trkpt lat="30.85680706116067" lon="114.81055997890027">
        <ele>38.67712434288114</ele>
        <time>2026-05-17T00:01:53Z</time>
      </trkpt>
      <trkpt lat="30.856612305812792" lon="114.81037796617092">
        <ele>36.59761561173946</ele>
        <time>2026-05-17T00:02:05Z</time>
      </trkpt>
      <trkpt lat="30.85651113887605" lon="114.810190272631">
        <ele>35.64132504630834</ele>
        <time>2026-05-17T00:02:13Z</time>
      </trkpt>
      <trkpt lat="30.85653179590503" lon="114.80980598615352">
        <ele>35.761927706189454</ele>
        <time>2026-05-17T00:02:28Z</time>
      </trkpt>
      <trkpt lat="30.85653517278758" lon="114.80961450848301">
        <ele>36.37428331654519</ele>
        <time>2026-05-17T00:02:36Z</time>
      </trkpt>
      <trkpt lat="30.85656708236439" lon="114.80925780723335">
        <ele>33.79532458726317</ele>
        <time>2026-05-17T00:02:52Z</time>
      </trkpt>
      <trkpt lat="30.85658456679727" lon="114.80888608567943">
        <ele>31.327095075510442</ele>
        <time>2026-05-17T00:03:08Z</time>
      </trkpt>
      <trkpt lat="30.85657662823146" lon="114.8087845941558">
        <ele>31.958551078103483</ele>
        <time>2026-05-17T00:03:12Z</time>
      </trkpt>
      <trkpt lat="30.856623501520126" lon="114.80863912483855">
        <ele>30.292823790572584</ele>
        <time>2026-05-17T00:03:20Z</time>
      </trkpt>
      <trkpt lat="30.85662446203144" lon="114.80843412468428">
        <ele>32.126189798116684</ele>
        <time>2026-05-17T00:03:30Z</time>
      </trkpt>
      <trkpt lat="30.856694769691305" lon="114.80814361210949">
        <ele>30.5504445200786</ele>
        <time>2026-05-17T00:03:45Z</time>
      </trkpt>
      <trkpt lat="30.856782021692307" lon="114.80805107121758">
        <ele>29.677904351614416</ele>
        <time>2026-05-17T00:03:54Z</time>
      </trkpt>
      <trkpt lat="30.856828950653416" lon="114.80802535487709">
        <ele>28.603997018188238</ele>
        <time>2026-05-17T00:03:57Z</time>
      </trkpt>
      <trkpt lat="30.857068080214297" lon="114.80803792049102">
        <ele>30.99196596071124</ele>
        <time>2026-05-17T00:04:12Z</time>
      </trkpt>
      <trkpt lat="30.857192826538352" lon="114.80801883093241">
        <ele>31.878714189864695</ele>
        <time>2026-05-17T00:04:20Z</time>
      </trkpt>
      <trkpt lat="30.857064601366602" lon="114.80800717317774">
        <ele>32.31200776435435</ele>
        <time>2026-05-17T00:04:40Z</time>
      </trkpt>
      <trkpt lat="30.8570015844937" lon="114.80797597614325">
        <ele>31.299242159351707</ele>
        <time>2026-05-17T00:04:48Z</time>
      </trkpt>
      <trkpt lat="30.856925167957048" lon="114.80798352325156">
        <ele>31.5671075405553</ele>
        <time>2026-05-17T00:04:56Z</time>
      </trkpt>
      <trkpt lat="30.85683044038873" lon="114.80795405793842">
        <ele>32.38243621960282</ele>
        <time>2026-05-17T00:05:03Z</time>
      </trkpt>
      <trkpt lat="30.856789426111327" lon="114.80790881702825">
        <ele>30.933905518613756</ele>
        <time>2026-05-17T00:05:07Z</time>
      </trkpt>
      <trkpt lat="30.85673815006721" lon="114.80768190879017">
        <ele>31.829222783446312</ele>
        <time>2026-05-17T00:05:15Z</time>
      </trkpt>
      <trkpt lat="30.85669037653938" lon="114.80757483395269">
        <ele>30.93356711883098</ele>
        <time>2026-05-17T00:05:19Z</time>
      </trkpt>
      <trkpt lat="30.85665191436514" lon="114.80733448553542">
        <ele>31.812135917134583</ele>
        <time>2026-05-17T00:05:27Z</time>
      </trkpt>
      <trkpt lat="30.856676212866617" lon="114.80699494786757">
        <ele>29.2800431586802</ele>
        <time>2026-05-17T00:05:42Z</time>
      </trkpt>
      <trkpt lat="30.85668975312656" lon="114.80665268688823">
        <ele>29.29040578287095</ele>
        <time>2026-05-17T00:05:54Z</time>
      </trkpt>
      <trkpt lat="30.85669017115574" lon="114.80629166281558">
        <ele>31.458164517767727</ele>
        <time>2026-05-17T00:06:06Z</time>
      </trkpt>
      <trkpt lat="30.856714019522226" lon="114.80596174517461">
        <ele>30.09663025010377</ele>
        <time>2026-05-17T00:06:18Z</time>
      </trkpt>
      <trkpt lat="30.85671840429935" lon="114.80563421866827">
        <ele>30.5478375274688</ele>
        <time>2026-05-17T00:06:30Z</time>
      </trkpt>
      <trkpt lat="30.856726029867403" lon="114.80520840328282">
        <ele>30.13498657476157</ele>
        <time>2026-05-17T00:06:46Z</time>
      </trkpt>
      <trkpt lat="30.856745457206095" lon="114.80482198324312">
        <ele>28.97526390478015</ele>
        <time>2026-05-17T00:07:01Z</time>
      </trkpt>
      <trkpt lat="30.856748228542376" lon="114.80460892944593">
        <ele>29.043190504424274</ele>
        <time>2026-05-17T00:07:09Z</time>
      </trkpt>
      <trkpt lat="30.85679412033575" lon="114.80436051945757">
        <ele>22.65743826236576</ele>
        <time>2026-05-17T00:07:21Z</time>
      </trkpt>
      <trkpt lat="30.85677817037448" lon="114.80423435703761">
        <ele>25.671766102313995</ele>
        <time>2026-05-17T00:07:25Z</time>
      </trkpt>
      <trkpt lat="30.85678500313957" lon="114.8039151045316">
        <ele>28.5167343840003</ele>
        <time>2026-05-17T00:07:37Z</time>
      </trkpt>
      <trkpt lat="30.85679053670151" lon="114.80372410592803">
        <ele>29.8876064568758</ele>
        <time>2026-05-17T00:07:44Z</time>
      </trkpt>
      <trkpt lat="30.85685088019296" lon="114.80353812346266">
        <ele>27.413983234204352</ele>
        <time>2026-05-17T00:07:52Z</time>
      </trkpt>
      <trkpt lat="30.85679227242672" lon="114.8031483797276">
        <ele>31.061350652948022</ele>
        <time>2026-05-17T00:08:07Z</time>
      </trkpt>
      <trkpt lat="30.85680516323701" lon="114.80278677508387">
        <ele>30.04738058708608</ele>
        <time>2026-05-17T00:08:22Z</time>
      </trkpt>
      <trkpt lat="30.856807190801877" lon="114.80243157649161">
        <ele>30.602321305312216</ele>
        <time>2026-05-17T00:08:36Z</time>
      </trkpt>
      <trkpt lat="30.856832850297256" lon="114.8023452818767">
        <ele>30.35164991673082</ele>
        <time>2026-05-17T00:08:40Z</time>
      </trkpt>
      <trkpt lat="30.8568225549934" lon="114.80215129601811">
        <ele>30.097753738984466</ele>
        <time>2026-05-17T00:08:48Z</time>
      </trkpt>
      <trkpt lat="30.856833642806293" lon="114.80174240045355">
        <ele>30.303620566613972</ele>
        <time>2026-05-17T00:09:04Z</time>
      </trkpt>
      <trkpt lat="30.856861056349377" lon="114.80134712303449">
        <ele>28.129360209219158</ele>
        <time>2026-05-17T00:09:20Z</time>
      </trkpt>
      <trkpt lat="30.85685290657159" lon="114.80100429251853">
        <ele>29.70015984494239</ele>
        <time>2026-05-17T00:09:32Z</time>
      </trkpt>
      <trkpt lat="30.856868727076513" lon="114.80063163995177">
        <ele>30.43862663488835</ele>
        <time>2026-05-17T00:09:47Z</time>
      </trkpt>
      <trkpt lat="30.856884339750618" lon="114.80046274254019">
        <ele>27.442299879156053</ele>
        <time>2026-05-17T00:09:55Z</time>
      </trkpt>
      <trkpt lat="30.85684366611841" lon="114.8001342847675">
        <ele>31.358975464478135</ele>
        <time>2026-05-17T00:10:07Z</time>
      </trkpt>
      <trkpt lat="30.85682662636749" lon="114.79982126597382">
        <ele>32.65637179184705</ele>
        <time>2026-05-17T00:10:19Z</time>
      </trkpt>
      <trkpt lat="30.85686309253169" lon="114.79957717165316">
        <ele>25.018228571861982</ele>
        <time>2026-05-17T00:10:31Z</time>
      </trkpt>
      <trkpt lat="30.856852610455263" lon="114.7993790181627">
        <ele>28.514193054288626</ele>
        <time>2026-05-17T00:10:39Z</time>
      </trkpt>
      <trkpt lat="30.85678055106926" lon="114.79930225075466">
        <ele>30.808619225397706</ele>
        <time>2026-05-17T00:10:43Z</time>
      </trkpt>
      <trkpt lat="30.856695359351214" lon="114.79931540647657">
        <ele>30.270552726462483</ele>
        <time>2026-05-17T00:10:47Z</time>
      </trkpt>
      <trkpt lat="30.85638894894633" lon="114.7993056875312">
        <ele>31.454772946424782</ele>
        <time>2026-05-17T00:11:03Z</time>
      </trkpt>
      <trkpt lat="30.856104135442155" lon="114.79932612733695">
        <ele>32.52906176727265</ele>
        <time>2026-05-17T00:11:15Z</time>
      </trkpt>
      <trkpt lat="30.85576214505121" lon="114.79932753652824">
        <ele>32.6945810392499</ele>
        <time>2026-05-17T00:11:31Z</time>
      </trkpt>
      <trkpt lat="30.85558545346958" lon="114.79933112362326">
        <ele>33.197676974348724</ele>
        <time>2026-05-17T00:11:39Z</time>
      </trkpt>
      <trkpt lat="30.855448301286874" lon="114.79931600701862">
        <ele>32.926876292563975</ele>
        <time>2026-05-17T00:11:47Z</time>
      </trkpt>
      <trkpt lat="30.855448301286874" lon="114.79931600701862">
        <ele>32.926876292563975</ele>
        <time>2026-05-17T00:11:47Z</time>
      </trkpt>
    </trkseg>
  </trk>
</gpx>