<?xml version="1.0" encoding="UTF-8"?>
<gpx xmlns="http://www.topografix.com/GPX/1/1" xmlns:gpxtpx="http://www.garmin.com/xmlschemas/TrackPointExtension/v1" xmlns:xsi="http://www.w3.org/2001/XMLSchema-instance" xsi:schemaLocation="http://www.topografix.com/GPX/1/1 http://www.topografix.com/GPX/1/1/gpx.xsd" version="1.1" creator="gpx.py -- https://github.com/tkrajina/gpxpy">
  <trk>
    <name>gpx from keep</name>
    <type>Run</type>
    <trkseg>
      <trkpt lat="30.492438571513482" lon="114.4223321315209">
        <ele>46.97068969726563</ele>
        <time>2026-03-30T00:44:42Z</time>
      </trkpt>
      <trkpt lat="30.492436391481696" lon="114.42220854590475">
        <ele>47.17562745943889</ele>
        <time>2026-03-30T00:46:42Z</time>
      </trkpt>
      <trkpt lat="30.492459737339768" lon="114.42216312243552">
        <ele>47.75027770996094</ele>
        <time>2026-03-30T00:57:38Z</time>
      </trkpt>
    </trkseg>
  </trk>
</gpx>