<?xml version="1.0" encoding="UTF-8"?>
<gpx xmlns="http://www.topografix.com/GPX/1/1" xmlns:gpxtpx="http://www.garmin.com/xmlschemas/TrackPointExtension/v1" xmlns:xsi="http://www.w3.org/2001/XMLSchema-instance" xsi:schemaLocation="http://www.topografix.com/GPX/1/1 http://www.topografix.com/GPX/1/1/gpx.xsd" version="1.1" creator="gpx.py -- https://github.com/tkrajina/gpxpy">
  <trk>
    <name>gpx from keep</name>
    <type>Run</type>
    <trkseg>
      <trkpt lat="30.456768305193695" lon="114.42858956141167">
        <ele>0.0</ele>
        <time>2021-05-16T22:58:54Z</time>
      </trkpt>
      <trkpt lat="30.456707437520475" lon="114.4286727379323">
        <ele>0.0</ele>
        <time>2021-05-16T22:58:59Z</time>
      </trkpt>
      <trkpt lat="30.456731578598013" lon="114.42877695086368">
        <ele>0.0</ele>
        <time>2021-05-16T22:59:04Z</time>
      </trkpt>
      <trkpt lat="30.456761714368028" lon="114.4288781575633">
        <ele>0.0</ele>
        <time>2021-05-16T22:59:08Z</time>
      </trkpt>
      <trkpt lat="30.456726886795696" lon="114.42899339950199">
        <ele>0.0</ele>
        <time>2021-05-16T22:59:14Z</time>
      </trkpt>
      <trkpt lat="30.45678503650007" lon="114.42910863399989">
        <ele>0.0</ele>
        <time>2021-05-16T22:59:18Z</time>
      </trkpt>
      <trkpt lat="30.45683920498795" lon="114.42923589456633">
        <ele>0.0</ele>
        <time>2021-05-16T22:59:23Z</time>
      </trkpt>
      <trkpt lat="30.456923314783058" lon="114.4293270778107">
        <ele>0.0</ele>
        <time>2021-05-16T22:59:27Z</time>
      </trkpt>
      <trkpt lat="30.45692949790189" lon="114.42945534595097">
        <ele>0.0</ele>
        <time>2021-05-16T22:59:30Z</time>
      </trkpt>
      <trkpt lat="30.45697563833975" lon="114.42956056292432">
        <ele>0.0</ele>
        <time>2021-05-16T22:59:34Z</time>
      </trkpt>
      <trkpt lat="30.457010792174323" lon="114.42967279615578">
        <ele>0.0</ele>
        <time>2021-05-16T22:59:39Z</time>
      </trkpt>
      <trkpt lat="30.456955996814656" lon="114.42980407802365">
        <ele>0.0</ele>
        <time>2021-05-16T22:59:43Z</time>
      </trkpt>
      <trkpt lat="30.45696215466702" lon="114.42991330868128">
        <ele>0.0</ele>
        <time>2021-05-16T22:59:47Z</time>
      </trkpt>
      <trkpt lat="30.456997296939136" lon="114.43001652461207">
        <ele>0.0</ele>
        <time>2021-05-16T22:59:50Z</time>
      </trkpt>
      <trkpt lat="30.457036454856965" lon="114.43013076416212">
        <ele>0.0</ele>
        <time>2021-05-16T22:59:54Z</time>
      </trkpt>
      <trkpt lat="30.45704862452001" lon="114.43024801308115">
        <ele>0.0</ele>
        <time>2021-05-16T22:59:59Z</time>
      </trkpt>
      <trkpt lat="30.45704378863579" lon="114.43035824910524">
        <ele>0.0</ele>
        <time>2021-05-16T23:00:04Z</time>
      </trkpt>
      <trkpt lat="30.457077952408092" lon="114.43047449521227">
        <ele>0.0</ele>
        <time>2021-05-16T23:00:09Z</time>
      </trkpt>
      <trkpt lat="30.457072123783774" lon="114.43058874110775">
        <ele>0.0</ele>
        <time>2021-05-16T23:00:15Z</time>
      </trkpt>
      <trkpt lat="30.457098266723413" lon="114.43068895459537">
        <ele>0.0</ele>
        <time>2021-05-16T23:00:19Z</time>
      </trkpt>
      <trkpt lat="30.457157389800365" lon="114.43078114837535">
        <ele>0.0</ele>
        <time>2021-05-16T23:00:22Z</time>
      </trkpt>
      <trkpt lat="30.45718956063022" lon="114.43090040345461">
        <ele>0.0</ele>
        <time>2021-05-16T23:00:26Z</time>
      </trkpt>
      <trkpt lat="30.45718073326956" lon="114.43101364969957">
        <ele>0.0</ele>
        <time>2021-05-16T23:00:35Z</time>
      </trkpt>
      <trkpt lat="30.457180910243263" lon="114.43113090448061">
        <ele>0.0</ele>
        <time>2021-05-16T23:00:40Z</time>
      </trkpt>
      <trkpt lat="30.457204110903824" lon="114.43126719944378">
        <ele>0.0</ele>
        <time>2021-05-16T23:00:43Z</time>
      </trkpt>
      <trkpt lat="30.45724925951787" lon="114.43137242539984">
        <ele>0.0</ele>
        <time>2021-05-16T23:00:46Z</time>
      </trkpt>
      <trkpt lat="30.45728443251193" lon="114.43149168349039">
        <ele>0.0</ele>
        <time>2021-05-16T23:00:51Z</time>
      </trkpt>
      <trkpt lat="30.457301606003583" lon="114.43160793719166">
        <ele>0.0</ele>
        <time>2021-05-16T23:00:56Z</time>
      </trkpt>
      <trkpt lat="30.457310786678597" lon="114.43172719883475">
        <ele>0.0</ele>
        <time>2021-05-16T23:01:01Z</time>
      </trkpt>
      <trkpt lat="30.457334951820236" lon="114.43183844212753">
        <ele>0.0</ele>
        <time>2021-05-16T23:01:06Z</time>
      </trkpt>
      <trkpt lat="30.457356132165412" lon="114.43195870621757">
        <ele>0.0</ele>
        <time>2021-05-16T23:01:11Z</time>
      </trkpt>
      <trkpt lat="30.457329328258563" lon="114.43208097958323">
        <ele>0.0</ele>
        <time>2021-05-16T23:01:16Z</time>
      </trkpt>
      <trkpt lat="30.457236440251705" lon="114.4321381145067">
        <ele>0.0</ele>
        <time>2021-05-16T23:01:21Z</time>
      </trkpt>
      <trkpt lat="30.457133540848186" lon="114.43218623038223">
        <ele>0.0</ele>
        <time>2021-05-16T23:01:27Z</time>
      </trkpt>
      <trkpt lat="30.457042611997206" lon="114.43221730739667">
        <ele>0.0</ele>
        <time>2021-05-16T23:01:32Z</time>
      </trkpt>
      <trkpt lat="30.45693168662711" lon="114.4322473839568">
        <ele>0.0</ele>
        <time>2021-05-16T23:01:37Z</time>
      </trkpt>
      <trkpt lat="30.456826775405457" lon="114.43228748237436">
        <ele>0.0</ele>
        <time>2021-05-16T23:01:42Z</time>
      </trkpt>
      <trkpt lat="30.456728834333216" lon="114.43230954002397">
        <ele>0.0</ele>
        <time>2021-05-16T23:01:48Z</time>
      </trkpt>
      <trkpt lat="30.456637894649173" lon="114.43233360156088">
        <ele>0.0</ele>
        <time>2021-05-16T23:01:53Z</time>
      </trkpt>
      <trkpt lat="30.456531930557016" lon="114.43233962416461">
        <ele>0.0</ele>
        <time>2021-05-16T23:01:58Z</time>
      </trkpt>
      <trkpt lat="30.45644097679323" lon="114.43235466560034">
        <ele>0.0</ele>
        <time>2021-05-16T23:02:02Z</time>
      </trkpt>
      <trkpt lat="30.45635106664981" lon="114.43239776963095">
        <ele>0.0</ele>
        <time>2021-05-16T23:02:06Z</time>
      </trkpt>
      <trkpt lat="30.456259127268705" lon="114.43242183135145">
        <ele>0.0</ele>
        <time>2021-05-16T23:02:11Z</time>
      </trkpt>
      <trkpt lat="30.4561561859426" lon="114.43244288732859">
        <ele>0.0</ele>
        <time>2021-05-16T23:02:17Z</time>
      </trkpt>
      <trkpt lat="30.456068291141946" lon="114.4324960137916">
        <ele>0.0</ele>
        <time>2021-05-16T23:02:23Z</time>
      </trkpt>
      <trkpt lat="30.4559663574725" lon="114.43252208097582">
        <ele>0.0</ele>
        <time>2021-05-16T23:02:29Z</time>
      </trkpt>
      <trkpt lat="30.455869383248473" lon="114.43252309162693">
        <ele>0.0</ele>
        <time>2021-05-16T23:02:34Z</time>
      </trkpt>
      <trkpt lat="30.455765440646115" lon="114.4325431455423">
        <ele>0.0</ele>
        <time>2021-05-16T23:02:39Z</time>
      </trkpt>
      <trkpt lat="30.45566454139328" lon="114.43259126213577">
        <ele>0.0</ele>
        <time>2021-05-16T23:02:44Z</time>
      </trkpt>
      <trkpt lat="30.455565597579977" lon="114.4326113156801">
        <ele>0.0</ele>
        <time>2021-05-16T23:02:49Z</time>
      </trkpt>
      <trkpt lat="30.455456645226757" lon="114.43262435436314">
        <ele>0.0</ele>
        <time>2021-05-16T23:02:54Z</time>
      </trkpt>
      <trkpt lat="30.45535670324674" lon="114.43264541027452">
        <ele>0.0</ele>
        <time>2021-05-16T23:03:00Z</time>
      </trkpt>
      <trkpt lat="30.45525780049784" lon="114.4326915224143">
        <ele>0.0</ele>
        <time>2021-05-16T23:03:06Z</time>
      </trkpt>
      <trkpt lat="30.455160829371952" lon="114.43269453757752">
        <ele>0.0</ele>
        <time>2021-05-16T23:03:11Z</time>
      </trkpt>
      <trkpt lat="30.45507189417062" lon="114.43272160612453">
        <ele>0.0</ele>
        <time>2021-05-16T23:03:16Z</time>
      </trkpt>
      <trkpt lat="30.454967948486455" lon="114.43273965571176">
        <ele>0.0</ele>
        <time>2021-05-16T23:03:21Z</time>
      </trkpt>
      <trkpt lat="30.454884031068094" lon="114.4327787509541">
        <ele>0.0</ele>
        <time>2021-05-16T23:03:26Z</time>
      </trkpt>
      <trkpt lat="30.45478907050293" lon="114.4327887817523">
        <ele>0.0</ele>
        <time>2021-05-16T23:03:31Z</time>
      </trkpt>
      <trkpt lat="30.454687125926803" lon="114.43280783347892">
        <ele>0.0</ele>
        <time>2021-05-16T23:03:36Z</time>
      </trkpt>
      <trkpt lat="30.45459017694443" lon="114.43282488027172">
        <ele>0.0</ele>
        <time>2021-05-16T23:03:41Z</time>
      </trkpt>
      <trkpt lat="30.454498210870703" lon="114.43283190405424">
        <ele>0.0</ele>
        <time>2021-05-16T23:03:46Z</time>
      </trkpt>
      <trkpt lat="30.454406206752484" lon="114.43281487363359">
        <ele>0.0</ele>
        <time>2021-05-16T23:03:50Z</time>
      </trkpt>
      <trkpt lat="30.454307160044863" lon="114.43276978064858">
        <ele>0.0</ele>
        <time>2021-05-16T23:03:55Z</time>
      </trkpt>
      <trkpt lat="30.454248024510854" lon="114.43267457165476">
        <ele>0.0</ele>
        <time>2021-05-16T23:04:01Z</time>
      </trkpt>
      <trkpt lat="30.454207872038435" lon="114.43257134345363">
        <ele>0.0</ele>
        <time>2021-05-16T23:04:06Z</time>
      </trkpt>
      <trkpt lat="30.45420369537912" lon="114.4324580902027">
        <ele>0.0</ele>
        <time>2021-05-16T23:04:10Z</time>
      </trkpt>
      <trkpt lat="30.454177543481986" lon="114.43235686628702">
        <ele>0.0</ele>
        <time>2021-05-16T23:04:15Z</time>
      </trkpt>
      <trkpt lat="30.454167367743803" lon="114.43224261243914">
        <ele>0.0</ele>
        <time>2021-05-16T23:04:20Z</time>
      </trkpt>
      <trkpt lat="30.454149192967247" lon="114.43212735765812">
        <ele>0.0</ele>
        <time>2021-05-16T23:04:25Z</time>
      </trkpt>
      <trkpt lat="30.45414602432901" lon="114.43201811551552">
        <ele>0.0</ele>
        <time>2021-05-16T23:04:30Z</time>
      </trkpt>
      <trkpt lat="30.454124857546812" lon="114.43190687104997">
        <ele>0.0</ele>
        <time>2021-05-16T23:04:35Z</time>
      </trkpt>
      <trkpt lat="30.45411268133164" lon="114.43179061532">
        <ele>0.0</ele>
        <time>2021-05-16T23:04:40Z</time>
      </trkpt>
      <trkpt lat="30.454086522980557" lon="114.43168338127815">
        <ele>0.0</ele>
        <time>2021-05-16T23:04:45Z</time>
      </trkpt>
      <trkpt lat="30.4540683646548" lon="114.4315771492749">
        <ele>0.0</ele>
        <time>2021-05-16T23:04:50Z</time>
      </trkpt>
      <trkpt lat="30.454043181010803" lon="114.43145287887874">
        <ele>0.0</ele>
        <time>2021-05-16T23:04:55Z</time>
      </trkpt>
      <trkpt lat="30.45402999807868" lon="114.43133061253592">
        <ele>0.0</ele>
        <time>2021-05-16T23:05:00Z</time>
      </trkpt>
      <trkpt lat="30.454011845856595" lon="114.43122738882063">
        <ele>0.0</ele>
        <time>2021-05-16T23:05:05Z</time>
      </trkpt>
      <trkpt lat="30.453997690055147" lon="114.4311221608927">
        <ele>0.0</ele>
        <time>2021-05-16T23:05:10Z</time>
      </trkpt>
      <trkpt lat="30.453975530652105" lon="114.43101292547254">
        <ele>0.0</ele>
        <time>2021-05-16T23:05:16Z</time>
      </trkpt>
      <trkpt lat="30.45395534866888" lon="114.43088865789301">
        <ele>0.0</ele>
        <time>2021-05-16T23:05:24Z</time>
      </trkpt>
      <trkpt lat="30.453930191065275" lon="114.43077942391795">
        <ele>0.0</ele>
        <time>2021-05-16T23:05:30Z</time>
      </trkpt>
      <trkpt lat="30.45391103247124" lon="114.43067018997789">
        <ele>0.0</ele>
        <time>2021-05-16T23:05:35Z</time>
      </trkpt>
      <trkpt lat="30.453893879843246" lon="114.43056496503519">
        <ele>0.0</ele>
        <time>2021-05-16T23:05:40Z</time>
      </trkpt>
      <trkpt lat="30.453877709585782" lon="114.43044771473743">
        <ele>0.0</ele>
        <time>2021-05-16T23:05:46Z</time>
      </trkpt>
      <trkpt lat="30.453859537431995" lon="114.43032846096854">
        <ele>0.0</ele>
        <time>2021-05-16T23:05:52Z</time>
      </trkpt>
      <trkpt lat="30.453834366126095" lon="114.43020820633333">
        <ele>0.0</ele>
        <time>2021-05-16T23:05:58Z</time>
      </trkpt>
      <trkpt lat="30.453820214778922" lon="114.43010298339904">
        <ele>0.0</ele>
        <time>2021-05-16T23:06:03Z</time>
      </trkpt>
      <trkpt lat="30.453798048262623" lon="114.4299857361515">
        <ele>0.0</ele>
        <time>2021-05-16T23:06:08Z</time>
      </trkpt>
      <trkpt lat="30.45379786810323" lon="114.42986247491291">
        <ele>0.0</ele>
        <time>2021-05-16T23:06:15Z</time>
      </trkpt>
      <trkpt lat="30.453777711014084" lon="114.42975124150631">
        <ele>0.0</ele>
        <time>2021-05-16T23:06:21Z</time>
      </trkpt>
      <trkpt lat="30.453755557842726" lon="114.42964201307457">
        <ele>0.0</ele>
        <time>2021-05-16T23:06:26Z</time>
      </trkpt>
      <trkpt lat="30.453734399130276" lon="114.42952877669445">
        <ele>0.0</ele>
        <time>2021-05-16T23:06:32Z</time>
      </trkpt>
      <trkpt lat="30.45371622289528" lon="114.42940351546014">
        <ele>0.0</ele>
        <time>2021-05-16T23:06:38Z</time>
      </trkpt>
      <trkpt lat="30.453698064572386" lon="114.42929028008902">
        <ele>0.0</ele>
        <time>2021-05-16T23:06:44Z</time>
      </trkpt>
      <trkpt lat="30.453731915430495" lon="114.42919207214779">
        <ele>0.0</ele>
        <time>2021-05-16T23:06:49Z</time>
      </trkpt>
      <trkpt lat="30.453796793350953" lon="114.42911791202096">
        <ele>0.0</ele>
        <time>2021-05-16T23:06:54Z</time>
      </trkpt>
      <trkpt lat="30.45388067107916" lon="114.42904675675261">
        <ele>0.0</ele>
        <time>2021-05-16T23:06:59Z</time>
      </trkpt>
      <trkpt lat="30.45397860114828" lon="114.42901468163429">
        <ele>0.0</ele>
        <time>2021-05-16T23:07:04Z</time>
      </trkpt>
      <trkpt lat="30.454071538190664" lon="114.42898661531659">
        <ele>0.0</ele>
        <time>2021-05-16T23:07:09Z</time>
      </trkpt>
      <trkpt lat="30.45417251744378" lon="114.42898961279604">
        <ele>0.0</ele>
        <time>2021-05-16T23:07:15Z</time>
      </trkpt>
      <trkpt lat="30.454261449792845" lon="114.42895753854428">
        <ele>0.0</ele>
        <time>2021-05-16T23:07:20Z</time>
      </trkpt>
      <trkpt lat="30.454357390401743" lon="114.42893247827298">
        <ele>0.0</ele>
        <time>2021-05-16T23:07:25Z</time>
      </trkpt>
      <trkpt lat="30.45445033461626" lon="114.4289094224435">
        <ele>0.0</ele>
        <time>2021-05-16T23:07:30Z</time>
      </trkpt>
      <trkpt lat="30.454553300527575" lon="114.42890340105387">
        <ele>0.0</ele>
        <time>2021-05-16T23:07:36Z</time>
      </trkpt>
      <trkpt lat="30.454646220604207" lon="114.428863309992">
        <ele>0.0</ele>
        <time>2021-05-16T23:07:41Z</time>
      </trkpt>
      <trkpt lat="30.45474116578181" lon="114.42884125613675">
        <ele>0.0</ele>
        <time>2021-05-16T23:07:46Z</time>
      </trkpt>
      <trkpt lat="30.454833121645212" lon="114.42882621706869">
        <ele>0.0</ele>
        <time>2021-05-16T23:07:52Z</time>
      </trkpt>
      <trkpt lat="30.454931057589125" lon="114.42879815056557">
        <ele>0.0</ele>
        <time>2021-05-16T23:07:59Z</time>
      </trkpt>
      <trkpt lat="30.455021021044082" lon="114.42878812205272">
        <ele>0.0</ele>
        <time>2021-05-16T23:08:05Z</time>
      </trkpt>
      <trkpt lat="30.45511198424657" lon="114.42877809345784">
        <ele>0.0</ele>
        <time>2021-05-16T23:08:10Z</time>
      </trkpt>
      <trkpt lat="30.45519088957766" lon="114.42872497696622">
        <ele>0.0</ele>
        <time>2021-05-16T23:08:15Z</time>
      </trkpt>
      <trkpt lat="30.455281803332486" lon="114.42867987608741">
        <ele>0.0</ele>
        <time>2021-05-16T23:08:21Z</time>
      </trkpt>
      <trkpt lat="30.45536768175188" lon="114.42860872211268">
        <ele>0.0</ele>
        <time>2021-05-16T23:08:27Z</time>
      </trkpt>
      <trkpt lat="30.455450596296984" lon="114.42856262011544">
        <ele>0.0</ele>
        <time>2021-05-16T23:08:32Z</time>
      </trkpt>
      <trkpt lat="30.455564552418497" lon="114.42855158757229">
        <ele>0.0</ele>
        <time>2021-05-16T23:08:37Z</time>
      </trkpt>
      <trkpt lat="30.455657591188068" lon="114.42859567015573">
        <ele>0.0</ele>
        <time>2021-05-16T23:08:40Z</time>
      </trkpt>
      <trkpt lat="30.45574852203288" lon="114.42856259426497">
        <ele>0.0</ele>
        <time>2021-05-16T23:08:45Z</time>
      </trkpt>
      <trkpt lat="30.455852559471417" lon="114.42860767797914">
        <ele>0.0</ele>
        <time>2021-05-16T23:08:50Z</time>
      </trkpt>
      <trkpt lat="30.45594951695172" lon="114.42859464276445">
        <ele>0.0</ele>
        <time>2021-05-16T23:08:56Z</time>
      </trkpt>
      <trkpt lat="30.456037424601384" lon="114.42854453212743">
        <ele>0.0</ele>
        <time>2021-05-16T23:09:02Z</time>
      </trkpt>
      <trkpt lat="30.456127326232096" lon="114.42849041320983">
        <ele>0.0</ele>
        <time>2021-05-16T23:09:08Z</time>
      </trkpt>
      <trkpt lat="30.456223264351113" lon="114.4284633493786">
        <ele>0.0</ele>
        <time>2021-05-16T23:09:16Z</time>
      </trkpt>
      <trkpt lat="30.456322278920677" lon="114.42849139834989">
        <ele>0.0</ele>
        <time>2021-05-16T23:09:22Z</time>
      </trkpt>
      <trkpt lat="30.456419206948265" lon="114.42845732004605">
        <ele>0.0</ele>
        <time>2021-05-16T23:09:28Z</time>
      </trkpt>
      <trkpt lat="30.456516236035476" lon="114.42849538974609">
        <ele>0.0</ele>
        <time>2021-05-16T23:09:34Z</time>
      </trkpt>
      <trkpt lat="30.456616147856177" lon="114.4284502885738">
        <ele>0.0</ele>
        <time>2021-05-16T23:09:40Z</time>
      </trkpt>
      <trkpt lat="30.456716136859036" lon="114.4284603004452">
        <ele>0.0</ele>
        <time>2021-05-16T23:09:46Z</time>
      </trkpt>
      <trkpt lat="30.456763250136852" lon="114.42854947944224">
        <ele>0.0</ele>
        <time>2021-05-16T23:09:52Z</time>
      </trkpt>
      <trkpt lat="30.45677141161572" lon="114.42866571792679">
        <ele>0.0</ele>
        <time>2021-05-16T23:09:58Z</time>
      </trkpt>
      <trkpt lat="30.456796553826738" lon="114.4287709328066">
        <ele>0.0</ele>
        <time>2021-05-16T23:10:03Z</time>
      </trkpt>
      <trkpt lat="30.45681870009625" lon="114.42887815261888">
        <ele>0.0</ele>
        <time>2021-05-16T23:10:08Z</time>
      </trkpt>
      <trkpt lat="30.45685185407246" lon="114.42899238657913">
        <ele>0.0</ele>
        <time>2021-05-16T23:10:14Z</time>
      </trkpt>
      <trkpt lat="30.45685701990087" lon="114.42910962984023">
        <ele>0.0</ele>
        <time>2021-05-16T23:10:20Z</time>
      </trkpt>
      <trkpt lat="30.45688816544261" lon="114.42921685058454">
        <ele>0.0</ele>
        <time>2021-05-16T23:10:25Z</time>
      </trkpt>
      <trkpt lat="30.456912304583387" lon="114.4293180599037">
        <ele>0.0</ele>
        <time>2021-05-16T23:10:30Z</time>
      </trkpt>
      <trkpt lat="30.456918467432423" lon="114.42943229857308">
        <ele>0.0</ele>
        <time>2021-05-16T23:10:36Z</time>
      </trkpt>
      <trkpt lat="30.456926631776625" lon="114.42954753978863">
        <ele>0.0</ele>
        <time>2021-05-16T23:10:42Z</time>
      </trkpt>
      <trkpt lat="30.456943798784" lon="114.42966578718263">
        <ele>0.0</ele>
        <time>2021-05-16T23:10:48Z</time>
      </trkpt>
      <trkpt lat="30.456953952085538" lon="114.42977301255137">
        <ele>0.0</ele>
        <time>2021-05-16T23:10:53Z</time>
      </trkpt>
      <trkpt lat="30.456985100606143" lon="114.42988023663796">
        <ele>0.0</ele>
        <time>2021-05-16T23:10:58Z</time>
      </trkpt>
      <trkpt lat="30.457010248175372" lon="114.4299854575298">
        <ele>0.0</ele>
        <time>2021-05-16T23:11:03Z</time>
      </trkpt>
      <trkpt lat="30.457030415122855" lon="114.43010270495833">
        <ele>0.0</ele>
        <time>2021-05-16T23:11:09Z</time>
      </trkpt>
      <trkpt lat="30.45704958289431" lon="114.43021995311655">
        <ele>0.0</ele>
        <time>2021-05-16T23:11:15Z</time>
      </trkpt>
      <trkpt lat="30.457069748024075" lon="114.4303351975439">
        <ele>0.0</ele>
        <time>2021-05-16T23:11:20Z</time>
      </trkpt>
      <trkpt lat="30.45709691046531" lon="114.43044943983571">
        <ele>0.0</ele>
        <time>2021-05-16T23:11:26Z</time>
      </trkpt>
      <trkpt lat="30.457115063775284" lon="114.43055566628696">
        <ele>0.0</ele>
        <time>2021-05-16T23:11:32Z</time>
      </trkpt>
      <trkpt lat="30.45711322705525" lon="114.43066490147399">
        <ele>0.0</ele>
        <time>2021-05-16T23:11:37Z</time>
      </trkpt>
      <trkpt lat="30.457146383556257" lon="114.4307751363456">
        <ele>0.0</ele>
        <time>2021-05-16T23:11:43Z</time>
      </trkpt>
      <trkpt lat="30.457177527520514" lon="114.4308763524377">
        <ele>0.0</ele>
        <time>2021-05-16T23:11:49Z</time>
      </trkpt>
      <trkpt lat="30.457179706344167" lon="114.43099561064584">
        <ele>0.0</ele>
        <time>2021-05-16T23:11:55Z</time>
      </trkpt>
      <trkpt lat="30.457195892848073" lon="114.43112188355893">
        <ele>0.0</ele>
        <time>2021-05-16T23:12:04Z</time>
      </trkpt>
      <trkpt lat="30.457236054237494" lon="114.4312351267197">
        <ele>0.0</ele>
        <time>2021-05-16T23:12:08Z</time>
      </trkpt>
      <trkpt lat="30.4572642252627" lon="114.43135238027753">
        <ele>0.0</ele>
        <time>2021-05-16T23:12:16Z</time>
      </trkpt>
      <trkpt lat="30.457268405934403" lon="114.43147164094493">
        <ele>0.0</ele>
        <time>2021-05-16T23:12:22Z</time>
      </trkpt>
      <trkpt lat="30.457286562208235" lon="114.43157687023752">
        <ele>0.0</ele>
        <time>2021-05-16T23:12:29Z</time>
      </trkpt>
      <trkpt lat="30.457299727882855" lon="114.43168711150552">
        <ele>0.0</ele>
        <time>2021-05-16T23:12:33Z</time>
      </trkpt>
      <trkpt lat="30.457318904895146" lon="114.43180537050605">
        <ele>0.0</ele>
        <time>2021-05-16T23:12:38Z</time>
      </trkpt>
      <trkpt lat="30.457353069432937" lon="114.43191761554992">
        <ele>0.0</ele>
        <time>2021-05-16T23:12:43Z</time>
      </trkpt>
      <trkpt lat="30.45738124065061" lon="114.43203286836084">
        <ele>0.0</ele>
        <time>2021-05-16T23:12:47Z</time>
      </trkpt>
      <trkpt lat="30.457331393074018" lon="114.4321230728729">
        <ele>0.0</ele>
        <time>2021-05-16T23:12:52Z</time>
      </trkpt>
      <trkpt lat="30.45724647823052" lon="114.4321641715568">
        <ele>0.0</ele>
        <time>2021-05-16T23:12:56Z</time>
      </trkpt>
      <trkpt lat="30.45713655724355" lon="114.43219725464604">
        <ele>0.0</ele>
        <time>2021-05-16T23:13:01Z</time>
      </trkpt>
      <trkpt lat="30.457047645072198" lon="114.43223935604802">
        <ele>0.0</ele>
        <time>2021-05-16T23:13:06Z</time>
      </trkpt>
      <trkpt lat="30.456957725404045" lon="114.43227644645064">
        <ele>0.0</ele>
        <time>2021-05-16T23:13:10Z</time>
      </trkpt>
      <trkpt lat="30.456854759017325" lon="114.43228146654529">
        <ele>0.0</ele>
        <time>2021-05-16T23:13:15Z</time>
      </trkpt>
      <trkpt lat="30.456757841148562" lon="114.43231855762602">
        <ele>0.0</ele>
        <time>2021-05-16T23:13:20Z</time>
      </trkpt>
      <trkpt lat="30.45665988444995" lon="114.43233059294643">
        <ele>0.0</ele>
        <time>2021-05-16T23:13:25Z</time>
      </trkpt>
      <trkpt lat="30.456562936888805" lon="114.43234864160581">
        <ele>0.0</ele>
        <time>2021-05-16T23:13:30Z</time>
      </trkpt>
      <trkpt lat="30.456471978435744" lon="114.43236067633595">
        <ele>0.0</ele>
        <time>2021-05-16T23:13:35Z</time>
      </trkpt>
      <trkpt lat="30.456363046412182" lon="114.43238674396575">
        <ele>0.0</ele>
        <time>2021-05-16T23:13:41Z</time>
      </trkpt>
      <trkpt lat="30.45626111108783" lon="114.43241180878033">
        <ele>0.0</ele>
        <time>2021-05-16T23:13:46Z</time>
      </trkpt>
      <trkpt lat="30.456161173710516" lon="114.43243587120955">
        <ele>0.0</ele>
        <time>2021-05-16T23:13:52Z</time>
      </trkpt>
      <trkpt lat="30.456056251725993" lon="114.43246895427619">
        <ele>0.0</ele>
        <time>2021-05-16T23:13:58Z</time>
      </trkpt>
      <trkpt lat="30.455947322916074" lon="114.4324970265216">
        <ele>0.0</ele>
        <time>2021-05-16T23:14:06Z</time>
      </trkpt>
      <trkpt lat="30.455838378403158" lon="114.43251507635779">
        <ele>0.0</ele>
        <time>2021-05-16T23:14:12Z</time>
      </trkpt>
      <trkpt lat="30.45574543462123" lon="114.4325361315577">
        <ele>0.0</ele>
        <time>2021-05-16T23:14:17Z</time>
      </trkpt>
      <trkpt lat="30.455647493669105" lon="114.43255818945735">
        <ele>0.0</ele>
        <time>2021-05-16T23:14:22Z</time>
      </trkpt>
      <trkpt lat="30.455554534161067" lon="114.43256922222865">
        <ele>0.0</ele>
        <time>2021-05-16T23:14:27Z</time>
      </trkpt>
      <trkpt lat="30.455470624399293" lon="114.43261332841043">
        <ele>0.0</ele>
        <time>2021-05-16T23:14:33Z</time>
      </trkpt>
      <trkpt lat="30.455368670294106" lon="114.432626366488">
        <ele>0.0</ele>
        <time>2021-05-16T23:14:38Z</time>
      </trkpt>
      <trkpt lat="30.455268733040057" lon="114.43265042915246">
        <ele>0.0</ele>
        <time>2021-05-16T23:14:44Z</time>
      </trkpt>
      <trkpt lat="30.455162798871207" lon="114.43267549461486">
        <ele>0.0</ele>
        <time>2021-05-16T23:14:50Z</time>
      </trkpt>
      <trkpt lat="30.455065838787213" lon="114.43268552553937">
        <ele>0.0</ele>
        <time>2021-05-16T23:14:55Z</time>
      </trkpt>
      <trkpt lat="30.45496592526794" lon="114.43272462207165">
        <ele>0.0</ele>
        <time>2021-05-16T23:15:00Z</time>
      </trkpt>
      <trkpt lat="30.45486197008702" lon="114.43273665813385">
        <ele>0.0</ele>
        <time>2021-05-16T23:15:06Z</time>
      </trkpt>
      <trkpt lat="30.45475703255117" lon="114.43275971909681">
        <ele>0.0</ele>
        <time>2021-05-16T23:15:12Z</time>
      </trkpt>
      <trkpt lat="30.45465807137689" lon="114.43276874797692">
        <ele>0.0</ele>
        <time>2021-05-16T23:15:17Z</time>
      </trkpt>
      <trkpt lat="30.454569147300077" lon="114.43280283241624">
        <ele>0.0</ele>
        <time>2021-05-16T23:15:23Z</time>
      </trkpt>
      <trkpt lat="30.45447517696184" lon="114.43280684959191">
        <ele>0.0</ele>
        <time>2021-05-16T23:15:30Z</time>
      </trkpt>
      <trkpt lat="30.454377166430483" lon="114.43278480842704">
        <ele>0.0</ele>
        <time>2021-05-16T23:15:36Z</time>
      </trkpt>
      <trkpt lat="30.454294095254685" lon="114.43272668481232">
        <ele>0.0</ele>
        <time>2021-05-16T23:15:41Z</time>
      </trkpt>
      <trkpt lat="30.45423597856578" lon="114.43264350291814">
        <ele>0.0</ele>
        <time>2021-05-16T23:15:46Z</time>
      </trkpt>
      <trkpt lat="30.454194839058676" lon="114.43254829291533">
        <ele>0.0</ele>
        <time>2021-05-16T23:15:50Z</time>
      </trkpt>
      <trkpt lat="30.454206669524" lon="114.43244205408264">
        <ele>0.0</ele>
        <time>2021-05-16T23:15:55Z</time>
      </trkpt>
      <trkpt lat="30.454168511277913" lon="114.43233481786486">
        <ele>0.0</ele>
        <time>2021-05-16T23:16:00Z</time>
      </trkpt>
      <trkpt lat="30.454161342700353" lon="114.43222557502678">
        <ele>0.0</ele>
        <time>2021-05-16T23:16:06Z</time>
      </trkpt>
      <trkpt lat="30.454140154749737" lon="114.43210130056745">
        <ele>0.0</ele>
        <time>2021-05-16T23:16:12Z</time>
      </trkpt>
      <trkpt lat="30.4541249736973" lon="114.43198203739671">
        <ele>0.0</ele>
        <time>2021-05-16T23:16:18Z</time>
      </trkpt>
      <trkpt lat="30.45412180262041" lon="114.43187079155604">
        <ele>0.0</ele>
        <time>2021-05-16T23:16:23Z</time>
      </trkpt>
      <trkpt lat="30.45408762432428" lon="114.43174952688103">
        <ele>0.0</ele>
        <time>2021-05-16T23:16:29Z</time>
      </trkpt>
      <trkpt lat="30.45407744375954" lon="114.43163026521134">
        <ele>0.0</ele>
        <time>2021-05-16T23:16:35Z</time>
      </trkpt>
      <trkpt lat="30.454055294314212" lon="114.4315290448087">
        <ele>0.0</ele>
        <time>2021-05-16T23:16:42Z</time>
      </trkpt>
      <trkpt lat="30.454029138645847" lon="114.43142281425689">
        <ele>0.0</ele>
        <time>2021-05-16T23:16:47Z</time>
      </trkpt>
      <trkpt lat="30.454015981746423" lon="114.43131758528943">
        <ele>0.0</ele>
        <time>2021-05-16T23:16:51Z</time>
      </trkpt>
      <trkpt lat="30.453994798443606" lon="114.43119331603988">
        <ele>0.0</ele>
        <time>2021-05-16T23:16:56Z</time>
      </trkpt>
      <trkpt lat="30.453979618831383" lon="114.4310720535186">
        <ele>0.0</ele>
        <time>2021-05-16T23:17:01Z</time>
      </trkpt>
      <trkpt lat="30.45395945161988" lon="114.43095780731757">
        <ele>0.0</ele>
        <time>2021-05-16T23:17:06Z</time>
      </trkpt>
      <trkpt lat="30.453948284224094" lon="114.43084456310955">
        <ele>0.0</ele>
        <time>2021-05-16T23:17:11Z</time>
      </trkpt>
      <trkpt lat="30.453931123341217" lon="114.43073432650314">
        <ele>0.0</ele>
        <time>2021-05-16T23:17:16Z</time>
      </trkpt>
      <trkpt lat="30.453899969416344" lon="114.43062609598945">
        <ele>0.0</ele>
        <time>2021-05-16T23:17:23Z</time>
      </trkpt>
      <trkpt lat="30.453907812282527" lon="114.4305218712473">
        <ele>0.0</ele>
        <time>2021-05-16T23:17:28Z</time>
      </trkpt>
      <trkpt lat="30.453883666492395" lon="114.43041965407998">
        <ele>0.0</ele>
        <time>2021-05-16T23:17:33Z</time>
      </trkpt>
      <trkpt lat="30.45385452089304" lon="114.43031643569138">
        <ele>0.0</ele>
        <time>2021-05-16T23:17:38Z</time>
      </trkpt>
      <trkpt lat="30.453832356285886" lon="114.43020119154744">
        <ele>0.0</ele>
        <time>2021-05-16T23:17:43Z</time>
      </trkpt>
      <trkpt lat="30.45380919395109" lon="114.43008695024238">
        <ele>0.0</ele>
        <time>2021-05-16T23:17:49Z</time>
      </trkpt>
      <trkpt lat="30.453811025974662" lon="114.42997270738002">
        <ele>0.0</ele>
        <time>2021-05-16T23:17:55Z</time>
      </trkpt>
      <trkpt lat="30.453807839317324" lon="114.42984443587541">
        <ele>0.0</ele>
        <time>2021-05-16T23:18:01Z</time>
      </trkpt>
      <trkpt lat="30.453785675524117" lon="114.42972819216223">
        <ele>0.0</ele>
        <time>2021-05-16T23:18:07Z</time>
      </trkpt>
      <trkpt lat="30.453784510003658" lon="114.4296139514803">
        <ele>0.0</ele>
        <time>2021-05-16T23:18:13Z</time>
      </trkpt>
      <trkpt lat="30.45375237585529" lon="114.4295157477684">
        <ele>0.0</ele>
        <time>2021-05-16T23:18:18Z</time>
      </trkpt>
      <trkpt lat="30.453739209992087" lon="114.42939850296902">
        <ele>0.0</ele>
        <time>2021-05-16T23:18:24Z</time>
      </trkpt>
      <trkpt lat="30.453723048322985" lon="114.42928326326351">
        <ele>0.0</ele>
        <time>2021-05-16T23:18:30Z</time>
      </trkpt>
      <trkpt lat="30.453743883790967" lon="114.4291720293276">
        <ele>0.0</ele>
        <time>2021-05-16T23:18:36Z</time>
      </trkpt>
      <trkpt lat="30.45381773238358" lon="114.42907882888369">
        <ele>0.0</ele>
        <time>2021-05-16T23:18:42Z</time>
      </trkpt>
      <trkpt lat="30.453931657026775" lon="114.42904575024677">
        <ele>0.0</ele>
        <time>2021-05-16T23:18:47Z</time>
      </trkpt>
      <trkpt lat="30.454025599495996" lon="114.4290216921266">
        <ele>0.0</ele>
        <time>2021-05-16T23:18:52Z</time>
      </trkpt>
      <trkpt lat="30.454123523883478" lon="114.42898560872675">
        <ele>0.0</ele>
        <time>2021-05-16T23:18:58Z</time>
      </trkpt>
      <trkpt lat="30.454220484171202" lon="114.42897457743972">
        <ele>0.0</ele>
        <time>2021-05-16T23:19:03Z</time>
      </trkpt>
      <trkpt lat="30.454317428789523" lon="114.42895252329585">
        <ele>0.0</ele>
        <time>2021-05-16T23:19:08Z</time>
      </trkpt>
      <trkpt lat="30.45441637576894" lon="114.42893247315563">
        <ele>0.0</ele>
        <time>2021-05-16T23:19:15Z</time>
      </trkpt>
      <trkpt lat="30.454510316885877" lon="114.42890741308722">
        <ele>0.0</ele>
        <time>2021-05-16T23:19:20Z</time>
      </trkpt>
      <trkpt lat="30.454603293805047" lon="114.42890740502077">
        <ele>0.0</ele>
        <time>2021-05-16T23:19:25Z</time>
      </trkpt>
      <trkpt lat="30.45470722250244" lon="114.42887532959169">
        <ele>0.0</ele>
        <time>2021-05-16T23:19:31Z</time>
      </trkpt>
      <trkpt lat="30.454807153645493" lon="114.42884425663094">
        <ele>0.0</ele>
        <time>2021-05-16T23:19:37Z</time>
      </trkpt>
      <trkpt lat="30.4549021115929" lon="114.42883122144525">
        <ele>0.0</ele>
        <time>2021-05-16T23:19:43Z</time>
      </trkpt>
      <trkpt lat="30.455009069391636" lon="114.42882018937034">
        <ele>0.0</ele>
        <time>2021-05-16T23:19:49Z</time>
      </trkpt>
      <trkpt lat="30.455099022906264" lon="114.4288031463482">
        <ele>0.0</ele>
        <time>2021-05-16T23:19:54Z</time>
      </trkpt>
      <trkpt lat="30.455189942183832" lon="114.42876205357942">
        <ele>0.0</ele>
        <time>2021-05-16T23:19:59Z</time>
      </trkpt>
      <trkpt lat="30.455279867430058" lon="114.42872496924618">
        <ele>0.0</ele>
        <time>2021-05-16T23:20:05Z</time>
      </trkpt>
      <trkpt lat="30.455382843203125" lon="114.42872596237915">
        <ele>0.0</ele>
        <time>2021-05-16T23:20:11Z</time>
      </trkpt>
      <trkpt lat="30.4554647408227" lon="114.42866783543347">
        <ele>0.0</ele>
        <time>2021-05-16T23:20:16Z</time>
      </trkpt>
      <trkpt lat="30.455554749473247" lon="114.42868987306157">
        <ele>0.0</ele>
        <time>2021-05-16T23:20:22Z</time>
      </trkpt>
      <trkpt lat="30.4556596837638" lon="114.42866180613093">
        <ele>0.0</ele>
        <time>2021-05-16T23:20:28Z</time>
      </trkpt>
      <trkpt lat="30.455681513410763" lon="114.42854456300965">
        <ele>0.0</ele>
        <time>2021-05-16T23:20:34Z</time>
      </trkpt>
      <trkpt lat="30.455790489045793" lon="114.42854655767202">
        <ele>0.0</ele>
        <time>2021-05-16T23:20:38Z</time>
      </trkpt>
      <trkpt lat="30.455896445726367" lon="114.42853452377254">
        <ele>0.0</ele>
        <time>2021-05-16T23:20:43Z</time>
      </trkpt>
      <trkpt lat="30.45598640358417" lon="114.42852048715224">
        <ele>0.0</ele>
        <time>2021-05-16T23:20:47Z</time>
      </trkpt>
      <trkpt lat="30.456077403363096" lon="114.42853651218799">
        <ele>0.0</ele>
        <time>2021-05-16T23:20:52Z</time>
      </trkpt>
      <trkpt lat="30.45617335829933" lon="114.42852147298792">
        <ele>0.0</ele>
        <time>2021-05-16T23:20:58Z</time>
      </trkpt>
      <trkpt lat="30.456274324633803" lon="114.42851545188034">
        <ele>0.0</ele>
        <time>2021-05-16T23:21:04Z</time>
      </trkpt>
      <trkpt lat="30.45638528002969" lon="114.42850341756443">
        <ele>0.0</ele>
        <time>2021-05-16T23:21:10Z</time>
      </trkpt>
      <trkpt lat="30.456487220820456" lon="114.42847935936301">
        <ele>0.0</ele>
        <time>2021-05-16T23:21:16Z</time>
      </trkpt>
      <trkpt lat="30.456578151753114" lon="114.42844628365309">
        <ele>0.0</ele>
        <time>2021-05-16T23:21:21Z</time>
      </trkpt>
      <trkpt lat="30.456673147621416" lon="114.42846030417554">
        <ele>0.0</ele>
        <time>2021-05-16T23:21:27Z</time>
      </trkpt>
      <trkpt lat="30.456725256836" lon="114.4285474786206">
        <ele>0.0</ele>
        <time>2021-05-16T23:21:32Z</time>
      </trkpt>
      <trkpt lat="30.456760417193305" lon="114.42866772301039">
        <ele>0.0</ele>
        <time>2021-05-16T23:21:38Z</time>
      </trkpt>
      <trkpt lat="30.45678158449838" lon="114.42878997343912">
        <ele>0.0</ele>
        <time>2021-05-16T23:21:44Z</time>
      </trkpt>
      <trkpt lat="30.456820720911452" lon="114.4288931835711">
        <ele>0.0</ele>
        <time>2021-05-16T23:21:50Z</time>
      </trkpt>
      <trkpt lat="30.45684187653894" lon="114.42900641657248">
        <ele>0.0</ele>
        <time>2021-05-16T23:21:56Z</time>
      </trkpt>
      <trkpt lat="30.456856030165916" lon="114.42911664452755">
        <ele>0.0</ele>
        <time>2021-05-16T23:22:02Z</time>
      </trkpt>
      <trkpt lat="30.45686518124956" lon="114.4292238672155">
        <ele>0.0</ele>
        <time>2021-05-16T23:22:07Z</time>
      </trkpt>
      <trkpt lat="30.45688632405137" lon="114.42932708101992">
        <ele>0.0</ele>
        <time>2021-05-16T23:22:12Z</time>
      </trkpt>
      <trkpt lat="30.456915473960624" lon="114.42943630723703">
        <ele>0.0</ele>
        <time>2021-05-16T23:22:18Z</time>
      </trkpt>
      <trkpt lat="30.45691662414028" lon="114.4295405259132">
        <ele>0.0</ele>
        <time>2021-05-16T23:22:23Z</time>
      </trkpt>
      <trkpt lat="30.456932779736174" lon="114.42965075646441">
        <ele>0.0</ele>
        <time>2021-05-16T23:22:28Z</time>
      </trkpt>
      <trkpt lat="30.45694795358878" lon="114.42977301307172">
        <ele>0.0</ele>
        <time>2021-05-16T23:22:34Z</time>
      </trkpt>
      <trkpt lat="30.456985109384185" lon="114.42988624937027">
        <ele>0.0</ele>
        <time>2021-05-16T23:22:40Z</time>
      </trkpt>
      <trkpt lat="30.456985109384185" lon="114.42988624937027">
        <ele>0.0</ele>
        <time>2021-05-16T23:22:44Z</time>
      </trkpt>
    </trkseg>
  </trk>
</gpx>