<?xml version="1.0" encoding="UTF-8"?>
<gpx xmlns="http://www.topografix.com/GPX/1/1" xmlns:gpxtpx="http://www.garmin.com/xmlschemas/TrackPointExtension/v1" xmlns:xsi="http://www.w3.org/2001/XMLSchema-instance" xsi:schemaLocation="http://www.topografix.com/GPX/1/1 http://www.topografix.com/GPX/1/1/gpx.xsd" version="1.1" creator="gpx.py -- https://github.com/tkrajina/gpxpy">
  <trk>
    <name>gpx from keep</name>
    <type>Run</type>
    <trkseg>
      <trkpt lat="30.66574516441473" lon="114.34090067761956">
        <ele>29.837640887126327</ele>
        <time>2026-07-03T22:41:21Z</time>
      </trkpt>
      <trkpt lat="30.665866337635965" lon="114.34099991911219">
        <ele>29.820734415203333</ele>
        <time>2026-07-03T22:41:29Z</time>
      </trkpt>
      <trkpt lat="30.665964111605344" lon="114.34103261172613">
        <ele>27.76078096870333</ele>
        <time>2026-07-03T22:41:33Z</time>
      </trkpt>
      <trkpt lat="30.666042937072827" lon="114.34103585280054">
        <ele>27.82864723354578</ele>
        <time>2026-07-03T22:41:37Z</time>
      </trkpt>
      <trkpt lat="30.666096358930528" lon="114.34086286063354">
        <ele>26.865298833698034</ele>
        <time>2026-07-03T22:41:45Z</time>
      </trkpt>
      <trkpt lat="30.666112284017895" lon="114.34062288822619">
        <ele>27.572978458367288</ele>
        <time>2026-07-03T22:41:53Z</time>
      </trkpt>
      <trkpt lat="30.66617778943359" lon="114.34056677884526">
        <ele>26.26238061580807</ele>
        <time>2026-07-03T22:41:57Z</time>
      </trkpt>
      <trkpt lat="30.666294932809123" lon="114.34027550164576">
        <ele>27.715371042490005</ele>
        <time>2026-07-03T22:42:09Z</time>
      </trkpt>
      <trkpt lat="30.666353850645283" lon="114.3400658695108">
        <ele>27.13996725063771</ele>
        <time>2026-07-03T22:42:18Z</time>
      </trkpt>
      <trkpt lat="30.66649782791281" lon="114.33978900059937">
        <ele>28.038136246614158</ele>
        <time>2026-07-03T22:42:33Z</time>
      </trkpt>
      <trkpt lat="30.666545647411933" lon="114.33956241288837">
        <ele>26.92012212332338</ele>
        <time>2026-07-03T22:42:42Z</time>
      </trkpt>
      <trkpt lat="30.66654341256209" lon="114.33947091381754">
        <ele>27.327553155831993</ele>
        <time>2026-07-03T22:42:45Z</time>
      </trkpt>
      <trkpt lat="30.666614157339335" lon="114.33925755295346">
        <ele>27.79028619080782</ele>
        <time>2026-07-03T22:42:54Z</time>
      </trkpt>
      <trkpt lat="30.666675191021977" lon="114.33902747857222">
        <ele>26.778933820314705</ele>
        <time>2026-07-03T22:43:03Z</time>
      </trkpt>
      <trkpt lat="30.666828839261147" lon="114.3387525186016">
        <ele>27.714807611890137</ele>
        <time>2026-07-03T22:43:17Z</time>
      </trkpt>
      <trkpt lat="30.667012939598308" lon="114.33843345113759">
        <ele>27.41374786105007</ele>
        <time>2026-07-03T22:43:33Z</time>
      </trkpt>
      <trkpt lat="30.667164513298886" lon="114.3381830523247">
        <ele>27.678579687140882</ele>
        <time>2026-07-03T22:43:45Z</time>
      </trkpt>
      <trkpt lat="30.667283357962962" lon="114.33783731999324">
        <ele>27.375091422349215</ele>
        <time>2026-07-03T22:44:01Z</time>
      </trkpt>
      <trkpt lat="30.667343096001318" lon="114.33763881008848">
        <ele>27.46192841604352</ele>
        <time>2026-07-03T22:44:09Z</time>
      </trkpt>
      <trkpt lat="30.66735436975359" lon="114.33753673072367">
        <ele>27.563799417577684</ele>
        <time>2026-07-03T22:44:13Z</time>
      </trkpt>
      <trkpt lat="30.667325989157295" lon="114.33741198692971">
        <ele>27.010214203968644</ele>
        <time>2026-07-03T22:44:19Z</time>
      </trkpt>
      <trkpt lat="30.66727457610884" lon="114.33735935543335">
        <ele>26.051709690131247</ele>
        <time>2026-07-03T22:44:23Z</time>
      </trkpt>
      <trkpt lat="30.667204544771597" lon="114.33732301542608">
        <ele>26.790949006564915</ele>
        <time>2026-07-03T22:44:26Z</time>
      </trkpt>
      <trkpt lat="30.666992778354327" lon="114.33736748013253">
        <ele>27.160920807160437</ele>
        <time>2026-07-03T22:44:36Z</time>
      </trkpt>
      <trkpt lat="30.66693399507446" lon="114.33734811089022">
        <ele>27.66586328484118</ele>
        <time>2026-07-03T22:44:39Z</time>
      </trkpt>
      <trkpt lat="30.666793796664617" lon="114.33735704256073">
        <ele>27.327693480998278</ele>
        <time>2026-07-03T22:44:46Z</time>
      </trkpt>
      <trkpt lat="30.666738192705495" lon="114.33739433040759">
        <ele>27.25212691538036</ele>
        <time>2026-07-03T22:44:49Z</time>
      </trkpt>
      <trkpt lat="30.66661519728683" lon="114.33741427204748">
        <ele>25.798615157604218</ele>
        <time>2026-07-03T22:44:55Z</time>
      </trkpt>
      <trkpt lat="30.66631212581286" lon="114.33756606374729">
        <ele>25.778274771757424</ele>
        <time>2026-07-03T22:45:10Z</time>
      </trkpt>
      <trkpt lat="30.666016637956073" lon="114.33770667957995">
        <ele>25.738673832267523</ele>
        <time>2026-07-03T22:45:24Z</time>
      </trkpt>
      <trkpt lat="30.66595846602286" lon="114.33775423082632">
        <ele>26.896095855161548</ele>
        <time>2026-07-03T22:45:28Z</time>
      </trkpt>
      <trkpt lat="30.665713234044688" lon="114.33782291058353">
        <ele>27.08968332130462</ele>
        <time>2026-07-03T22:45:40Z</time>
      </trkpt>
      <trkpt lat="30.665434738721185" lon="114.33799025559433">
        <ele>25.838104500435293</ele>
        <time>2026-07-03T22:45:52Z</time>
      </trkpt>
      <trkpt lat="30.665111943199424" lon="114.33806822409166">
        <ele>26.976550862193108</ele>
        <time>2026-07-03T22:46:08Z</time>
      </trkpt>
      <trkpt lat="30.66503687785288" lon="114.33811956855786">
        <ele>26.663018410094082</ele>
        <time>2026-07-03T22:46:12Z</time>
      </trkpt>
      <trkpt lat="30.665021643179575" lon="114.33828597985298">
        <ele>26.411998784169555</ele>
        <time>2026-07-03T22:46:20Z</time>
      </trkpt>
      <trkpt lat="30.665142298590386" lon="114.33863712638966">
        <ele>26.93428185302764</ele>
        <time>2026-07-03T22:46:36Z</time>
      </trkpt>
      <trkpt lat="30.66522484169482" lon="114.33884132639987">
        <ele>27.05834710970521</ele>
        <time>2026-07-03T22:46:44Z</time>
      </trkpt>
      <trkpt lat="30.66527691843074" lon="114.3392292795031">
        <ele>27.605615271255374</ele>
        <time>2026-07-03T22:47:00Z</time>
      </trkpt>
      <trkpt lat="30.665385457856807" lon="114.33955431856641">
        <ele>28.25128434319049</ele>
        <time>2026-07-03T22:47:15Z</time>
      </trkpt>
      <trkpt lat="30.665418016279766" lon="114.3396535828486">
        <ele>28.24202634766698</ele>
        <time>2026-07-03T22:47:19Z</time>
      </trkpt>
      <trkpt lat="30.66541797348806" lon="114.33972772427569">
        <ele>28.00088954344392</ele>
        <time>2026-07-03T22:47:22Z</time>
      </trkpt>
      <trkpt lat="30.665454254589076" lon="114.33981109613156">
        <ele>27.94792036805302</ele>
        <time>2026-07-03T22:47:25Z</time>
      </trkpt>
      <trkpt lat="30.665461400349198" lon="114.33988658165663">
        <ele>28.03119978122413</ele>
        <time>2026-07-03T22:47:28Z</time>
      </trkpt>
      <trkpt lat="30.665492216764154" lon="114.33993104747564">
        <ele>26.77365816012025</ele>
        <time>2026-07-03T22:47:31Z</time>
      </trkpt>
      <trkpt lat="30.665509416253705" lon="114.34002095205257">
        <ele>27.41640332248062</ele>
        <time>2026-07-03T22:47:34Z</time>
      </trkpt>
      <trkpt lat="30.665549021034003" lon="114.3400781551803">
        <ele>27.57396338135004</ele>
        <time>2026-07-03T22:47:37Z</time>
      </trkpt>
      <trkpt lat="30.66556963491011" lon="114.34015106827968">
        <ele>27.138851470313966</ele>
        <time>2026-07-03T22:47:40Z</time>
      </trkpt>
      <trkpt lat="30.665607901733924" lon="114.34021267561852">
        <ele>27.91669720225036</ele>
        <time>2026-07-03T22:47:44Z</time>
      </trkpt>
      <trkpt lat="30.665679001385186" lon="114.34049787869897">
        <ele>26.66211243905127</ele>
        <time>2026-07-03T22:47:55Z</time>
      </trkpt>
      <trkpt lat="30.66569790389816" lon="114.34067397888857">
        <ele>25.763733468949795</ele>
        <time>2026-07-03T22:48:03Z</time>
      </trkpt>
      <trkpt lat="30.6658091585053" lon="114.34085855407588">
        <ele>25.016405433416367</ele>
        <time>2026-07-03T22:48:15Z</time>
      </trkpt>
      <trkpt lat="30.665890424290335" lon="114.34092705418415">
        <ele>27.097118152305484</ele>
        <time>2026-07-03T22:48:19Z</time>
      </trkpt>
      <trkpt lat="30.666056322558052" lon="114.34097371093566">
        <ele>28.07976783439517</ele>
        <time>2026-07-03T22:48:27Z</time>
      </trkpt>
      <trkpt lat="30.666085732078283" lon="114.34091838813559">
        <ele>27.126826908439398</ele>
        <time>2026-07-03T22:48:31Z</time>
      </trkpt>
      <trkpt lat="30.666107366090984" lon="114.34074218038496">
        <ele>26.902615638449788</ele>
        <time>2026-07-03T22:48:39Z</time>
      </trkpt>
      <trkpt lat="30.666148160413012" lon="114.34055582319206">
        <ele>27.182067939080298</ele>
        <time>2026-07-03T22:48:47Z</time>
      </trkpt>
      <trkpt lat="30.666279897916837" lon="114.34027721468675">
        <ele>27.602690314874053</ele>
        <time>2026-07-03T22:48:59Z</time>
      </trkpt>
      <trkpt lat="30.666413807013814" lon="114.33995802384877">
        <ele>26.37193619646132</ele>
        <time>2026-07-03T22:49:15Z</time>
      </trkpt>
      <trkpt lat="30.66651768210505" lon="114.33973705304231">
        <ele>26.951764442957938</ele>
        <time>2026-07-03T22:49:26Z</time>
      </trkpt>
      <trkpt lat="30.666575887345104" lon="114.33940098768764">
        <ele>26.915444988757372</ele>
        <time>2026-07-03T22:49:40Z</time>
      </trkpt>
      <trkpt lat="30.666577792738984" lon="114.33932060246242">
        <ele>27.25373847782612</ele>
        <time>2026-07-03T22:49:44Z</time>
      </trkpt>
      <trkpt lat="30.666691593634532" lon="114.33896283487947">
        <ele>26.14778701029718</ele>
        <time>2026-07-03T22:49:59Z</time>
      </trkpt>
      <trkpt lat="30.666868294100357" lon="114.3386676883273">
        <ele>27.50830411259085</ele>
        <time>2026-07-03T22:50:15Z</time>
      </trkpt>
      <trkpt lat="30.667070953206025" lon="114.33834890868368">
        <ele>27.55045541189611</ele>
        <time>2026-07-03T22:50:31Z</time>
      </trkpt>
      <trkpt lat="30.667183313845246" lon="114.3380888351955">
        <ele>27.657816319726408</ele>
        <time>2026-07-03T22:50:43Z</time>
      </trkpt>
      <trkpt lat="30.6672659104989" lon="114.33792775875824">
        <ele>28.13240742497146</ele>
        <time>2026-07-03T22:50:51Z</time>
      </trkpt>
      <trkpt lat="30.667353430070477" lon="114.33761620286487">
        <ele>27.927024899050593</ele>
        <time>2026-07-03T22:51:03Z</time>
      </trkpt>
      <trkpt lat="30.66733484126699" lon="114.3374261834168">
        <ele>27.350777493789792</ele>
        <time>2026-07-03T22:51:11Z</time>
      </trkpt>
      <trkpt lat="30.667287294387947" lon="114.33735958205204">
        <ele>26.356193649582565</ele>
        <time>2026-07-03T22:51:15Z</time>
      </trkpt>
      <trkpt lat="30.66721334014833" lon="114.33732024716048">
        <ele>25.78817497380078</ele>
        <time>2026-07-03T22:51:19Z</time>
      </trkpt>
      <trkpt lat="30.667132201757408" lon="114.33731029380023">
        <ele>26.25467691477388</ele>
        <time>2026-07-03T22:51:23Z</time>
      </trkpt>
      <trkpt lat="30.666944199104222" lon="114.33732730801603">
        <ele>26.546247750520706</ele>
        <time>2026-07-03T22:51:31Z</time>
      </trkpt>
      <trkpt lat="30.6668854915692" lon="114.33731726921702">
        <ele>27.46014411561191</ele>
        <time>2026-07-03T22:51:34Z</time>
      </trkpt>
      <trkpt lat="30.66660004776113" lon="114.33743008056753">
        <ele>26.21813517343253</ele>
        <time>2026-07-03T22:51:49Z</time>
      </trkpt>
      <trkpt lat="30.666426203100634" lon="114.33749264468611">
        <ele>25.786772029474378</ele>
        <time>2026-07-03T22:51:57Z</time>
      </trkpt>
      <trkpt lat="30.666196663390334" lon="114.33761968588836">
        <ele>26.096131193451583</ele>
        <time>2026-07-03T22:52:09Z</time>
      </trkpt>
      <trkpt lat="30.665958417543955" lon="114.33772409038463">
        <ele>26.647674116306007</ele>
        <time>2026-07-03T22:52:21Z</time>
      </trkpt>
      <trkpt lat="30.665894974920604" lon="114.33777457660727">
        <ele>26.378743251785636</ele>
        <time>2026-07-03T22:52:25Z</time>
      </trkpt>
      <trkpt lat="30.665657843032584" lon="114.33782463406483">
        <ele>26.586467599496245</ele>
        <time>2026-07-03T22:52:37Z</time>
      </trkpt>
      <trkpt lat="30.66550026963014" lon="114.33792168467866">
        <ele>26.050667862407863</ele>
        <time>2026-07-03T22:52:44Z</time>
      </trkpt>
      <trkpt lat="30.66529979401871" lon="114.33795549081759">
        <ele>25.849835499189794</ele>
        <time>2026-07-03T22:52:52Z</time>
      </trkpt>
      <trkpt lat="30.665238264098445" lon="114.33800155852937">
        <ele>25.62098656501621</ele>
        <time>2026-07-03T22:52:56Z</time>
      </trkpt>
      <trkpt lat="30.665150303824458" lon="114.33802161799937">
        <ele>25.424674010835588</ele>
        <time>2026-07-03T22:53:00Z</time>
      </trkpt>
      <trkpt lat="30.66501219078573" lon="114.33810735064588">
        <ele>25.506455894559622</ele>
        <time>2026-07-03T22:53:08Z</time>
      </trkpt>
      <trkpt lat="30.6650269104656" lon="114.33827951323012">
        <ele>24.821857960894704</ele>
        <time>2026-07-03T22:53:16Z</time>
      </trkpt>
      <trkpt lat="30.665150610105794" lon="114.33861798407348">
        <ele>26.56707596220076</ele>
        <time>2026-07-03T22:53:31Z</time>
      </trkpt>
      <trkpt lat="30.66522851545843" lon="114.33889429705421">
        <ele>27.535525199957192</ele>
        <time>2026-07-03T22:53:42Z</time>
      </trkpt>
      <trkpt lat="30.66524278949776" lon="114.33907091949571">
        <ele>27.51169398892671</ele>
        <time>2026-07-03T22:53:49Z</time>
      </trkpt>
      <trkpt lat="30.665287275963927" lon="114.3392652951422">
        <ele>27.163399267941713</ele>
        <time>2026-07-03T22:53:57Z</time>
      </trkpt>
      <trkpt lat="30.665389662972657" lon="114.3395239150003">
        <ele>27.26979259122163</ele>
        <time>2026-07-03T22:54:09Z</time>
      </trkpt>
      <trkpt lat="30.665418839505804" lon="114.33972746606246">
        <ele>26.697371665388346</ele>
        <time>2026-07-03T22:54:17Z</time>
      </trkpt>
      <trkpt lat="30.665453517447105" lon="114.33983833264494">
        <ele>26.973873724229634</ele>
        <time>2026-07-03T22:54:21Z</time>
      </trkpt>
      <trkpt lat="30.665465645732116" lon="114.33993468146332">
        <ele>26.59787881653756</ele>
        <time>2026-07-03T22:54:25Z</time>
      </trkpt>
      <trkpt lat="30.665572662458324" lon="114.34016434993453">
        <ele>26.39320114813745</ele>
        <time>2026-07-03T22:54:37Z</time>
      </trkpt>
      <trkpt lat="30.66562809908196" lon="114.34045347102438">
        <ele>27.77797686588019</ele>
        <time>2026-07-03T22:54:49Z</time>
      </trkpt>
      <trkpt lat="30.665678723342005" lon="114.34057570493715">
        <ele>26.865889847278595</ele>
        <time>2026-07-03T22:54:53Z</time>
      </trkpt>
      <trkpt lat="30.66577304321628" lon="114.34090953346202">
        <ele>26.147146590985358</ele>
        <time>2026-07-03T22:55:09Z</time>
      </trkpt>
      <trkpt lat="30.66585086475945" lon="114.34097281681825">
        <ele>27.243672794662416</ele>
        <time>2026-07-03T22:55:13Z</time>
      </trkpt>
      <trkpt lat="30.66601508328336" lon="114.34100457134514">
        <ele>27.582776403054595</ele>
        <time>2026-07-03T22:55:21Z</time>
      </trkpt>
      <trkpt lat="30.666060486045357" lon="114.34093384505995">
        <ele>26.93120219465345</ele>
        <time>2026-07-03T22:55:25Z</time>
      </trkpt>
      <trkpt lat="30.66613682812981" lon="114.34055861996323">
        <ele>27.792167608626187</ele>
        <time>2026-07-03T22:55:41Z</time>
      </trkpt>
      <trkpt lat="30.666265961828742" lon="114.34031372965148">
        <ele>27.545500648207963</ele>
        <time>2026-07-03T22:55:53Z</time>
      </trkpt>
      <trkpt lat="30.666337611902904" lon="114.34003189416545">
        <ele>28.072111223824322</ele>
        <time>2026-07-03T22:56:05Z</time>
      </trkpt>
      <trkpt lat="30.66637767990916" lon="114.33997014512188">
        <ele>27.283904829993844</ele>
        <time>2026-07-03T22:56:08Z</time>
      </trkpt>
      <trkpt lat="30.66650441754851" lon="114.33970888589057">
        <ele>26.843284062109888</ele>
        <time>2026-07-03T22:56:21Z</time>
      </trkpt>
      <trkpt lat="30.666536831724788" lon="114.33953356510472">
        <ele>25.537641369737685</ele>
        <time>2026-07-03T22:56:29Z</time>
      </trkpt>
      <trkpt lat="30.666611110725263" lon="114.33933757979078">
        <ele>27.328162752091885</ele>
        <time>2026-07-03T22:56:37Z</time>
      </trkpt>
      <trkpt lat="30.66664228007942" lon="114.33914773659669">
        <ele>27.087231799960136</ele>
        <time>2026-07-03T22:56:44Z</time>
      </trkpt>
      <trkpt lat="30.666787566535692" lon="114.33881080766088">
        <ele>26.80505971983075</ele>
        <time>2026-07-03T22:57:00Z</time>
      </trkpt>
      <trkpt lat="30.66681705117157" lon="114.33872985891571">
        <ele>26.392015549354255</ele>
        <time>2026-07-03T22:57:04Z</time>
      </trkpt>
      <trkpt lat="30.667015006081794" lon="114.33843093116045">
        <ele>25.962388709187508</ele>
        <time>2026-07-03T22:57:20Z</time>
      </trkpt>
      <trkpt lat="30.667193136027137" lon="114.33817857726163">
        <ele>27.68617350049317</ele>
        <time>2026-07-03T22:57:31Z</time>
      </trkpt>
      <trkpt lat="30.667213793480514" lon="114.33807585540367">
        <ele>27.65332221891731</ele>
        <time>2026-07-03T22:57:35Z</time>
      </trkpt>
      <trkpt lat="30.667267289857786" lon="114.33805259424332">
        <ele>27.925428400747478</ele>
        <time>2026-07-03T22:57:39Z</time>
      </trkpt>
      <trkpt lat="30.667341119088388" lon="114.33774824967243">
        <ele>27.66107556410134</ele>
        <time>2026-07-03T22:57:50Z</time>
      </trkpt>
      <trkpt lat="30.667377621112358" lon="114.337675105044">
        <ele>28.253855852410197</ele>
        <time>2026-07-03T22:57:53Z</time>
      </trkpt>
      <trkpt lat="30.66736856628557" lon="114.3374788833007">
        <ele>27.722083014436066</ele>
        <time>2026-07-03T22:58:01Z</time>
      </trkpt>
      <trkpt lat="30.667325143232475" lon="114.33736516368496">
        <ele>26.712026366963983</ele>
        <time>2026-07-03T22:58:07Z</time>
      </trkpt>
      <trkpt lat="30.66718521332587" lon="114.3373157026014">
        <ele>25.81133583933115</ele>
        <time>2026-07-03T22:58:13Z</time>
      </trkpt>
      <trkpt lat="30.667114646245004" lon="114.33730970159745">
        <ele>25.868300846777856</ele>
        <time>2026-07-03T22:58:16Z</time>
      </trkpt>
      <trkpt lat="30.667041674740688" lon="114.33732539054466">
        <ele>26.198339188471437</ele>
        <time>2026-07-03T22:58:19Z</time>
      </trkpt>
      <trkpt lat="30.66698227629803" lon="114.33731137413976">
        <ele>25.51528607495129</ele>
        <time>2026-07-03T22:58:22Z</time>
      </trkpt>
      <trkpt lat="30.666819670410515" lon="114.33732344068797">
        <ele>26.772839976474643</ele>
        <time>2026-07-03T22:58:29Z</time>
      </trkpt>
      <trkpt lat="30.666547648384288" lon="114.3374471284844">
        <ele>25.970429142937064</ele>
        <time>2026-07-03T22:58:44Z</time>
      </trkpt>
      <trkpt lat="30.666248738366463" lon="114.3375804369816">
        <ele>25.99157291278243</ele>
        <time>2026-07-03T22:59:00Z</time>
      </trkpt>
      <trkpt lat="30.665966086125703" lon="114.33770192327592">
        <ele>25.749596936628222</ele>
        <time>2026-07-03T22:59:15Z</time>
      </trkpt>
      <trkpt lat="30.66592953338783" lon="114.33774616902059">
        <ele>26.74535362329334</ele>
        <time>2026-07-03T22:59:19Z</time>
      </trkpt>
      <trkpt lat="30.665734493426463" lon="114.33780215484632">
        <ele>25.798831656575203</ele>
        <time>2026-07-03T22:59:31Z</time>
      </trkpt>
      <trkpt lat="30.66565136570527" lon="114.33780275196119">
        <ele>26.37726072408259</ele>
        <time>2026-07-03T22:59:35Z</time>
      </trkpt>
      <trkpt lat="30.665568757359836" lon="114.33785584164505">
        <ele>25.969184333458543</ele>
        <time>2026-07-03T22:59:39Z</time>
      </trkpt>
      <trkpt lat="30.66554227270235" lon="114.33791820314228">
        <ele>26.358115728013217</ele>
        <time>2026-07-03T22:59:43Z</time>
      </trkpt>
      <trkpt lat="30.665211837104135" lon="114.33802134624302">
        <ele>26.102916006930172</ele>
        <time>2026-07-03T22:59:58Z</time>
      </trkpt>
      <trkpt lat="30.66506102799875" lon="114.33810477478761">
        <ele>26.981962169520557</ele>
        <time>2026-07-03T23:00:05Z</time>
      </trkpt>
      <trkpt lat="30.665026877251666" lon="114.3382183066631">
        <ele>26.114290735684335</ele>
        <time>2026-07-03T23:00:13Z</time>
      </trkpt>
      <trkpt lat="30.665171625943888" lon="114.33852787561483">
        <ele>26.738011442124844</ele>
        <time>2026-07-03T23:00:29Z</time>
      </trkpt>
      <trkpt lat="30.665257676554635" lon="114.3388344722863">
        <ele>27.642860108986497</ele>
        <time>2026-07-03T23:00:41Z</time>
      </trkpt>
      <trkpt lat="30.665264689620436" lon="114.33895892708183">
        <ele>27.69178619235754</ele>
        <time>2026-07-03T23:00:45Z</time>
      </trkpt>
      <trkpt lat="30.665242750402605" lon="114.3390560638722">
        <ele>27.819100627675653</ele>
        <time>2026-07-03T23:00:49Z</time>
      </trkpt>
      <trkpt lat="30.66525710129935" lon="114.33923186013574">
        <ele>27.062852401286364</ele>
        <time>2026-07-03T23:00:57Z</time>
      </trkpt>
      <trkpt lat="30.665310928515673" lon="114.33932360302369">
        <ele>27.596799474209547</ele>
        <time>2026-07-03T23:01:01Z</time>
      </trkpt>
      <trkpt lat="30.66537064076162" lon="114.33947853173045">
        <ele>26.87730765528977</ele>
        <time>2026-07-03T23:01:09Z</time>
      </trkpt>
      <trkpt lat="30.665412928429866" lon="114.33979451523659">
        <ele>28.01819790713489</ele>
        <time>2026-07-03T23:01:24Z</time>
      </trkpt>
      <trkpt lat="30.665438987359295" lon="114.33990981143988">
        <ele>26.769407011568546</ele>
        <time>2026-07-03T23:01:28Z</time>
      </trkpt>
      <trkpt lat="30.665557605462947" lon="114.34014096601642">
        <ele>25.865521013736725</ele>
        <time>2026-07-03T23:01:40Z</time>
      </trkpt>
      <trkpt lat="30.6655928791209" lon="114.34033608757466">
        <ele>27.02032262645662</ele>
        <time>2026-07-03T23:01:48Z</time>
      </trkpt>
      <trkpt lat="30.665588745699637" lon="114.3404146292689">
        <ele>26.9866928961128</ele>
        <time>2026-07-03T23:01:51Z</time>
      </trkpt>
      <trkpt lat="30.665614313816842" lon="114.34052702860245">
        <ele>26.067800945602357</ele>
        <time>2026-07-03T23:01:55Z</time>
      </trkpt>
      <trkpt lat="30.665669760230802" lon="114.34062331081523">
        <ele>26.3905690908432</ele>
        <time>2026-07-03T23:01:59Z</time>
      </trkpt>
      <trkpt lat="30.665693114609812" lon="114.34070942308438">
        <ele>27.327533554285765</ele>
        <time>2026-07-03T23:02:02Z</time>
      </trkpt>
      <trkpt lat="30.665792755420718" lon="114.34085074190044">
        <ele>28.096515101380646</ele>
        <time>2026-07-03T23:02:09Z</time>
      </trkpt>
      <trkpt lat="30.66581632660865" lon="114.3409265504511">
        <ele>28.83463236875832</ele>
        <time>2026-07-03T23:02:12Z</time>
      </trkpt>
      <trkpt lat="30.665881685036485" lon="114.34096005664301">
        <ele>27.920244872570038</ele>
        <time>2026-07-03T23:02:15Z</time>
      </trkpt>
      <trkpt lat="30.666036130954925" lon="114.34096650448691">
        <ele>27.7265809122473</ele>
        <time>2026-07-03T23:02:23Z</time>
      </trkpt>
      <trkpt lat="30.666079513531994" lon="114.34081675499581">
        <ele>26.239125065505505</ele>
        <time>2026-07-03T23:02:31Z</time>
      </trkpt>
      <trkpt lat="30.66611142058597" lon="114.34051026103845">
        <ele>26.047972683794796</ele>
        <time>2026-07-03T23:02:43Z</time>
      </trkpt>
      <trkpt lat="30.666183624407417" lon="114.34033063071315">
        <ele>26.98741962388158</ele>
        <time>2026-07-03T23:02:51Z</time>
      </trkpt>
      <trkpt lat="30.666196691332722" lon="114.34023793103113">
        <ele>26.767928308807313</ele>
        <time>2026-07-03T23:02:55Z</time>
      </trkpt>
      <trkpt lat="30.666242819974087" lon="114.34022080524025">
        <ele>27.855495288968086</ele>
        <time>2026-07-03T23:02:59Z</time>
      </trkpt>
      <trkpt lat="30.666365280346213" lon="114.33992063837428">
        <ele>26.739828172139823</ele>
        <time>2026-07-03T23:03:15Z</time>
      </trkpt>
      <trkpt lat="30.666384689480502" lon="114.33985940237153">
        <ele>27.553205342963338</ele>
        <time>2026-07-03T23:03:18Z</time>
      </trkpt>
      <trkpt lat="30.66644159184025" lon="114.33980108826674">
        <ele>27.66247580293566</ele>
        <time>2026-07-03T23:03:22Z</time>
      </trkpt>
      <trkpt lat="30.66651804824102" lon="114.33965029660892">
        <ele>26.75213074684143</ele>
        <time>2026-07-03T23:03:29Z</time>
      </trkpt>
      <trkpt lat="30.666547123640967" lon="114.33937410136042">
        <ele>26.45522799063474</ele>
        <time>2026-07-03T23:03:41Z</time>
      </trkpt>
      <trkpt lat="30.66664937800008" lon="114.33900557601235">
        <ele>26.70051342435181</ele>
        <time>2026-07-03T23:03:56Z</time>
      </trkpt>
      <trkpt lat="30.666787689630194" lon="114.33870334470745">
        <ele>26.397373905405402</ele>
        <time>2026-07-03T23:04:11Z</time>
      </trkpt>
      <trkpt lat="30.6669107263623" lon="114.33851966119792">
        <ele>25.65555487945676</ele>
        <time>2026-07-03T23:04:21Z</time>
      </trkpt>
      <trkpt lat="30.66697520385321" lon="114.33845451455853">
        <ele>26.540846098214388</ele>
        <time>2026-07-03T23:04:25Z</time>
      </trkpt>
      <trkpt lat="30.667146654826578" lon="114.33810006292101">
        <ele>26.860335202887654</ele>
        <time>2026-07-03T23:04:41Z</time>
      </trkpt>
      <trkpt lat="30.667264752373672" lon="114.33773989636916">
        <ele>27.63710001949221</ele>
        <time>2026-07-03T23:04:56Z</time>
      </trkpt>
      <trkpt lat="30.667325843702653" lon="114.33755518391088">
        <ele>27.961761807091534</ele>
        <time>2026-07-03T23:05:04Z</time>
      </trkpt>
      <trkpt lat="30.667318032266603" lon="114.337391848319">
        <ele>26.787327198311687</ele>
        <time>2026-07-03T23:05:12Z</time>
      </trkpt>
      <trkpt lat="30.667237435160935" lon="114.33729318667949">
        <ele>25.84273407422006</ele>
        <time>2026-07-03T23:05:19Z</time>
      </trkpt>
      <trkpt lat="30.667043726378527" lon="114.33730096489572">
        <ele>26.22676072176546</ele>
        <time>2026-07-03T23:05:27Z</time>
      </trkpt>
      <trkpt lat="30.666948653499176" lon="114.33732431833567">
        <ele>25.813550646416843</ele>
        <time>2026-07-03T23:05:31Z</time>
      </trkpt>
      <trkpt lat="30.666880817565847" lon="114.33731458895947">
        <ele>27.61172443255782</ele>
        <time>2026-07-03T23:05:35Z</time>
      </trkpt>
      <trkpt lat="30.666725097856034" lon="114.33735349371">
        <ele>25.249242445454</ele>
        <time>2026-07-03T23:05:43Z</time>
      </trkpt>
      <trkpt lat="30.666488429260745" lon="114.33748121078908">
        <ele>26.374691422097385</ele>
        <time>2026-07-03T23:05:55Z</time>
      </trkpt>
      <trkpt lat="30.6664300144127" lon="114.337492563276">
        <ele>25.437611279077828</ele>
        <time>2026-07-03T23:05:58Z</time>
      </trkpt>
      <trkpt lat="30.66630492046792" lon="114.33757855972489">
        <ele>25.912405180744827</ele>
        <time>2026-07-03T23:06:05Z</time>
      </trkpt>
      <trkpt lat="30.666029034669467" lon="114.33765683405744">
        <ele>25.592974887229502</ele>
        <time>2026-07-03T23:06:20Z</time>
      </trkpt>
      <trkpt lat="30.665890393772433" lon="114.33777330343057">
        <ele>25.520871534012258</ele>
        <time>2026-07-03T23:06:30Z</time>
      </trkpt>
      <trkpt lat="30.665763122395624" lon="114.33779805819493">
        <ele>25.793780791573226</ele>
        <time>2026-07-03T23:06:36Z</time>
      </trkpt>
      <trkpt lat="30.665673117001035" lon="114.33778134345611">
        <ele>26.092533397488296</ele>
        <time>2026-07-03T23:06:42Z</time>
      </trkpt>
      <trkpt lat="30.665600952265887" lon="114.33784628673314">
        <ele>26.31662779301405</ele>
        <time>2026-07-03T23:06:45Z</time>
      </trkpt>
      <trkpt lat="30.66539063023254" lon="114.33795451693037">
        <ele>25.650789042934775</ele>
        <time>2026-07-03T23:06:54Z</time>
      </trkpt>
      <trkpt lat="30.665323505801616" lon="114.33797218508164">
        <ele>24.979234573431313</ele>
        <time>2026-07-03T23:06:57Z</time>
      </trkpt>
      <trkpt lat="30.665214265030425" lon="114.33803950199088">
        <ele>25.51161887589842</ele>
        <time>2026-07-03T23:07:03Z</time>
      </trkpt>
      <trkpt lat="30.665094226261644" lon="114.33808670623712">
        <ele>26.412027588114142</ele>
        <time>2026-07-03T23:07:09Z</time>
      </trkpt>
      <trkpt lat="30.66503615553098" lon="114.3381381072935">
        <ele>25.968769321218133</ele>
        <time>2026-07-03T23:07:13Z</time>
      </trkpt>
      <trkpt lat="30.665015575163324" lon="114.3382101036916">
        <ele>27.09549162350595</ele>
        <time>2026-07-03T23:07:17Z</time>
      </trkpt>
      <trkpt lat="30.66503913153742" lon="114.33828128395412">
        <ele>27.928134381771088</ele>
        <time>2026-07-03T23:07:21Z</time>
      </trkpt>
      <trkpt lat="30.664788310062438" lon="114.33839168053252">
        <ele>26.925494433380663</ele>
        <time>2026-07-03T23:07:33Z</time>
      </trkpt>
      <trkpt lat="30.664463239376005" lon="114.33848316034317">
        <ele>26.485713970847428</ele>
        <time>2026-07-03T23:07:49Z</time>
      </trkpt>
      <trkpt lat="30.664203518415423" lon="114.33861097432792">
        <ele>26.4832810992375</ele>
        <time>2026-07-03T23:08:01Z</time>
      </trkpt>
      <trkpt lat="30.664045692207115" lon="114.33865270898934">
        <ele>26.168831702321768</ele>
        <time>2026-07-03T23:08:09Z</time>
      </trkpt>
      <trkpt lat="30.663975174083347" lon="114.33870362109045">
        <ele>26.6132706226781</ele>
        <time>2026-07-03T23:08:13Z</time>
      </trkpt>
      <trkpt lat="30.66376484958339" lon="114.33877873359025">
        <ele>27.848622529767454</ele>
        <time>2026-07-03T23:08:23Z</time>
      </trkpt>
      <trkpt lat="30.663708818818343" lon="114.3388309141009">
        <ele>25.951251464895904</ele>
        <time>2026-07-03T23:08:26Z</time>
      </trkpt>
      <trkpt lat="30.663687944507494" lon="114.33891387155016">
        <ele>26.714506728574634</ele>
        <time>2026-07-03T23:08:29Z</time>
      </trkpt>
      <trkpt lat="30.6636572037857" lon="114.33895969689439">
        <ele>26.4942574352026</ele>
        <time>2026-07-03T23:08:32Z</time>
      </trkpt>
      <trkpt lat="30.663337633565458" lon="114.33906103279452">
        <ele>27.931639592163265</ele>
        <time>2026-07-03T23:08:48Z</time>
      </trkpt>
      <trkpt lat="30.663075599434745" lon="114.33917166564684">
        <ele>28.658576515503228</ele>
        <time>2026-07-03T23:09:03Z</time>
      </trkpt>
      <trkpt lat="30.66300987512321" lon="114.33922489089986">
        <ele>28.675186664797366</ele>
        <time>2026-07-03T23:09:07Z</time>
      </trkpt>
      <trkpt lat="30.662703511368893" lon="114.33933196532543">
        <ele>27.407464194111526</ele>
        <time>2026-07-03T23:09:23Z</time>
      </trkpt>
      <trkpt lat="30.662539655236344" lon="114.33940753293709">
        <ele>27.64290575776249</ele>
        <time>2026-07-03T23:09:31Z</time>
      </trkpt>
      <trkpt lat="30.66227303798317" lon="114.33950097575593">
        <ele>26.715080216526985</ele>
        <time>2026-07-03T23:09:43Z</time>
      </trkpt>
      <trkpt lat="30.662095542112418" lon="114.33954710895901">
        <ele>26.82145531103015</ele>
        <time>2026-07-03T23:09:51Z</time>
      </trkpt>
      <trkpt lat="30.662013238009575" lon="114.33952183488888">
        <ele>26.313715137541294</ele>
        <time>2026-07-03T23:09:55Z</time>
      </trkpt>
      <trkpt lat="30.661926957572145" lon="114.33916184299244">
        <ele>25.895497559569776</ele>
        <time>2026-07-03T23:10:11Z</time>
      </trkpt>
      <trkpt lat="30.661859037542037" lon="114.33879840421106">
        <ele>25.991258453577757</ele>
        <time>2026-07-03T23:10:26Z</time>
      </trkpt>
      <trkpt lat="30.66181892018447" lon="114.33844984869278">
        <ele>24.7415706301108</ele>
        <time>2026-07-03T23:10:40Z</time>
      </trkpt>
      <trkpt lat="30.661760680251902" lon="114.3380959892772">
        <ele>25.059353448450565</ele>
        <time>2026-07-03T23:10:55Z</time>
      </trkpt>
      <trkpt lat="30.661748044826012" lon="114.33803507433667">
        <ele>25.110756662674248</ele>
        <time>2026-07-03T23:10:59Z</time>
      </trkpt>
      <trkpt lat="30.661748044826012" lon="114.33803507433667">
        <ele>25.110756662674248</ele>
        <time>2026-07-03T23:11:00Z</time>
      </trkpt>
    </trkseg>
  </trk>
</gpx>