<?xml version="1.0" encoding="UTF-8"?>
<gpx xmlns="http://www.topografix.com/GPX/1/1" xmlns:gpxtpx="http://www.garmin.com/xmlschemas/TrackPointExtension/v1" xmlns:xsi="http://www.w3.org/2001/XMLSchema-instance" xsi:schemaLocation="http://www.topografix.com/GPX/1/1 http://www.topografix.com/GPX/1/1/gpx.xsd" version="1.1" creator="gpx.py -- https://github.com/tkrajina/gpxpy">
  <trk>
    <name>gpx from keep</name>
    <type>Run</type>
    <trkseg>
      <trkpt lat="30.492426537143693" lon="114.42230475086502">
        <ele>35.93095302581787</ele>
        <time>2026-08-04T23:35:16Z</time>
      </trkpt>
      <trkpt lat="30.492507096955745" lon="114.4221876630117">
        <ele>47.24047225952148</ele>
        <time>2026-08-04T23:37:14Z</time>
      </trkpt>
      <trkpt lat="30.492456149749795" lon="114.42226219648667">
        <ele>47.054308079971065</ele>
        <time>2026-08-04T23:42:20Z</time>
      </trkpt>
      <trkpt lat="30.492450440613375" lon="114.4226764895717">
        <ele>46.792343368530275</ele>
        <time>2026-08-04T23:52:46Z</time>
      </trkpt>
      <trkpt lat="30.492484601773022" lon="114.42241157781486">
        <ele>47.061247183680535</ele>
        <time>2026-08-04T23:53:05Z</time>
      </trkpt>
    </trkseg>
  </trk>
</gpx>