<?xml version="1.0" encoding="UTF-8"?>
<gpx xmlns="http://www.topografix.com/GPX/1/1" xmlns:gpxtpx="http://www.garmin.com/xmlschemas/TrackPointExtension/v1" xmlns:xsi="http://www.w3.org/2001/XMLSchema-instance" xsi:schemaLocation="http://www.topografix.com/GPX/1/1 http://www.topografix.com/GPX/1/1/gpx.xsd" version="1.1" creator="gpx.py -- https://github.com/tkrajina/gpxpy">
  <trk>
    <name>gpx from keep</name>
    <type>Run</type>
    <trkseg>
      <trkpt lat="30.456819434904904" lon="114.42869076539364">
        <ele>0.0</ele>
        <time>2021-05-07T00:10:54Z</time>
      </trkpt>
      <trkpt lat="30.45682559899437" lon="114.42880800689935">
        <ele>0.0</ele>
        <time>2021-05-07T00:10:58Z</time>
      </trkpt>
      <trkpt lat="30.45682975989565" lon="114.42892224299702">
        <ele>0.0</ele>
        <time>2021-05-07T00:11:03Z</time>
      </trkpt>
      <trkpt lat="30.456830919242698" lon="114.42903447580633">
        <ele>0.0</ele>
        <time>2021-05-07T00:11:07Z</time>
      </trkpt>
      <trkpt lat="30.456849086320084" lon="114.42915472443539">
        <ele>0.0</ele>
        <time>2021-05-07T00:11:13Z</time>
      </trkpt>
      <trkpt lat="30.456851262324598" lon="114.42927798141386">
        <ele>0.0</ele>
        <time>2021-05-07T00:11:20Z</time>
      </trkpt>
      <trkpt lat="30.456871411379705" lon="114.42938520396191">
        <ele>0.0</ele>
        <time>2021-05-07T00:11:25Z</time>
      </trkpt>
      <trkpt lat="30.456893563309094" lon="114.42949443108459">
        <ele>0.0</ele>
        <time>2021-05-07T00:11:30Z</time>
      </trkpt>
      <trkpt lat="30.45692771998895" lon="114.42960866827225">
        <ele>0.0</ele>
        <time>2021-05-07T00:11:35Z</time>
      </trkpt>
      <trkpt lat="30.456938878608042" lon="114.42971990172406">
        <ele>0.0</ele>
        <time>2021-05-07T00:11:40Z</time>
      </trkpt>
      <trkpt lat="30.456938049516946" lon="114.42983714951536">
        <ele>0.0</ele>
        <time>2021-05-07T00:11:45Z</time>
      </trkpt>
      <trkpt lat="30.456949225324763" lon="114.42995940753771">
        <ele>0.0</ele>
        <time>2021-05-07T00:11:50Z</time>
      </trkpt>
      <trkpt lat="30.456964383101976" lon="114.43006964034005">
        <ele>0.0</ele>
        <time>2021-05-07T00:11:54Z</time>
      </trkpt>
      <trkpt lat="30.456998530723904" lon="114.43017586351971">
        <ele>0.0</ele>
        <time>2021-05-07T00:11:58Z</time>
      </trkpt>
      <trkpt lat="30.457019679114037" lon="114.43028008407283">
        <ele>0.0</ele>
        <time>2021-05-07T00:12:02Z</time>
      </trkpt>
      <trkpt lat="30.457034833912267" lon="114.43038731209037">
        <ele>0.0</ele>
        <time>2021-05-07T00:12:06Z</time>
      </trkpt>
      <trkpt lat="30.457058985444796" lon="114.43049353771343">
        <ele>0.0</ele>
        <time>2021-05-07T00:12:10Z</time>
      </trkpt>
      <trkpt lat="30.457085132466325" lon="114.43059675722267">
        <ele>0.0</ele>
        <time>2021-05-07T00:12:14Z</time>
      </trkpt>
      <trkpt lat="30.457109311880238" lon="114.43072102277782">
        <ele>0.0</ele>
        <time>2021-05-07T00:12:19Z</time>
      </trkpt>
      <trkpt lat="30.457146479657364" lon="114.43083927492314">
        <ele>0.0</ele>
        <time>2021-05-07T00:12:25Z</time>
      </trkpt>
      <trkpt lat="30.457173644490155" lon="114.43095351989712">
        <ele>0.0</ele>
        <time>2021-05-07T00:12:30Z</time>
      </trkpt>
      <trkpt lat="30.45717383932511" lon="114.43108280048477">
        <ele>0.0</ele>
        <time>2021-05-07T00:12:35Z</time>
      </trkpt>
      <trkpt lat="30.457215983338035" lon="114.43118501925255">
        <ele>0.0</ele>
        <time>2021-05-07T00:12:40Z</time>
      </trkpt>
      <trkpt lat="30.457232163219523" lon="114.43130628233202">
        <ele>0.0</ele>
        <time>2021-05-07T00:12:45Z</time>
      </trkpt>
      <trkpt lat="30.457264329005096" lon="114.43142052934789">
        <ele>0.0</ele>
        <time>2021-05-07T00:12:50Z</time>
      </trkpt>
      <trkpt lat="30.457266501323122" lon="114.43153377736962">
        <ele>0.0</ele>
        <time>2021-05-07T00:12:55Z</time>
      </trkpt>
      <trkpt lat="30.457286674264385" lon="114.43165003103697">
        <ele>0.0</ele>
        <time>2021-05-07T00:13:00Z</time>
      </trkpt>
      <trkpt lat="30.457301839769773" lon="114.43176027250408">
        <ele>0.0</ele>
        <time>2021-05-07T00:13:05Z</time>
      </trkpt>
      <trkpt lat="30.457327995288043" lon="114.43186550250603">
        <ele>0.0</ele>
        <time>2021-05-07T00:13:10Z</time>
      </trkpt>
      <trkpt lat="30.457334159379645" lon="114.43197273919087">
        <ele>0.0</ele>
        <time>2021-05-07T00:13:15Z</time>
      </trkpt>
      <trkpt lat="30.457319354086884" lon="114.43209601382033">
        <ele>0.0</ele>
        <time>2021-05-07T00:13:20Z</time>
      </trkpt>
      <trkpt lat="30.457225457022275" lon="114.43214713550476">
        <ele>0.0</ele>
        <time>2021-05-07T00:13:25Z</time>
      </trkpt>
      <trkpt lat="30.457132534864684" lon="114.43218222155252">
        <ele>0.0</ele>
        <time>2021-05-07T00:13:30Z</time>
      </trkpt>
      <trkpt lat="30.457036601022946" lon="114.43220929007327">
        <ele>0.0</ele>
        <time>2021-05-07T00:13:35Z</time>
      </trkpt>
      <trkpt lat="30.456946654775102" lon="114.43222934248817">
        <ele>0.0</ele>
        <time>2021-05-07T00:13:40Z</time>
      </trkpt>
      <trkpt lat="30.45685473402171" lon="114.43226543081414">
        <ele>0.0</ele>
        <time>2021-05-07T00:13:45Z</time>
      </trkpt>
      <trkpt lat="30.456755786931694" lon="114.43228347959314">
        <ele>0.0</ele>
        <time>2021-05-07T00:13:50Z</time>
      </trkpt>
      <trkpt lat="30.45665583853226" lon="114.4323005262392">
        <ele>0.0</ele>
        <time>2021-05-07T00:13:55Z</time>
      </trkpt>
      <trkpt lat="30.45656191209918" lon="114.43233260591197">
        <ele>0.0</ele>
        <time>2021-05-07T00:14:00Z</time>
      </trkpt>
      <trkpt lat="30.456459972042357" lon="114.43235466395362">
        <ele>0.0</ele>
        <time>2021-05-07T00:14:05Z</time>
      </trkpt>
      <trkpt lat="30.456359034878286" lon="114.43237872640672">
        <ele>0.0</ele>
        <time>2021-05-07T00:14:10Z</time>
      </trkpt>
      <trkpt lat="30.456261100113466" lon="114.43240479310461">
        <ele>0.0</ele>
        <time>2021-05-07T00:14:15Z</time>
      </trkpt>
      <trkpt lat="30.45615914911294" lon="114.43241983553834">
        <ele>0.0</ele>
        <time>2021-05-07T00:14:20Z</time>
      </trkpt>
      <trkpt lat="30.456058213552385" lon="114.43244490030402">
        <ele>0.0</ele>
        <time>2021-05-07T00:14:25Z</time>
      </trkpt>
      <trkpt lat="30.455962268908724" lon="114.43246495345451">
        <ele>0.0</ele>
        <time>2021-05-07T00:14:30Z</time>
      </trkpt>
      <trkpt lat="30.455862353553435" lon="114.43250304734973">
        <ele>0.0</ele>
        <time>2021-05-07T00:14:35Z</time>
      </trkpt>
      <trkpt lat="30.455767402400014" lon="114.43251909148849">
        <ele>0.0</ele>
        <time>2021-05-07T00:14:40Z</time>
      </trkpt>
      <trkpt lat="30.455674468054838" lon="114.43254616016563">
        <ele>0.0</ele>
        <time>2021-05-07T00:14:45Z</time>
      </trkpt>
      <trkpt lat="30.45557554624898" lon="114.43258024512595">
        <ele>0.0</ele>
        <time>2021-05-07T00:14:50Z</time>
      </trkpt>
      <trkpt lat="30.455486604654162" lon="114.43260330453828">
        <ele>0.0</ele>
        <time>2021-05-07T00:14:56Z</time>
      </trkpt>
      <trkpt lat="30.455392646976968" lon="114.43261533966768">
        <ele>0.0</ele>
        <time>2021-05-07T00:15:01Z</time>
      </trkpt>
      <trkpt lat="30.455298712952914" lon="114.43264240855025">
        <ele>0.0</ele>
        <time>2021-05-07T00:15:06Z</time>
      </trkpt>
      <trkpt lat="30.455207763999002" lon="114.43266045694585">
        <ele>0.0</ele>
        <time>2021-05-07T00:15:11Z</time>
      </trkpt>
      <trkpt lat="30.455101829834057" lon="114.43268552241967">
        <ele>0.0</ele>
        <time>2021-05-07T00:15:17Z</time>
      </trkpt>
      <trkpt lat="30.454994881712526" lon="114.43270156773144">
        <ele>0.0</ele>
        <time>2021-05-07T00:15:23Z</time>
      </trkpt>
      <trkpt lat="30.454891935757182" lon="114.43271961721544">
        <ele>0.0</ele>
        <time>2021-05-07T00:15:29Z</time>
      </trkpt>
      <trkpt lat="30.454796010207644" lon="114.4327516976748">
        <ele>0.0</ele>
        <time>2021-05-07T00:15:34Z</time>
      </trkpt>
      <trkpt lat="30.454708073206252" lon="114.43277776394912">
        <ele>0.0</ele>
        <time>2021-05-07T00:15:39Z</time>
      </trkpt>
      <trkpt lat="30.454616130882343" lon="114.43279982157132">
        <ele>0.0</ele>
        <time>2021-05-07T00:15:44Z</time>
      </trkpt>
      <trkpt lat="30.454507137348298" lon="114.43278680167536">
        <ele>0.0</ele>
        <time>2021-05-07T00:15:50Z</time>
      </trkpt>
      <trkpt lat="30.454418105620128" lon="114.43275273268566">
        <ele>0.0</ele>
        <time>2021-05-07T00:15:55Z</time>
      </trkpt>
      <trkpt lat="30.454333016068666" lon="114.43268258230303">
        <ele>0.0</ele>
        <time>2021-05-07T00:16:01Z</time>
      </trkpt>
      <trkpt lat="30.45428287864447" lon="114.43258737290944">
        <ele>0.0</ele>
        <time>2021-05-07T00:16:06Z</time>
      </trkpt>
      <trkpt lat="30.45425071042257" lon="114.43247512424394">
        <ele>0.0</ele>
        <time>2021-05-07T00:16:11Z</time>
      </trkpt>
      <trkpt lat="30.45424153075174" lon="114.43235886521464">
        <ele>0.0</ele>
        <time>2021-05-07T00:16:16Z</time>
      </trkpt>
      <trkpt lat="30.45422437079077" lon="114.43225363205082">
        <ele>0.0</ele>
        <time>2021-05-07T00:16:21Z</time>
      </trkpt>
      <trkpt lat="30.454202207852045" lon="114.43214539314737">
        <ele>0.0</ele>
        <time>2021-05-07T00:16:26Z</time>
      </trkpt>
      <trkpt lat="30.45418204955606" lon="114.43204016127648">
        <ele>0.0</ele>
        <time>2021-05-07T00:16:31Z</time>
      </trkpt>
      <trkpt lat="30.454163892767593" lon="114.43193593195966">
        <ele>0.0</ele>
        <time>2021-05-07T00:16:36Z</time>
      </trkpt>
      <trkpt lat="30.454146725370837" lon="114.4318246875687">
        <ele>0.0</ele>
        <time>2021-05-07T00:16:41Z</time>
      </trkpt>
      <trkpt lat="30.454128566427368" lon="114.43171845487223">
        <ele>0.0</ele>
        <time>2021-05-07T00:16:46Z</time>
      </trkpt>
      <trkpt lat="30.45411240284853" lon="114.43160921591581">
        <ele>0.0</ele>
        <time>2021-05-07T00:16:51Z</time>
      </trkpt>
      <trkpt lat="30.45409024124802" lon="114.43149997803093">
        <ele>0.0</ele>
        <time>2021-05-07T00:16:56Z</time>
      </trkpt>
      <trkpt lat="30.454078082240233" lon="114.43139374640833">
        <ele>0.0</ele>
        <time>2021-05-07T00:17:01Z</time>
      </trkpt>
      <trkpt lat="30.454055926175545" lon="114.43128751617498">
        <ele>0.0</ele>
        <time>2021-05-07T00:17:06Z</time>
      </trkpt>
      <trkpt lat="30.45404476633561" lon="114.43118028332835">
        <ele>0.0</ele>
        <time>2021-05-07T00:17:11Z</time>
      </trkpt>
      <trkpt lat="30.454027600894896" lon="114.43106804064777">
        <ele>0.0</ele>
        <time>2021-05-07T00:17:16Z</time>
      </trkpt>
      <trkpt lat="30.454009437731237" lon="114.43095680081079">
        <ele>0.0</ele>
        <time>2021-05-07T00:17:21Z</time>
      </trkpt>
      <trkpt lat="30.45398928158859" lon="114.43084957039035">
        <ele>0.0</ele>
        <time>2021-05-07T00:17:26Z</time>
      </trkpt>
      <trkpt lat="30.45397711794671" lon="114.43073833116267">
        <ele>0.0</ele>
        <time>2021-05-07T00:17:31Z</time>
      </trkpt>
      <trkpt lat="30.453959965021802" lon="114.43063310588592">
        <ele>0.0</ele>
        <time>2021-05-07T00:17:36Z</time>
      </trkpt>
      <trkpt lat="30.453934790703755" lon="114.43051184738991">
        <ele>0.0</ele>
        <time>2021-05-07T00:17:42Z</time>
      </trkpt>
      <trkpt lat="30.453914617243356" lon="114.43039159129167">
        <ele>0.0</ele>
        <time>2021-05-07T00:17:48Z</time>
      </trkpt>
      <trkpt lat="30.453893463865903" lon="114.43028436378108">
        <ele>0.0</ele>
        <time>2021-05-07T00:17:53Z</time>
      </trkpt>
      <trkpt lat="30.45387630702667" lon="114.43017513218926">
        <ele>0.0</ele>
        <time>2021-05-07T00:17:58Z</time>
      </trkpt>
      <trkpt lat="30.4538631438126" lon="114.43006189228652">
        <ele>0.0</ele>
        <time>2021-05-07T00:18:03Z</time>
      </trkpt>
      <trkpt lat="30.453844975042937" lon="114.4299436427926">
        <ele>0.0</ele>
        <time>2021-05-07T00:18:09Z</time>
      </trkpt>
      <trkpt lat="30.45382083317782" lon="114.4298424305079">
        <ele>0.0</ele>
        <time>2021-05-07T00:18:15Z</time>
      </trkpt>
      <trkpt lat="30.453798669394637" lon="114.42972618680564">
        <ele>0.0</ele>
        <time>2021-05-07T00:18:22Z</time>
      </trkpt>
      <trkpt lat="30.453785519919215" lon="114.42962096615997">
        <ele>0.0</ele>
        <time>2021-05-07T00:18:29Z</time>
      </trkpt>
      <trkpt lat="30.453769339812876" lon="114.4294937000022">
        <ele>0.0</ele>
        <time>2021-05-07T00:18:36Z</time>
      </trkpt>
      <trkpt lat="30.453760178835967" lon="114.4293804633703">
        <ele>0.0</ele>
        <time>2021-05-07T00:18:42Z</time>
      </trkpt>
      <trkpt lat="30.4537720203878" lon="114.42927223598561">
        <ele>0.0</ele>
        <time>2021-05-07T00:18:47Z</time>
      </trkpt>
      <trkpt lat="30.453845892960306" lon="114.42919607061901">
        <ele>0.0</ele>
        <time>2021-05-07T00:18:52Z</time>
      </trkpt>
      <trkpt lat="30.453934807869206" lon="114.42915197100191">
        <ele>0.0</ele>
        <time>2021-05-07T00:18:57Z</time>
      </trkpt>
      <trkpt lat="30.454027747615935" lon="114.42912590867554">
        <ele>0.0</ele>
        <time>2021-05-07T00:19:02Z</time>
      </trkpt>
      <trkpt lat="30.454122688317288" lon="114.42910084829269">
        <ele>0.0</ele>
        <time>2021-05-07T00:19:07Z</time>
      </trkpt>
      <trkpt lat="30.454227619412773" lon="114.42907077665271">
        <ele>0.0</ele>
        <time>2021-05-07T00:19:13Z</time>
      </trkpt>
      <trkpt lat="30.454322547304905" lon="114.4290366975936">
        <ele>0.0</ele>
        <time>2021-05-07T00:19:18Z</time>
      </trkpt>
      <trkpt lat="30.4544184921039" lon="114.42901464347193">
        <ele>0.0</ele>
        <time>2021-05-07T00:19:23Z</time>
      </trkpt>
      <trkpt lat="30.454508432701143" lon="114.42898858157366">
        <ele>0.0</ele>
        <time>2021-05-07T00:19:28Z</time>
      </trkpt>
      <trkpt lat="30.45459738211378" lon="114.42896853226661">
        <ele>0.0</ele>
        <time>2021-05-07T00:19:33Z</time>
      </trkpt>
      <trkpt lat="30.45468532039548" lon="114.42894046644294">
        <ele>0.0</ele>
        <time>2021-05-07T00:19:38Z</time>
      </trkpt>
      <trkpt lat="30.454775271007332" lon="114.42892141917108">
        <ele>0.0</ele>
        <time>2021-05-07T00:19:43Z</time>
      </trkpt>
      <trkpt lat="30.45486922205431" lon="114.42890337364508">
        <ele>0.0</ele>
        <time>2021-05-07T00:19:48Z</time>
      </trkpt>
      <trkpt lat="30.45497515733551" lon="114.42887630842053">
        <ele>0.0</ele>
        <time>2021-05-07T00:19:54Z</time>
      </trkpt>
      <trkpt lat="30.455079097392638" lon="114.42885224962392">
        <ele>0.0</ele>
        <time>2021-05-07T00:20:00Z</time>
      </trkpt>
      <trkpt lat="30.455184040052032" lon="114.42883019491238">
        <ele>0.0</ele>
        <time>2021-05-07T00:20:06Z</time>
      </trkpt>
      <trkpt lat="30.455274993295074" lon="114.42881315179534">
        <ele>0.0</ele>
        <time>2021-05-07T00:20:11Z</time>
      </trkpt>
      <trkpt lat="30.455367924789712" lon="114.4287810774621">
        <ele>0.0</ele>
        <time>2021-05-07T00:20:16Z</time>
      </trkpt>
      <trkpt lat="30.455474866987135" lon="114.42875902265077">
        <ele>0.0</ele>
        <time>2021-05-07T00:20:21Z</time>
      </trkpt>
      <trkpt lat="30.45557579937194" lon="114.42872895184037">
        <ele>0.0</ele>
        <time>2021-05-07T00:20:26Z</time>
      </trkpt>
      <trkpt lat="30.45568074774885" lon="114.42871090552312">
        <ele>0.0</ele>
        <time>2021-05-07T00:20:31Z</time>
      </trkpt>
      <trkpt lat="30.455772693719265" lon="114.4286888520856">
        <ele>0.0</ele>
        <time>2021-05-07T00:20:36Z</time>
      </trkpt>
      <trkpt lat="30.455867644601053" lon="114.42867080666973">
        <ele>0.0</ele>
        <time>2021-05-07T00:20:41Z</time>
      </trkpt>
      <trkpt lat="30.45595859648593" lon="114.42865276161612">
        <ele>0.0</ele>
        <time>2021-05-07T00:20:46Z</time>
      </trkpt>
      <trkpt lat="30.45605655086039" lon="114.42863772216026">
        <ele>0.0</ele>
        <time>2021-05-07T00:20:51Z</time>
      </trkpt>
      <trkpt lat="30.45615747488578" lon="114.42860163915093">
        <ele>0.0</ele>
        <time>2021-05-07T00:20:57Z</time>
      </trkpt>
      <trkpt lat="30.45626340896846" lon="114.42857357224976">
        <ele>0.0</ele>
        <time>2021-05-07T00:21:03Z</time>
      </trkpt>
      <trkpt lat="30.45637335614252" lon="114.42855552563037">
        <ele>0.0</ele>
        <time>2021-05-07T00:21:08Z</time>
      </trkpt>
      <trkpt lat="30.456464310882527" lon="114.42853948479171">
        <ele>0.0</ele>
        <time>2021-05-07T00:21:13Z</time>
      </trkpt>
      <trkpt lat="30.456570254844546" lon="114.42851843237499">
        <ele>0.0</ele>
        <time>2021-05-07T00:21:19Z</time>
      </trkpt>
      <trkpt lat="30.456677237911144" lon="114.4285254374974">
        <ele>0.0</ele>
        <time>2021-05-07T00:21:25Z</time>
      </trkpt>
      <trkpt lat="30.456746314927265" lon="114.42859256950348">
        <ele>0.0</ele>
        <time>2021-05-07T00:21:30Z</time>
      </trkpt>
      <trkpt lat="30.456774481506628" lon="114.42871582095772">
        <ele>0.0</ele>
        <time>2021-05-07T00:21:36Z</time>
      </trkpt>
      <trkpt lat="30.456788656488467" lon="114.42884208056304">
        <ele>0.0</ele>
        <time>2021-05-07T00:21:42Z</time>
      </trkpt>
      <trkpt lat="30.456803797713935" lon="114.4289442909529">
        <ele>0.0</ele>
        <time>2021-05-07T00:21:47Z</time>
      </trkpt>
      <trkpt lat="30.45682994233601" lon="114.42905050921242">
        <ele>0.0</ele>
        <time>2021-05-07T00:21:52Z</time>
      </trkpt>
      <trkpt lat="30.456844106197156" lon="114.42916775201395">
        <ele>0.0</ele>
        <time>2021-05-07T00:21:58Z</time>
      </trkpt>
      <trkpt lat="30.456860254320528" lon="114.42927397225931">
        <ele>0.0</ele>
        <time>2021-05-07T00:22:03Z</time>
      </trkpt>
      <trkpt lat="30.45687741853031" lon="114.42939121603412">
        <ele>0.0</ele>
        <time>2021-05-07T00:22:08Z</time>
      </trkpt>
      <trkpt lat="30.45690058181356" lon="114.4295084599349">
        <ele>0.0</ele>
        <time>2021-05-07T00:22:13Z</time>
      </trkpt>
      <trkpt lat="30.456956728692504" lon="114.42961968896057">
        <ele>0.0</ele>
        <time>2021-05-07T00:22:18Z</time>
      </trkpt>
      <trkpt lat="30.456962898812776" lon="114.42973793770905">
        <ele>0.0</ele>
        <time>2021-05-07T00:22:24Z</time>
      </trkpt>
      <trkpt lat="30.45698306893406" lon="114.42985819014075">
        <ele>0.0</ele>
        <time>2021-05-07T00:22:30Z</time>
      </trkpt>
      <trkpt lat="30.457001235759943" lon="114.42997543704416">
        <ele>0.0</ele>
        <time>2021-05-07T00:22:36Z</time>
      </trkpt>
      <trkpt lat="30.457023405100955" lon="114.4300946885081">
        <ele>0.0</ele>
        <time>2021-05-07T00:22:42Z</time>
      </trkpt>
      <trkpt lat="30.45704155388962" lon="114.43019890892603">
        <ele>0.0</ele>
        <time>2021-05-07T00:22:47Z</time>
      </trkpt>
      <trkpt lat="30.457056734984075" lon="114.43032417509848">
        <ele>0.0</ele>
        <time>2021-05-07T00:22:53Z</time>
      </trkpt>
      <trkpt lat="30.457073887991484" lon="114.43043040101564">
        <ele>0.0</ele>
        <time>2021-05-07T00:22:58Z</time>
      </trkpt>
      <trkpt lat="30.45710205212536" lon="114.43054564588117">
        <ele>0.0</ele>
        <time>2021-05-07T00:23:04Z</time>
      </trkpt>
      <trkpt lat="30.45710722706379" lon="114.43066389983564">
        <ele>0.0</ele>
        <time>2021-05-07T00:23:10Z</time>
      </trkpt>
      <trkpt lat="30.457130372567484" lon="114.43076511609745">
        <ele>0.0</ele>
        <time>2021-05-07T00:23:15Z</time>
      </trkpt>
      <trkpt lat="30.45715052526478" lon="114.43087034176858">
        <ele>0.0</ele>
        <time>2021-05-07T00:23:21Z</time>
      </trkpt>
      <trkpt lat="30.457176676916543" lon="114.43097556743427">
        <ele>0.0</ele>
        <time>2021-05-07T00:23:26Z</time>
      </trkpt>
      <trkpt lat="30.457201844409045" lon="114.43109081548351">
        <ele>0.0</ele>
        <time>2021-05-07T00:23:32Z</time>
      </trkpt>
      <trkpt lat="30.45722200611492" lon="114.43120105366405">
        <ele>0.0</ele>
        <time>2021-05-07T00:23:37Z</time>
      </trkpt>
      <trkpt lat="30.457245170615952" lon="114.43131329652553">
        <ele>0.0</ele>
        <time>2021-05-07T00:23:43Z</time>
      </trkpt>
      <trkpt lat="30.45727034888253" lon="114.43143455954537">
        <ele>0.0</ele>
        <time>2021-05-07T00:23:49Z</time>
      </trkpt>
      <trkpt lat="30.45728150675132" lon="114.43153978926433">
        <ele>0.0</ele>
        <time>2021-05-07T00:23:54Z</time>
      </trkpt>
      <trkpt lat="30.457304686652865" lon="114.43166105372806">
        <ele>0.0</ele>
        <time>2021-05-07T00:24:00Z</time>
      </trkpt>
      <trkpt lat="30.457322851455356" lon="114.43177129499126">
        <ele>0.0</ele>
        <time>2021-05-07T00:24:05Z</time>
      </trkpt>
      <trkpt lat="30.457347021437315" lon="114.43188554515613">
        <ele>0.0</ele>
        <time>2021-05-07T00:24:10Z</time>
      </trkpt>
      <trkpt lat="30.457361183609716" lon="114.43199278124662">
        <ele>0.0</ele>
        <time>2021-05-07T00:24:15Z</time>
      </trkpt>
      <trkpt lat="30.457343371393463" lon="114.4321110451207">
        <ele>0.0</ele>
        <time>2021-05-07T00:24:20Z</time>
      </trkpt>
      <trkpt lat="30.457256488185333" lon="114.43217218851689">
        <ele>0.0</ele>
        <time>2021-05-07T00:24:25Z</time>
      </trkpt>
      <trkpt lat="30.457161571246864" lon="114.43221028146907">
        <ele>0.0</ele>
        <time>2021-05-07T00:24:30Z</time>
      </trkpt>
      <trkpt lat="30.457062630387806" lon="114.4322323391276">
        <ele>0.0</ele>
        <time>2021-05-07T00:24:35Z</time>
      </trkpt>
      <trkpt lat="30.45697772351771" lon="114.43227844918393">
        <ele>0.0</ele>
        <time>2021-05-07T00:24:40Z</time>
      </trkpt>
      <trkpt lat="30.456875789707443" lon="114.43230451610937">
        <ele>0.0</ele>
        <time>2021-05-07T00:24:46Z</time>
      </trkpt>
      <trkpt lat="30.45677885935685" lon="114.43233358934017">
        <ele>0.0</ele>
        <time>2021-05-07T00:24:51Z</time>
      </trkpt>
      <trkpt lat="30.456672901539534" lon="114.4323436208893">
        <ele>0.0</ele>
        <time>2021-05-07T00:24:57Z</time>
      </trkpt>
      <trkpt lat="30.45658396608221" lon="114.43237068900319">
        <ele>0.0</ele>
        <time>2021-05-07T00:25:02Z</time>
      </trkpt>
      <trkpt lat="30.456488038667366" lon="114.43240176671327">
        <ele>0.0</ele>
        <time>2021-05-07T00:25:07Z</time>
      </trkpt>
      <trkpt lat="30.456384094460553" lon="114.4324208182779">
        <ele>0.0</ele>
        <time>2021-05-07T00:25:13Z</time>
      </trkpt>
      <trkpt lat="30.456276152826533" lon="114.4324408724466">
        <ele>0.0</ele>
        <time>2021-05-07T00:25:19Z</time>
      </trkpt>
      <trkpt lat="30.456186231825598" lon="114.43247696094836">
        <ele>0.0</ele>
        <time>2021-05-07T00:25:24Z</time>
      </trkpt>
      <trkpt lat="30.456090288791803" lon="114.43249801637188">
        <ele>0.0</ele>
        <time>2021-05-07T00:25:29Z</time>
      </trkpt>
      <trkpt lat="30.455994331617923" lon="114.43251005161717">
        <ele>0.0</ele>
        <time>2021-05-07T00:25:34Z</time>
      </trkpt>
      <trkpt lat="30.45589438959248" lon="114.43253110741904">
        <ele>0.0</ele>
        <time>2021-05-07T00:25:39Z</time>
      </trkpt>
      <trkpt lat="30.45579745154831" lon="114.43255516971925">
        <ele>0.0</ele>
        <time>2021-05-07T00:25:44Z</time>
      </trkpt>
      <trkpt lat="30.45570549180335" lon="114.43256620240246">
        <ele>0.0</ele>
        <time>2021-05-07T00:25:49Z</time>
      </trkpt>
      <trkpt lat="30.455618554434" lon="114.43259226837004">
        <ele>0.0</ele>
        <time>2021-05-07T00:25:54Z</time>
      </trkpt>
      <trkpt lat="30.45552859891876" lon="114.43260630764367">
        <ele>0.0</ele>
        <time>2021-05-07T00:25:59Z</time>
      </trkpt>
      <trkpt lat="30.455429661411703" lon="114.43263037019958">
        <ele>0.0</ele>
        <time>2021-05-07T00:26:05Z</time>
      </trkpt>
      <trkpt lat="30.455331733137633" lon="114.43266044620006">
        <ele>0.0</ele>
        <time>2021-05-07T00:26:11Z</time>
      </trkpt>
      <trkpt lat="30.455238798908997" lon="114.43268751505171">
        <ele>0.0</ele>
        <time>2021-05-07T00:26:17Z</time>
      </trkpt>
      <trkpt lat="30.455141857795695" lon="114.43270957301681">
        <ele>0.0</ele>
        <time>2021-05-07T00:26:23Z</time>
      </trkpt>
      <trkpt lat="30.45505292577187" lon="114.43273864609135">
        <ele>0.0</ele>
        <time>2021-05-07T00:26:29Z</time>
      </trkpt>
      <trkpt lat="30.454946983759637" lon="114.4327587003767">
        <ele>0.0</ele>
        <time>2021-05-07T00:26:35Z</time>
      </trkpt>
      <trkpt lat="30.454835041660573" lon="114.43277775294389">
        <ele>0.0</ele>
        <time>2021-05-07T00:26:41Z</time>
      </trkpt>
      <trkpt lat="30.45474509885144" lon="114.4327998103929">
        <ele>0.0</ele>
        <time>2021-05-07T00:26:47Z</time>
      </trkpt>
      <trkpt lat="30.454640161362967" lon="114.43282287142219">
        <ele>0.0</ele>
        <time>2021-05-07T00:26:53Z</time>
      </trkpt>
      <trkpt lat="30.4545351494026" lon="114.43279882633301">
        <ele>0.0</ele>
        <time>2021-05-07T00:26:59Z</time>
      </trkpt>
      <trkpt lat="30.454440158720878" lon="114.43278981425156">
        <ele>0.0</ele>
        <time>2021-05-07T00:27:04Z</time>
      </trkpt>
      <trkpt lat="30.45434608710411" lon="114.43272968706836">
        <ele>0.0</ele>
        <time>2021-05-07T00:27:10Z</time>
      </trkpt>
      <trkpt lat="30.454278956865856" lon="114.43263648344204">
        <ele>0.0</ele>
        <time>2021-05-07T00:27:17Z</time>
      </trkpt>
      <trkpt lat="30.454246802572552" lon="114.43253325472772">
        <ele>0.0</ele>
        <time>2021-05-07T00:27:26Z</time>
      </trkpt>
      <trkpt lat="30.45422560364952" lon="114.43240296507655">
        <ele>0.0</ele>
        <time>2021-05-07T00:27:29Z</time>
      </trkpt>
      <trkpt lat="30.45421140837364" lon="114.43227568229739">
        <ele>0.0</ele>
        <time>2021-05-07T00:27:36Z</time>
      </trkpt>
      <trkpt lat="30.454182240840264" lon="114.43216343497832">
        <ele>0.0</ele>
        <time>2021-05-07T00:27:43Z</time>
      </trkpt>
      <trkpt lat="30.454172081541305" lon="114.43205920437664">
        <ele>0.0</ele>
        <time>2021-05-07T00:27:49Z</time>
      </trkpt>
      <trkpt lat="30.454149930309683" lon="114.43195798197065">
        <ele>0.0</ele>
        <time>2021-05-07T00:27:55Z</time>
      </trkpt>
      <trkpt lat="30.454134765405584" lon="114.4318487417203">
        <ele>0.0</ele>
        <time>2021-05-07T00:28:01Z</time>
      </trkpt>
      <trkpt lat="30.454123587681156" lon="114.43173148400716">
        <ele>0.0</ele>
        <time>2021-05-07T00:28:07Z</time>
      </trkpt>
      <trkpt lat="30.454109395918103" lon="114.43160420516416">
        <ele>0.0</ele>
        <time>2021-05-07T00:28:13Z</time>
      </trkpt>
      <trkpt lat="30.454089244556453" lon="114.43150198251249">
        <ele>0.0</ele>
        <time>2021-05-07T00:28:18Z</time>
      </trkpt>
      <trkpt lat="30.454072066943887" lon="114.43138272281409">
        <ele>0.0</ele>
        <time>2021-05-07T00:28:24Z</time>
      </trkpt>
      <trkpt lat="30.454057895258142" lon="114.43126747226015">
        <ele>0.0</ele>
        <time>2021-05-07T00:28:30Z</time>
      </trkpt>
      <trkpt lat="30.45403274200712" lon="114.4311622450901">
        <ele>0.0</ele>
        <time>2021-05-07T00:28:35Z</time>
      </trkpt>
      <trkpt lat="30.454018560792555" lon="114.43103998048075">
        <ele>0.0</ele>
        <time>2021-05-07T00:28:41Z</time>
      </trkpt>
      <trkpt lat="30.454001400523822" lon="114.43093074504385">
        <ele>0.0</ele>
        <time>2021-05-07T00:28:46Z</time>
      </trkpt>
      <trkpt lat="30.453985245008738" lon="114.43082451657249">
        <ele>0.0</ele>
        <time>2021-05-07T00:28:51Z</time>
      </trkpt>
      <trkpt lat="30.453982082249446" lon="114.43071528101592">
        <ele>0.0</ele>
        <time>2021-05-07T00:28:56Z</time>
      </trkpt>
      <trkpt lat="30.45395791174836" lon="114.43059702843495">
        <ele>0.0</ele>
        <time>2021-05-07T00:29:02Z</time>
      </trkpt>
      <trkpt lat="30.453930764893915" lon="114.43049380901887">
        <ele>0.0</ele>
        <time>2021-05-07T00:29:07Z</time>
      </trkpt>
      <trkpt lat="30.45391960413291" lon="114.4303835736933">
        <ele>0.0</ele>
        <time>2021-05-07T00:29:12Z</time>
      </trkpt>
      <trkpt lat="30.453903446594897" lon="114.43027434150862">
        <ele>0.0</ele>
        <time>2021-05-07T00:29:17Z</time>
      </trkpt>
      <trkpt lat="30.453888284882236" lon="114.43016210338914">
        <ele>0.0</ele>
        <time>2021-05-07T00:29:22Z</time>
      </trkpt>
      <trkpt lat="30.45387312810497" lon="114.43005287224811">
        <ele>0.0</ele>
        <time>2021-05-07T00:29:27Z</time>
      </trkpt>
      <trkpt lat="30.453853974281134" lon="114.42994464413701">
        <ele>0.0</ele>
        <time>2021-05-07T00:29:32Z</time>
      </trkpt>
      <trkpt lat="30.453837826048428" lon="114.42984042479374">
        <ele>0.0</ele>
        <time>2021-05-07T00:29:37Z</time>
      </trkpt>
      <trkpt lat="30.453820672690103" lon="114.42973219758629">
        <ele>0.0</ele>
        <time>2021-05-07T00:29:42Z</time>
      </trkpt>
      <trkpt lat="30.45380650456017" lon="114.42961394957248">
        <ele>0.0</ele>
        <time>2021-05-07T00:29:48Z</time>
      </trkpt>
      <trkpt lat="30.45379035053293" lon="114.42950472132418">
        <ele>0.0</ele>
        <time>2021-05-07T00:29:53Z</time>
      </trkpt>
      <trkpt lat="30.453770202322964" lon="114.4293985002806">
        <ele>0.0</ele>
        <time>2021-05-07T00:29:58Z</time>
      </trkpt>
      <trkpt lat="30.453768051571014" lon="114.42929328030068">
        <ele>0.0</ele>
        <time>2021-05-07T00:30:03Z</time>
      </trkpt>
      <trkpt lat="30.453838901863886" lon="114.42920108167486">
        <ele>0.0</ele>
        <time>2021-05-07T00:30:09Z</time>
      </trkpt>
      <trkpt lat="30.4539368030774" lon="114.429148964566">
        <ele>0.0</ele>
        <time>2021-05-07T00:30:15Z</time>
      </trkpt>
      <trkpt lat="30.454039731764958" lon="114.42911688885974">
        <ele>0.0</ele>
        <time>2021-05-07T00:30:21Z</time>
      </trkpt>
      <trkpt lat="30.454141667880894" lon="114.42908982371102">
        <ele>0.0</ele>
        <time>2021-05-07T00:30:27Z</time>
      </trkpt>
      <trkpt lat="30.45424460948394" lon="114.42906676684373">
        <ele>0.0</ele>
        <time>2021-05-07T00:30:33Z</time>
      </trkpt>
      <trkpt lat="30.45434353781563" lon="114.42903368952607">
        <ele>0.0</ele>
        <time>2021-05-07T00:30:39Z</time>
      </trkpt>
      <trkpt lat="30.45444547827436" lon="114.4290096307253">
        <ele>0.0</ele>
        <time>2021-05-07T00:30:45Z</time>
      </trkpt>
      <trkpt lat="30.454534423398623" lon="114.42898657515894">
        <ele>0.0</ele>
        <time>2021-05-07T00:30:50Z</time>
      </trkpt>
      <trkpt lat="30.4546263677927" lon="114.42896351935732">
        <ele>0.0</ele>
        <time>2021-05-07T00:30:55Z</time>
      </trkpt>
      <trkpt lat="30.45473330562892" lon="114.42893845812453">
        <ele>0.0</ele>
        <time>2021-05-07T00:31:01Z</time>
      </trkpt>
      <trkpt lat="30.45482726378002" lon="114.42892542296792">
        <ele>0.0</ele>
        <time>2021-05-07T00:31:06Z</time>
      </trkpt>
      <trkpt lat="30.454917210125718" lon="114.4289033694817">
        <ele>0.0</ele>
        <time>2021-05-07T00:31:11Z</time>
      </trkpt>
      <trkpt lat="30.455013156413038" lon="114.4288823175727">
        <ele>0.0</ele>
        <time>2021-05-07T00:31:16Z</time>
      </trkpt>
      <trkpt lat="30.455105105124872" lon="114.4288622681053">
        <ele>0.0</ele>
        <time>2021-05-07T00:31:21Z</time>
      </trkpt>
      <trkpt lat="30.45519705810317" lon="114.42884522487586">
        <ele>0.0</ele>
        <time>2021-05-07T00:31:26Z</time>
      </trkpt>
      <trkpt lat="30.455302997671197" lon="114.42882116594076">
        <ele>0.0</ele>
        <time>2021-05-07T00:31:32Z</time>
      </trkpt>
      <trkpt lat="30.455398942577414" lon="114.42879911204199">
        <ele>0.0</ele>
        <time>2021-05-07T00:31:37Z</time>
      </trkpt>
      <trkpt lat="30.455488890406148" lon="114.4287780607564">
        <ele>0.0</ele>
        <time>2021-05-07T00:31:42Z</time>
      </trkpt>
      <trkpt lat="30.455586840499127" lon="114.42876001500467">
        <ele>0.0</ele>
        <time>2021-05-07T00:31:47Z</time>
      </trkpt>
      <trkpt lat="30.455678773700665" lon="114.4287289429058">
        <ele>0.0</ele>
        <time>2021-05-07T00:31:52Z</time>
      </trkpt>
      <trkpt lat="30.455771709511524" lon="114.42869987489802">
        <ele>0.0</ele>
        <time>2021-05-07T00:31:57Z</time>
      </trkpt>
      <trkpt lat="30.455862667033085" lon="114.42868583808165">
        <ele>0.0</ele>
        <time>2021-05-07T00:32:02Z</time>
      </trkpt>
      <trkpt lat="30.45595260503998" lon="114.42865777245721">
        <ele>0.0</ele>
        <time>2021-05-07T00:32:07Z</time>
      </trkpt>
      <trkpt lat="30.45604854580517" lon="114.42863271253836">
        <ele>0.0</ele>
        <time>2021-05-07T00:32:12Z</time>
      </trkpt>
      <trkpt lat="30.456148502503726" lon="114.4286196770479">
        <ele>0.0</ele>
        <time>2021-05-07T00:32:18Z</time>
      </trkpt>
      <trkpt lat="30.456252441291834" lon="114.42859461647993">
        <ele>0.0</ele>
        <time>2021-05-07T00:32:24Z</time>
      </trkpt>
      <trkpt lat="30.456361378845976" lon="114.42856955550772">
        <ele>0.0</ele>
        <time>2021-05-07T00:32:30Z</time>
      </trkpt>
      <trkpt lat="30.456453323479288" lon="114.42854650015765">
        <ele>0.0</ele>
        <time>2021-05-07T00:32:35Z</time>
      </trkpt>
      <trkpt lat="30.456545270938292" lon="114.4285254489485">
        <ele>0.0</ele>
        <time>2021-05-07T00:32:40Z</time>
      </trkpt>
      <trkpt lat="30.45664424616954" lon="114.42852544036018">
        <ele>0.0</ele>
        <time>2021-05-07T00:32:45Z</time>
      </trkpt>
      <trkpt lat="30.4567283250683" lon="114.42859657931004">
        <ele>0.0</ele>
        <time>2021-05-07T00:32:51Z</time>
      </trkpt>
      <trkpt lat="30.45675047761889" lon="114.42870880857177">
        <ele>0.0</ele>
        <time>2021-05-07T00:32:57Z</time>
      </trkpt>
      <trkpt lat="30.456763645719967" lon="114.42883005785926">
        <ele>0.0</ele>
        <time>2021-05-07T00:33:03Z</time>
      </trkpt>
      <trkpt lat="30.456789808337607" lon="114.42894930255699">
        <ele>0.0</ele>
        <time>2021-05-07T00:33:09Z</time>
      </trkpt>
      <trkpt lat="30.45680696809184" lon="114.42906454037181">
        <ele>0.0</ele>
        <time>2021-05-07T00:33:15Z</time>
      </trkpt>
      <trkpt lat="30.45682910995357" lon="114.42916775331503">
        <ele>0.0</ele>
        <time>2021-05-07T00:33:20Z</time>
      </trkpt>
      <trkpt lat="30.45686326938343" lon="114.42928499502919">
        <ele>0.0</ele>
        <time>2021-05-07T00:33:26Z</time>
      </trkpt>
      <trkpt lat="30.45689143666379" lon="114.42940624630882">
        <ele>0.0</ele>
        <time>2021-05-07T00:33:32Z</time>
      </trkpt>
      <trkpt lat="30.45690959982523" lon="114.42952248862099">
        <ele>0.0</ele>
        <time>2021-05-07T00:33:38Z</time>
      </trkpt>
      <trkpt lat="30.45692075659051" lon="114.4296327195125">
        <ele>0.0</ele>
        <time>2021-05-07T00:33:43Z</time>
      </trkpt>
      <trkpt lat="30.45694691885011" lon="114.42974896236703">
        <ele>0.0</ele>
        <time>2021-05-07T00:33:49Z</time>
      </trkpt>
      <trkpt lat="30.45696906951814" lon="114.42985618711324">
        <ele>0.0</ele>
        <time>2021-05-07T00:33:54Z</time>
      </trkpt>
      <trkpt lat="30.45698822141813" lon="114.4299634126584">
        <ele>0.0</ele>
        <time>2021-05-07T00:33:59Z</time>
      </trkpt>
      <trkpt lat="30.456998378995213" lon="114.43007264378414">
        <ele>0.0</ele>
        <time>2021-05-07T00:34:04Z</time>
      </trkpt>
      <trkpt lat="30.457025544615327" lon="114.43018989108374">
        <ele>0.0</ele>
        <time>2021-05-07T00:34:10Z</time>
      </trkpt>
      <trkpt lat="30.457056693519934" lon="114.43029611512078">
        <ele>0.0</ele>
        <time>2021-05-07T00:34:15Z</time>
      </trkpt>
      <trkpt lat="30.45706985037533" lon="114.43040434553853">
        <ele>0.0</ele>
        <time>2021-05-07T00:34:20Z</time>
      </trkpt>
      <trkpt lat="30.457094009429007" lon="114.43051558200382">
        <ele>0.0</ele>
        <time>2021-05-07T00:34:25Z</time>
      </trkpt>
      <trkpt lat="30.457110187439827" lon="114.43063784346796">
        <ele>0.0</ele>
        <time>2021-05-07T00:34:31Z</time>
      </trkpt>
      <trkpt lat="30.45712636157305" lon="114.43075709913927">
        <ele>0.0</ele>
        <time>2021-05-07T00:34:37Z</time>
      </trkpt>
      <trkpt lat="30.457162528273024" lon="114.43087434940136">
        <ele>0.0</ele>
        <time>2021-05-07T00:34:43Z</time>
      </trkpt>
      <trkpt lat="30.45717869753921" lon="114.43098959768908">
        <ele>0.0</ele>
        <time>2021-05-07T00:34:49Z</time>
      </trkpt>
      <trkpt lat="30.457207864095498" lon="114.43110484546658">
        <ele>0.0</ele>
        <time>2021-05-07T00:34:55Z</time>
      </trkpt>
      <trkpt lat="30.457232038530407" lon="114.43122410303226">
        <ele>0.0</ele>
        <time>2021-05-07T00:35:01Z</time>
      </trkpt>
      <trkpt lat="30.457265206724298" lon="114.43134035390662">
        <ele>0.0</ele>
        <time>2021-05-07T00:35:07Z</time>
      </trkpt>
      <trkpt lat="30.457293361446983" lon="114.43144658388809">
        <ele>0.0</ele>
        <time>2021-05-07T00:35:14Z</time>
      </trkpt>
      <trkpt lat="30.457294524941624" lon="114.4315538189324">
        <ele>0.0</ele>
        <time>2021-05-07T00:35:24Z</time>
      </trkpt>
      <trkpt lat="30.457294524941624" lon="114.4315538189324">
        <ele>0.0</ele>
        <time>2021-05-07T00:35:25Z</time>
      </trkpt>
    </trkseg>
  </trk>
</gpx>